<?xml version="1.0" encoding="UTF-8"?>
<kml xmlns="http://www.opengis.net/kml/2.2">
  <Document>
    <name>Calera_-_Sopo.gpx</name>
    <Style id="icon-123-normal">
      <IconStyle>
        <scale>1.1</scale>
        <Icon>
          <href>https://www.gstatic.com/mapspro/images/stock/123-red-dot.png</href>
        </Icon>
        <hotSpot x="16" xunits="pixels" y="32" yunits="insetPixels"/>
      </IconStyle>
      <LabelStyle>
        <scale>0</scale>
      </LabelStyle>
    </Style>
    <Style id="icon-123-highlight">
      <IconStyle>
        <scale>1.1</scale>
        <Icon>
          <href>https://www.gstatic.com/mapspro/images/stock/123-red-dot.png</href>
        </Icon>
        <hotSpot x="16" xunits="pixels" y="32" yunits="insetPixels"/>
      </IconStyle>
      <LabelStyle>
        <scale>1.1</scale>
      </LabelStyle>
    </Style>
    <StyleMap id="icon-123">
      <Pair>
        <key>normal</key>
        <styleUrl>#icon-123-normal</styleUrl>
      </Pair>
      <Pair>
        <key>highlight</key>
        <styleUrl>#icon-123-highlight</styleUrl>
      </Pair>
    </StyleMap>
    <Style id="icon-61-normal">
      <IconStyle>
        <scale>1.1</scale>
        <Icon>
          <href>https://www.gstatic.com/mapspro/images/stock/61-green-dot.png</href>
        </Icon>
        <hotSpot x="16" xunits="pixels" y="32" yunits="insetPixels"/>
      </IconStyle>
      <LabelStyle>
        <scale>0</scale>
      </LabelStyle>
    </Style>
    <Style id="icon-61-highlight">
      <IconStyle>
        <scale>1.1</scale>
        <Icon>
          <href>https://www.gstatic.com/mapspro/images/stock/61-green-dot.png</href>
        </Icon>
        <hotSpot x="16" xunits="pixels" y="32" yunits="insetPixels"/>
      </IconStyle>
      <LabelStyle>
        <scale>1.1</scale>
      </LabelStyle>
    </Style>
    <StyleMap id="icon-61">
      <Pair>
        <key>normal</key>
        <styleUrl>#icon-61-normal</styleUrl>
      </Pair>
      <Pair>
        <key>highlight</key>
        <styleUrl>#icon-61-highlight</styleUrl>
      </Pair>
    </StyleMap>
    <Style id="line-E65100-5000-normal">
      <LineStyle>
        <color>ff0051e6</color>
        <width>5</width>
      </LineStyle>
    </Style>
    <Style id="line-E65100-5000-highlight">
      <LineStyle>
        <color>ff0051e6</color>
        <width>7.5</width>
      </LineStyle>
    </Style>
    <StyleMap id="line-E65100-5000">
      <Pair>
        <key>normal</key>
        <styleUrl>#line-E65100-5000-normal</styleUrl>
      </Pair>
      <Pair>
        <key>highlight</key>
        <styleUrl>#line-E65100-5000-highlight</styleUrl>
      </Pair>
    </StyleMap>
    <Placemark>
      <name>Start of Track 1</name>
      <description><![CDATA[Saturday, June 20, 2026, 6:22 PM GMT-05:00<br>Elevation: 8899 feet]]></description>
      <styleUrl>#icon-61</styleUrl>
      <Point>
        <coordinates>
          -73.9684679,4.7202317,2712.40014648438
        </coordinates>
      </Point>
    </Placemark>
    <Placemark>
      <name>End of Track 1</name>
      <description><![CDATA[Saturday, June 20, 2026, 7:36 PM GMT-05:00<br>Elevation: 8533 feet]]></description>
      <styleUrl>#icon-123</styleUrl>
      <Point>
        <coordinates>
          -73.9400965,4.9076308,2600.70744257159
        </coordinates>
      </Point>
    </Placemark>
    <Placemark>
      <name>Track 1</name>
      <description><![CDATA[Statistics computed from imported data<br><br>Saturday, June 20, 2026, 6:22 PM GMT-05:00<br>Distance: 17.5 miles<br>Duration: 1 hours, 14 minutes, and 5 seconds<br>Average Speed: 14.2 mph<br>Minimum Elevation: 8477 feet<br>Maximum Elevation: 9241 feet<br>Total climb: 780 feet<br>Total descent: 1145 feet]]></description>
      <styleUrl>#line-E65100-5000</styleUrl>
      <LineString>
        <tessellate>1</tessellate>
        <coordinates>
          -73.9684679,4.7202317,2712.40014648438
          -73.9684727,4.7202259,2712.40014648438
          -73.9684775,4.7202195,2712.40014648438
          -73.968481,4.7202158,2712.10009765625
          -73.9685877,4.720191,2712.40014648438
          -73.9687254,4.7199992,2712.40014648438
          -73.9688277,4.7198624,2714.10009765625
          -73.9689007,4.7197954,2714.10009765625
          -73.9690775,4.7199155,2714.10009765625
          -73.9692497,4.7200557,2715.30004882812
          -73.969206,4.7201852,2715.30004882812
          -73.9691226,4.7203238,2715.30004882812
          -73.969071,4.7204624,2715.30004882812
          -73.9691403,4.7205512,2714.30004882812
          -73.9693835,4.7206825,2714.30004882812
          -73.969647,4.7208782,2714.30004882812
          -73.9698633,4.721122,2721.23779295794
          -73.97006,4.7213753,2728.14387435333
          -73.9702038,4.7215848,2728.854379969
          -73.9703186,4.7217215,2728.46713223539
          -73.9705052,4.7219729,2728.42628374183
          -73.9707222,4.7222676,2731.22755525339
          -73.9707341,4.722527,2735.47737048369
          -73.9704727,4.7226888,2737.33269143949
          -73.970142,4.7227724,2740.81651568056
          -73.9699045,4.723007,2743.63486160808
          -73.9698844,4.7233693,2746.7395119816
          -73.9699435,4.7237374,2750.61033239267
          -73.9700751,4.7241432,2754.82374291027
          -73.9699348,4.7244654,2759.12949313365
          -73.9695953,4.7245604,2762.89810002905
          -73.9692788,4.7246101,2765.66325729742
          -73.9690591,4.7248356,2769.22538326292
          -73.9691367,4.725111,2772.1964425552
          -73.9691813,4.7252919,2773.08364130118
          -73.9691797,4.7252894,2772.50024414062
          -73.9691797,4.7252881,2773.00024414062
          -73.9691811,4.7252876,2773.00024414062
          -73.9691854,4.7253092,2772.50024414062
          -73.9692212,4.7255271,2772.50024414062
          -73.9692537,4.7259444,2772.50024414062
          -73.9692925,4.7263215,2773.00024414062
          -73.9693634,4.7266862,2775.95903751381
          -73.9694632,4.7271824,2774.96653658091
          -73.9695362,4.7275775,2772.50024414062
          -73.9695419,4.7278544,2772.50024414062
          -73.969544,4.7282997,2772.50024414062
          -73.9695508,4.7287896,2774.57386455098
          -73.9695956,4.7292659,2780.51178770029
          -73.9696329,4.7297893,2784.25373351429
          -73.9696661,4.7302037,2785.91957676763
          -73.9696878,4.7305834,2785.41354257817
          -73.9696617,4.7309762,2785.28038492366
          -73.9696408,4.731339,2785.86709852545
          -73.9696102,4.7318111,2787.28426924062
          -73.9695732,4.7322284,2790.63234446603
          -73.9695161,4.7326481,2795.0041533899
          -73.9695012,4.7329909,2796.57977523238
          -73.9694721,4.7333375,2797.31178373597
          -73.9694595,4.7336391,2799.91774232422
          -73.9694396,4.7339793,2804.78062993333
          -73.9694454,4.7343139,2807.96498096259
          -73.9694796,4.7346235,2807.29621437283
          -73.9695036,4.7347873,2804.96891981443
          -73.9695201,4.7349262,2804.32114809744
          -73.9695418,4.735266,2801.66909672797
          -73.9695485,4.735678,2800.34711967727
          -73.9695727,4.7360724,2801.09371711658
          -73.9695949,4.7364952,2802.73056027142
          -73.9696227,4.7368487,2805.32014471722
          -73.9695646,4.7372329,2805.35366692417
          -73.9694003,4.7376449,2800.31371660261
          -73.9692452,4.7380501,2800.08084269843
          -73.9690828,4.738435,2800.48917633156
          -73.9689215,4.7388293,2800.24127715079
          -73.9687908,4.7390959,2800.45012265585
          -73.9686172,4.739286,2800.55006912322
          -73.968509,4.7395011,2800.6788006453
          -73.9685075,4.7398355,2801.75956266171
          -73.9685125,4.7401969,2805.98924272656
          -73.9686205,4.7405164,2809.54007395679
          -73.968731,4.7408622,2809.32130266595
          -73.9687016,4.7412741,2810.16540159246
          -73.9686331,4.741666,2813.53861358073
          -73.9686029,4.7420287,2817.8237657251
          -73.9686253,4.7424678,2819.08494907248
          -73.9687445,4.7428849,2818.45693071069
          -73.9688525,4.7432963,2816.90509450313
          -73.9689748,4.7437483,2814.48813944129
          -73.969077,4.7441883,2812.30446871825
          -73.9691664,4.7445928,2812.24321613683
          -73.9692845,4.7449525,2812.18790555972
          -73.9695615,4.7452416,2809.78369570693
          -73.9699645,4.7455532,2806.27550858867
          -73.9702831,4.7458018,2805.25233033086
          -73.9705901,4.7460514,2805.06048754338
          -73.9708786,4.746343,2804.698940245
          -73.9711412,4.7466248,2804.63225941717
          -73.9712331,4.7470062,2804.64655306668
          -73.9713386,4.7473407,2803.35165468528
          -73.9715177,4.7476632,2799.682283393
          -73.971763,4.7479275,2797.65605105323
          -73.9718884,4.7482378,2796.56073794893
          -73.9720176,4.7485638,2795.99622105931
          -73.9721777,4.7489995,2791.99643562352
          -73.9722918,4.7493518,2787.6405199136
          -73.9723644,4.7497348,2783.89192950999
          -73.9725233,4.7500523,2783.66378398315
          -73.9727174,4.7503635,2783.39418123084
          -73.9729279,4.7505893,2783.14776227085
          -73.973127,4.7507772,2781.86862678007
          -73.9732517,4.7510397,2781.88207892046
          -73.9733593,4.7513768,2782.2863136562
          -73.9734944,4.7516729,2782.854541393
          -73.9736792,4.7519927,2782.245495146
          -73.9738857,4.7522828,2780.21170327786
          -73.9741,4.7525507,2778.14854838478
          -73.9742088,4.7529109,2777.43833362029
          -73.9743059,4.7532957,2776.41176037808
          -73.9743676,4.7537169,2773.15387128619
          -73.9744834,4.7541398,2770.73481833817
          -73.9746335,4.754571,2768.57542268021
          -73.9747429,4.7549657,2764.48018671247
          -73.9748252,4.75527,2761.36278240325
          -73.9749632,4.7556203,2758.48224773694
          -73.974983,4.7558961,2758.13559192622
          -73.9749657,4.7560856,2758.67245280478
          -73.975081,4.7562779,2758.64124779816
          -73.9751489,4.7564489,2756.24893331567
          -73.9751958,4.7566127,2755.3280314603
          -73.9752771,4.756783,2753.94848550156
          -73.9753695,4.75701,2750.65814638846
          -73.9754046,4.7573145,2747.32149518405
          -73.9753978,4.7576195,2746.9856928154
          -73.9755007,4.757961,2747.25193268987
          -73.9755391,4.7582251,2749.32694675379
          -73.9755589,4.7585253,2749.11932094255
          -73.9756604,4.7586989,2747.73355108793
          -73.9758428,4.7588808,2747.42643792003
          -73.9760043,4.7590363,2746.80294956183
          -73.9761306,4.7591715,2745.75534375358
          -73.9763189,4.7592537,2744.39870174713
          -73.9765711,4.7591689,2742.94326575171
          -73.9768965,4.7590893,2741.66365610602
          -73.9771393,4.7590354,2742.12554452814
          -73.9772656,4.7590114,2744.17659831856
          -73.9774369,4.7589718,2745.42762668218
          -73.9775807,4.7589577,2745.73466847783
          -73.9777269,4.7589442,2744.90946756086
          -73.9778541,4.7589228,2743.40731116743
          -73.9779583,4.7588999,2742.52242548869
          -73.9780626,4.7588881,2741.26403557695
          -73.9781501,4.7588777,2739.49932089784
          -73.9782215,4.7588658,2737.85562568635
          -73.9783153,4.7588501,2736.30307623061
          -73.9784807,4.7588314,2734.11244014333
          -73.9785323,4.758698,2733.33410642392
          -73.9784862,4.7584859,2733.15777406228
          -73.9784801,4.7583282,2733.87813529091
          -73.9785217,4.758166,2734.45882905252
          -73.9787016,4.7580477,2735.77876693486
          -73.9788845,4.7579169,2736.03681348902
          -73.9790498,4.7576876,2735.70671587894
          -73.9791668,4.7575534,2737.3667746211
          -73.9792262,4.757773,2740.00248329657
          -73.9792485,4.7580588,2740.41810848886
          -73.9792835,4.7583394,2740.68617360199
          -73.9793745,4.758606,2741.38385552814
          -73.9795803,4.7588021,2741.46862906163
          -73.9797825,4.7587742,2744.42706904554
          -73.9799108,4.7587365,2749.90014648438
          -73.9801227,4.7586814,2749.90014648438
          -73.9803807,4.7586194,2747.07979729465
          -73.9804932,4.7587751,2747.20199249274
          -73.9806078,4.7590487,2747.62080334285
          -73.9807002,4.7592699,2748.05866703414
          -73.980811,4.7594367,2747.16425433115
          -73.9809392,4.7596164,2744.98359446467
          -73.9810148,4.7597401,2742.25793254774
          -73.9810308,4.7598259,2740.98911268699
          -73.9810713,4.7599562,2739.02299220166
          -73.981118,4.760135,2736.25081009142
          -73.9811765,4.7603023,2734.01042653226
          -73.9812182,4.76043,2731.73656556604
          -73.9812318,4.760545,2729.85774837026
          -73.9812569,4.7606765,2728.14957299104
          -73.9812892,4.7608199,2725.57943679889
          -73.9813296,4.7609445,2723.18870832466
          -73.9814168,4.761101,2720.82132265674
          -73.9815029,4.7612613,2717.61009135187
          -73.9816224,4.7614898,2712.38059040918
          -73.9817223,4.7616144,2708.08787659611
          -73.9819409,4.7615984,2704.19380689598
          -73.9821196,4.7615776,2703.87975456914
          -73.9823053,4.7615703,2705.43825202872
          -73.9824583,4.7616619,2705.53446426904
          -73.9825782,4.761842,2705.30864380176
          -73.9827412,4.7620451,2705.28883579367
          -73.9828606,4.7623024,2705.56332225585
          -73.9829103,4.7624827,2706.17741132287
          -73.9829026,4.7626646,2705.65331616964
          -73.9828921,4.7628179,2702.87487520974
          -73.9828853,4.7629464,2699.28573415803
          -73.9828746,4.7631025,2696.90228619552
          -73.9828432,4.7633213,2694.09329564301
          -73.9827985,4.763517,2689.33557599506
          -73.9828261,4.7636905,2687.49986783065
          -73.9828885,4.7638667,2687.40203998395
          -73.9830253,4.7639842,2687.63359585053
          -73.9831751,4.764084,2687.67030649951
          -73.9833376,4.764153,2687.7320005728
          -73.9834949,4.7641632,2687.33671028628
          -73.9836965,4.7641858,2684.9187230799
          -73.983996,4.764231,2681.18342657422
          -73.9842215,4.764266,2680.81790265415
          -73.9843769,4.7643312,2680.75409808656
          -73.9844676,4.7644534,2680.52992319649
          -73.9844105,4.7646034,2679.76662648508
          -73.9843404,4.764811,2676.98122577945
          -73.9843408,4.7650223,2674.90014648438
          -73.9843114,4.7651449,2671.95811007461
          -73.9843331,4.7652617,2671.4091791035
          -73.9843404,4.7654703,2669.60995629604
          -73.9843183,4.7656526,2667.50024414062
          -73.9843092,4.7658691,2664.84190713674
          -73.9843268,4.7661053,2662.72392990241
          -73.9844486,4.7660884,2660.88156934001
          -73.9845042,4.7657925,2660.05679997106
          -73.9845072,4.7655569,2659.39850121381
          -73.9846713,4.7654335,2658.05603396325
          -73.9848942,4.7653396,2656.2923786764
          -73.9851302,4.7652397,2654.507849202
          -73.9853114,4.7651851,2652.27464738339
          -73.9854553,4.7652323,2650.54009622403
          -73.9856165,4.7653423,2647.65539164107
          -73.9858353,4.7654635,2645.54972102153
          -73.9860497,4.7655872,2643.63359864925
          -73.9862928,4.7657249,2643.52122935832
          -73.9864283,4.7658017,2645.59818958064
          -73.9865921,4.7659396,2646.26700730104
          -73.9866826,4.7660096,2643.79713663678
          -73.9867784,4.7660401,2641.74647477124
          -73.9870169,4.7659087,2642.09745878609
          -73.9870542,4.7657694,2642.2001953125
          -73.9873182,4.7656448,2645.68251916202
          -73.9876384,4.7655785,2647.94741144286
          -73.9878121,4.7653741,2649.80004882812
          -73.9879738,4.7651093,2649.80004882812
          -73.9881508,4.7648279,2647.43348254854
          -73.9883132,4.7645725,2645.79661596119
          -73.9884866,4.7644164,2644.68594650904
          -73.9887421,4.7643523,2644.68020266113
          -73.9889188,4.7643277,2645.22755873336
          -73.9892321,4.7642854,2645.68073231062
          -73.9895283,4.7642465,2646.25528977649
          -73.9898394,4.7642235,2646.80449778895
          -73.9900756,4.7642079,2647.53570765028
          -73.9903432,4.7642114,2647.6025137782
          -73.9906686,4.764218,2647.78428934908
          -73.9910418,4.7641778,2647.91179947314
          -73.9914403,4.7640346,2648.10964605736
          -73.991831,4.7638674,2649.80004882812
          -73.9922051,4.7637665,2649.80004882812
          -73.9925707,4.7638131,2649.80004882812
          -73.9929409,4.7638827,2649.80004882812
          -73.9932593,4.7639912,2649.80004882812
          -73.9935279,4.7640622,2649.80004882812
          -73.9937126,4.7641367,2651.78404637235
          -73.9939113,4.7642098,2651.98439873648
          -73.9941101,4.7642796,2652.07584477285
          -73.9943169,4.7643292,2652.58047353677
          -73.9945261,4.7644042,2652.75301720365
          -73.9947752,4.7644699,2652.30004882812
          -73.9949249,4.7645187,2652.30004882812
          -73.9950175,4.7645584,2652.30004882812
          -73.9950446,4.7645671,2652.30004882812
          -73.9950469,4.7645616,2652.30004882812
          -73.9951703,4.7645789,2652.30004882812
          -73.995193,4.7645931,2652.30004882812
          -73.9951916,4.7646014,2652.30004882812
          -73.9951932,4.7646008,2652.30004882812
          -73.9951932,4.7646004,2652.30004882812
          -73.9951934,4.7645994,2652.30004882812
          -73.9952519,4.7646162,2652.40014648438
          -73.9954632,4.7647036,2652.40014648438
          -73.9957369,4.7648,2652.40014648438
          -73.9960132,4.7649366,2652.40014648438
          -73.9962768,4.7651643,2654.41975681395
          -73.9965451,4.7653684,2655.97826128827
          -73.9966788,4.7654558,2657.1330754788
          -73.9966761,4.7655089,2657.5091506156
          -73.9966767,4.7655109,2657.90257467578
          -73.9965953,4.7654936,2658.07688317109
          -73.996359,4.7653614,2657.44938768195
          -73.9960442,4.7652354,2658.31530914324
          -73.9957218,4.7651622,2658.99929968396
          -73.9954033,4.7652574,2662.80004882812
          -73.995114,4.7654438,2665.20155820596
          -73.9948495,4.7655857,2669.63380181041
          -73.9946329,4.7657739,2675.26008204427
          -73.9944561,4.7660022,2676.90979679339
          -73.9943351,4.7661108,2678.13512356039
          -73.9941299,4.7662696,2679.37346555869
          -73.9938719,4.766461,2681.00835971664
          -73.9935831,4.7666544,2681.85435386792
          -73.9931973,4.7667766,2683.75492010156
          -73.9928197,4.7668855,2687.83698135299
          -73.9926256,4.7670583,2690.15696194714
          -73.9925411,4.7672793,2691.25624060211
          -73.9924362,4.7675533,2690.59566435891
          -73.9923666,4.7678552,2685.73616409336
          -73.9922741,4.7682465,2680.02605049725
          -73.9921335,4.7685854,2678.2837582837
          -73.9919943,4.7688943,2675.74023531329
          -73.9918803,4.7691253,2674.00836199103
          -73.9915948,4.7693569,2671.33095106655
          -73.9913374,4.7696695,2665.04950755896
          -73.9909549,4.7698512,2664.92268972079
          -73.9905529,4.7699888,2665.12970449816
          -73.9901272,4.7700948,2665.31055775456
          -73.9897124,4.7702416,2666.62599721271
          -73.9893404,4.7703965,2668.02938484431
          -73.9890326,4.7706119,2668.16546953695
          -73.9887567,4.7708438,2667.87684888621
          -73.9885049,4.7710466,2667.9412297342
          -73.9882522,4.7712418,2668.82336992478
          -73.9879848,4.7714859,2668.60407351188
          -73.9877249,4.7717405,2667.00744315029
          -73.9875031,4.7719706,2665.94640758742
          -73.9873312,4.772162,2664.20344359005
          -73.987108,4.7723909,2663.81171471525
          -73.9869255,4.7726398,2663.1033211533
          -73.9867092,4.7729089,2661.09222491263
          -73.986489,4.773205,2658.54981931454
          -73.9863112,4.7734504,2656.84233287009
          -73.9861218,4.7737031,2655.88651648231
          -73.9859477,4.7739401,2655.37959628617
          -73.9857453,4.7742199,2654.65448254838
          -73.9855489,4.7745008,2650.73624042473
          -73.9853443,4.7747595,2648.11128161887
          -73.985169,4.7749857,2646.84450400397
          -73.9850133,4.7752584,2645.70593371258
          -73.9847901,4.7755311,2645.83854577892
          -73.9846338,4.7757041,2646.63259602299
          -73.9845989,4.7757411,2648.32927623274
          -73.9845773,4.7757719,2648.69597793534
          -73.9845765,4.7757708,2648.74656628184
          -73.9845541,4.775806,2648.61727873028
          -73.9844596,4.7759348,2648.01020740315
          -73.9843662,4.7761044,2646.73490718171
          -73.9842281,4.7763391,2643.79270944907
          -73.9840895,4.7765643,2641.30368851788
          -73.9839243,4.7768327,2640.7706496639
          -73.9837836,4.7770602,2640.80999707901
          -73.9836338,4.777339,2641.10820451021
          -73.9834913,4.777616,2642.01192710903
          -73.9833469,4.7778783,2642.83070547898
          -73.9832204,4.7781424,2643.46685762521
          -73.9831087,4.7783637,2643.99377582234
          -73.9830073,4.7786329,2643.63951729393
          -73.9829324,4.7788833,2642.67824400892
          -73.9827839,4.7791695,2637.91755812019
          -73.982579,4.7794369,2637.11463421343
          -73.9824128,4.7796848,2638.24657077589
          -73.9823284,4.7798103,2639.06316979408
          -73.9823261,4.7798134,2639.41709606857
          -73.9823256,4.7798137,2639.52168466411
          -73.982324,4.779817,2639.59324259073
          -73.9822377,4.7799593,2639.53508488091
          -73.9820887,4.7802292,2636.80004882812
          -73.9818988,4.7805417,2636.80004882812
          -73.981698,4.7808485,2633.32748539947
          -73.9815731,4.7810859,2633.57718185702
          -73.9813627,4.7813926,2633.40041455992
          -73.9811432,4.7817778,2632.18510034113
          -73.9809356,4.7821852,2630.86225998037
          -73.9806973,4.7825909,2630.48410088006
          -73.9805731,4.7827941,2632.19986878185
          -73.980455,4.7830613,2631.31883397016
          -73.9803404,4.7833818,2630.58341815264
          -73.9802005,4.7836685,2630.28447303491
          -73.9800134,4.7839445,2629.96053723634
          -73.9798299,4.7842027,2629.30805614463
          -73.9796276,4.7844646,2628.9769568237
          -73.9794449,4.7847176,2628.38474667709
          -73.9792922,4.784925,2627.16863342518
          -73.9791123,4.7851169,2626.68058167501
          -73.978909,4.7853186,2624.74787381741
          -73.9786842,4.7855104,2622.97294234758
          -73.9784396,4.7856917,2619.60009765625
          -73.9782101,4.7858633,2619.60009765625
          -73.9780295,4.7859365,2619.60009765625
          -73.9777733,4.7859681,2619.60009765625
          -73.9774568,4.7859784,2619.60009765625
          -73.9771131,4.7861013,2616.60009765625
          -73.976811,4.7864387,2616.60009765625
          -73.9765213,4.7868353,2616.60009765625
          -73.9762094,4.7872566,2616.60009765625
          -73.9758741,4.787702,2616.60009765625
          -73.9755361,4.7881773,2616.60009765625
          -73.9752053,4.788656,2619.60009765625
          -73.9748967,4.7891323,2619.60009765625
          -73.9746455,4.7895358,2619.60009765625
          -73.9744263,4.7899098,2619.60009765625
          -73.9741787,4.7903394,2619.60009765625
          -73.9740156,4.7906381,2619.60009765625
          -73.9739067,4.790796,2619.60009765625
          -73.9737352,4.791101,2619.60009765625
          -73.9735664,4.7914385,2619.60009765625
          -73.9733766,4.7917685,2619.60009765625
          -73.9732285,4.7920848,2619.60009765625
          -73.9730084,4.7924638,2619.60009765625
          -73.9728077,4.7928691,2619.60009765625
          -73.9726224,4.7933183,2620.0324182724
          -73.9724734,4.793701,2620.22439169837
          -73.9723347,4.7940695,2619.79709711684
          -73.9722045,4.7944833,2619.07077783936
          -73.9720523,4.7948956,2618.30441552573
          -73.9719198,4.7953646,2619.11922523126
          -73.9718255,4.7956915,2620.73706501656
          -73.9717622,4.7960594,2620.99332628794
          -73.9716996,4.7964104,2620.50783308291
          -73.9716312,4.7967772,2619.80004882812
          -73.9715611,4.7971568,2618.05628981717
          -73.9715364,4.7974528,2615.91480197974
          -73.971593,4.797641,2614.541403706
          -73.9716924,4.797842,2614.1461077354
          -73.9717969,4.7980786,2614.12694249274
          -73.9718672,4.798401,2615.98271721866
          -73.9718802,4.7987634,2616.20962841876
          -73.9718965,4.7991271,2616.07570340175
          -73.9719095,4.7994369,2615.67728329963
          -73.9719392,4.799774,2615.54114252217
          -73.9719345,4.8001417,2616.08691549146
          -73.9719266,4.8004837,2616.75484497462
          -73.9719097,4.800859,2617.74750572557
          -73.97183,4.8012107,2617.95113368937
          -73.971765,4.8014573,2619.80004882812
          -73.9716963,4.8018487,2619.80004882812
          -73.9716312,4.802246,2619.80004882812
          -73.9715522,4.802553,2619.80004882812
          -73.9713556,4.802924,2619.80004882812
          -73.971066,4.8032978,2619.80004882812
          -73.9708437,4.8036639,2622.09306127169
          -73.9708445,4.8041184,2623.95817577906
          -73.9708186,4.804534,2624.90884856238
          -73.9707863,4.8049838,2625.92889425519
          -73.9707541,4.8053964,2627.57645327767
          -73.970752,4.8057909,2628.16929850491
          -73.9707284,4.8061947,2628.05993504659
          -73.9707225,4.8065792,2627.90011016247
          -73.9707167,4.8069855,2626.94061132957
          -73.9707452,4.8073391,2625.86070360437
          -73.9707741,4.8077013,2625.88433708462
          -73.9709245,4.8080534,2625.00414919279
          -73.971193,4.8083734,2622.85091609803
          -73.9713807,4.8087147,2621.80966575761
          -73.9716394,4.8089784,2621.62662424678
          -73.9718429,4.8092989,2620.84554981983
          -73.9719427,4.8097926,2620.05832031728
          -73.9720623,4.8102111,2620.18916707236
          -73.9722923,4.810627,2621.06626936209
          -73.9723338,4.8109498,2622.34734886235
          -73.972164,4.8112922,2623.54820658764
          -73.9719907,4.8116996,2621.11730100447
          -73.9719619,4.8121712,2621.04363881694
          -73.9720388,4.8127572,2620.84213763101
          -73.9721119,4.8133535,2621.81098571809
          -73.972191,4.8139591,2622.70469757236
          -73.9722762,4.8145602,2623.12636079664
          -73.9723607,4.8152349,2623.34954629653
          -73.9724518,4.8159003,2622.46442289946
          -73.9726529,4.8164719,2620.45165216498
          -73.972801,4.8169887,2619.7768780881
          -73.9727427,4.8173302,2620.64102371351
          -73.9726548,4.8177918,2619.30980417975
          -73.972566,4.8183296,2617.76932034871
          -73.9724451,4.8189488,2613.39535558765
          -73.9722646,4.8195482,2612.20279449848
          -73.9720809,4.820144,2611.59956177576
          -73.9718552,4.8207896,2611.2939628856
          -73.9716848,4.8214799,2609.2871515106
          -73.9715842,4.8221837,2609.5473541787
          -73.9714144,4.8229337,2608.09318946702
          -73.9712741,4.8235186,2605.93923649095
          -73.9711868,4.8238819,2606.47909172229
          -73.971051,4.8243914,2605.85489195173
          -73.9708949,4.8250237,2602.16743119391
          -73.9707371,4.8256532,2599.33706743115
          -73.9705553,4.8263031,2597.14799443591
          -73.9703674,4.8269642,2594.48256308536
          -73.9702191,4.8276446,2592.75446119648
          -73.9701709,4.828366,2592.05346796409
          -73.9700731,4.8290895,2591.49224911725
          -73.9699414,4.8298185,2591.30748144688
          -73.9698011,4.8305401,2591.20757374589
          -73.9696937,4.8311291,2593.7825864722
          -73.9695828,4.8317232,2594.16351188078
          -73.9694653,4.8323518,2594.75677647342
          -73.9693726,4.8328495,2593.59164479821
          -73.9693232,4.8331843,2595.28295864882
          -73.9692067,4.8337123,2594.36027467764
          -73.9690435,4.8343204,2593.24953387023
          -73.9689657,4.8349774,2593.7969491571
          -73.9688853,4.8356002,2593.84012790108
          -73.968822,4.8360253,2595.0347586234
          -73.9687774,4.8363949,2594.76925798002
          -73.9687119,4.8369319,2593.75311914675
          -73.9686205,4.8375364,2592.60430824574
          -73.9685362,4.838192,2592.22451456572
          -73.968434,4.838887,2592.66403401166
          -73.9683614,4.8395827,2594.5321431714
          -73.9682933,4.8402843,2596.02394175194
          -73.9682563,4.8409202,2598.5602226685
          -73.9682177,4.8416196,2598.45837731282
          -73.968199,4.8422221,2596.77701889279
          -73.9685116,4.8427129,2597.18794270393
          -73.9686324,4.8432778,2599.11271773035
          -73.9687686,4.8438913,2599.49232577798
          -73.9689141,4.8445805,2597.53614323741
          -73.9690176,4.8452422,2596.79096104819
          -73.9691396,4.8459231,2596.76429763421
          -73.9691974,4.8465802,2595.22115344698
          -73.969001,4.8472218,2593.61104458685
          -73.9686143,4.8477217,2596.01891772854
          -73.9681964,4.8482484,2596.11968621106
          -73.9679298,4.8488818,2596.47723375276
          -73.9677541,4.8495188,2596.86441903902
          -73.9674549,4.8501174,2596.8892122722
          -73.9671331,4.8506882,2598.97655407039
          -73.9669348,4.851215,2605.03396636359
          -73.9668095,4.8515873,2610.59605519382
          -73.9665351,4.8519174,2612.87120714468
          -73.9664185,4.8523001,2617.36078728973
          -73.9662822,4.8526939,2621.1981162874
          -73.9662011,4.8531977,2623.86907647433
          -73.9660619,4.8537277,2618.38817469722
          -73.965788,4.8542486,2616.73926313308
          -73.9654057,4.8548283,2610.65706762701
          -73.9650194,4.8554202,2610.15486743964
          -73.9646563,4.8560485,2611.06326675799
          -73.9643969,4.8564784,2610.24277963978
          -73.9641942,4.8569077,2610.50030522681
          -73.9640584,4.857521,2607.7841243671
          -73.9638929,4.8580845,2606.03690646258
          -73.9638921,4.8585711,2610.09135253789
          -73.9639067,4.8589767,2610.5200160341
          -73.9639738,4.8595387,2609.6963947931
          -73.964174,4.8601922,2605.45681606007
          -73.964356,4.860831,2599.05085339148
          -73.9642825,4.8613839,2600.24758323562
          -73.9640858,4.861775,2608.05181851053
          -73.9639877,4.8621104,2614.15965530214
          -73.9640412,4.8624509,2621.42670757252
          -73.9641009,4.8627483,2623.02248633231
          -73.9641051,4.8628707,2622.76293140126
          -73.9641113,4.8628788,2622.604362316
          -73.9641116,4.8628802,2623.16443548904
          -73.9641113,4.8628807,2623.2220773213
          -73.9641122,4.8629026,2623.0957245407
          -73.9641125,4.8629287,2622.67649583168
          -73.9641107,4.8629307,2622.65133077722
          -73.9641446,4.8631245,2622.85703315653
          -73.9642039,4.8634741,2622.28545211778
          -73.9641874,4.8639705,2619.22896795373
          -73.9641496,4.8646123,2612.50178635099
          -73.9641157,4.8652058,2610.17211914062
          -73.9640791,4.8657753,2610.15666817642
          -73.9640508,4.8664027,2609.00325158888
          -73.9640109,4.8668559,2609.25791396989
          -73.9639711,4.8672923,2610.9673359349
          -73.9639095,4.8678768,2612.24380677048
          -73.9638671,4.8684595,2616.07537699883
          -73.9638942,4.8690152,2622.02620437927
          -73.9639884,4.8696859,2620.20974171776
          -73.9640973,4.8702865,2616.4707048336
          -73.9645179,4.8705005,2612.1763196016
          -73.9646652,4.8708292,2609.12620122599
          -73.9647686,4.8713331,2609.30249962409
          -73.965064,4.8717582,2608.77648614001
          -73.9652784,4.8721626,2601.67505905197
          -73.9651531,4.8727193,2601.17579566152
          -73.9649893,4.873394,2598.95111034849
          -73.9648262,4.8740902,2596.84433854151
          -73.9646543,4.8748299,2596.38617003103
          -73.9644962,4.8754882,2596.60179872811
          -73.9644111,4.8758572,2599.47369199156
          -73.9642701,4.8763317,2601.11430165042
          -73.9641746,4.8767265,2601.99482600958
          -73.9640467,4.8771733,2603.50171016829
          -73.9639102,4.8777331,2604.40484891976
          -73.9637668,4.8783159,2607.38615961951
          -73.9637114,4.8789511,2606.64617402942
          -73.9636985,4.8794257,2604.86624123117
          -73.9636844,4.8799082,2604.32375828324
          -73.9636821,4.8805798,2599.90305512702
          -73.9636803,4.8813488,2590.85541065522
          -73.9636793,4.8820797,2588.55430805413
          -73.9636552,4.882452,2588.93954874436
          -73.9636396,4.8829253,2589.61706103885
          -73.9636098,4.8835448,2589.27384112567
          -73.9636476,4.8842281,2588.64855412713
          -73.9637567,4.8849019,2588.15615330081
          -73.9638813,4.8856244,2586.38797358249
          -73.963904,4.8862434,2584.00252094016
          -73.9635441,4.8866811,2583.96345700432
          -73.9632451,4.8873218,2583.14615141118
          -73.9630928,4.8879929,2582.92431640625
          -73.962855,4.8883205,2584.05552381096
          -73.9625749,4.8884382,2585.05706050898
          -73.9623328,4.888539,2585.79922143115
          -73.962099,4.8886641,2586.66857215273
          -73.9619301,4.8887509,2586.18148719624
          -73.9619052,4.8887656,2586.05577791741
          -73.9619004,4.8887679,2586.34890821025
          -73.9619006,4.888768,2586.44378156496
          -73.9617944,4.8888247,2586.39355436444
          -73.9615328,4.8888978,2586.06987499759
          -73.961123,4.8889712,2585.99174732039
          -73.9605911,4.8890785,2586.24122593416
          -73.9599493,4.8891945,2587.03574853467
          -73.9592673,4.8893196,2587.18083409989
          -73.9585929,4.8895076,2586.84084513884
          -73.9579074,4.8897946,2586.54335590401
          -73.9571968,4.8900627,2585.82946284027
          -73.9564487,4.8903618,2585.41432462041
          -73.9556712,4.8906683,2585.3571219771
          -73.9549059,4.8909682,2584.95432219216
          -73.954109,4.8912314,2584.71377988059
          -73.9533217,4.8914987,2584.68357749756
          -73.9525831,4.8917546,2584.59353491808
          -73.9518599,4.8919927,2585.31913541978
          -73.9511079,4.8922454,2583.5023663745
          -73.9503935,4.8924795,2583.48055092603
          -73.9496849,4.8926267,2584.77091593018
          -73.9489545,4.8927658,2585.18611631127
          -73.948206,4.892936,2585.81979980632
          -73.9474607,4.8930965,2585.35838128074
          -73.9467442,4.8932453,2585.37707523254
          -73.9463281,4.8933297,2587.15574064263
          -73.9461659,4.8933496,2590.17902123634
          -73.9461362,4.8935952,2591.74052323859
          -73.9461201,4.894069,2591.1273616003
          -73.9459574,4.8946245,2591.02126898101
          -73.9456304,4.8951902,2591.31721481723
          -73.9453961,4.8958336,2592.606999004
          -73.9452117,4.8965175,2593.36086343624
          -73.9449869,4.8971984,2594.58725659668
          -73.9445404,4.8978504,2594.95239158268
          -73.9439569,4.8982939,2595.60646917275
          -73.9434215,4.8986984,2596.19447653966
          -73.9430711,4.8991674,2595.81173573352
          -73.9428019,4.8997696,2594.80686675772
          -73.9425742,4.9001828,2594.36644386127
          -73.9423535,4.9005525,2594.30956534849
          -73.9422957,4.9008791,2594.48016000144
          -73.9422996,4.9013001,2593.94812005166
          -73.9423213,4.9017497,2593.20627944021
          -73.9421512,4.9021436,2593.96713679435
          -73.941849,4.9026264,2594.50026719305
          -73.9415714,4.9031197,2594.30700935276
          -73.9414232,4.903545,2593.74001631514
          -73.9413829,4.9037971,2594.40722345903
          -73.941343,4.9041185,2594.7702343323
          -73.9412936,4.9045377,2595.252307506
          -73.9412631,4.9048654,2595.51417186026
          -73.9412413,4.9051024,2595.28552468112
          -73.941216,4.9053359,2595.36125638405
          -73.9411605,4.9055887,2595.32700888038
          -73.9411138,4.9058808,2596.06623306515
          -73.9410612,4.9061328,2596.56257504113
          -73.9410097,4.9064953,2596.58168705256
          -73.9409768,4.9067134,2596.4330441648
          -73.9410978,4.9067484,2596.72560653565
          -73.94133,4.9067925,2596.70507315206
          -73.9416466,4.9068307,2595.84964738179
          -73.9418322,4.9068895,2594.72787737094
          -73.9418474,4.9069873,2595.06799364088
          -73.9418325,4.9070343,2594.91285699667
          -73.9418061,4.9071724,2594.78928691543
          -73.9418246,4.9072052,2594.49686972552
          -73.9418353,4.9070566,2594.7476180372
          -73.9418876,4.9068046,2595.04520363797
          -73.9419368,4.9065359,2594.20016065835
          -73.941975,4.9063589,2593.89358140184
          -73.942003,4.9062067,2593.69737249513
          -73.9419093,4.9061088,2593.49401397307
          -73.9416226,4.9060273,2594.30182192082
          -73.9412655,4.905933,2594.54409210516
          -73.9411563,4.9059381,2595.88184196351
          -73.9411256,4.9059626,2596.55262884105
          -73.9410653,4.9061522,2596.48107335561
          -73.9410125,4.9064379,2596.88162751008
          -73.9409766,4.9066415,2596.95924939615
          -73.940846,4.9067255,2596.77392187787
          -73.9405224,4.9066672,2597.13691145947
          -73.9402887,4.9066227,2598.17888117749
          -73.9402369,4.9067267,2600.01635602215
          -73.9401878,4.9069353,2599.80944229323
          -73.9401768,4.9070761,2600.45343020676
          -73.9401476,4.907186,2600.72599673004
          -73.9401303,4.9073061,2600.80121325708
          -73.9400979,4.9074803,2601.01258399526
          -73.9400701,4.9076125,2601.15527695859
          -73.9400265,4.9077671,2601.38661197867
          -73.9399729,4.9079852,2601.62346805463
          -73.939964,4.908047,2602.24561415206
          -73.9399676,4.9080343,2602.33018179492
          -73.9399864,4.9080493,2602.33461902064
          -73.9399886,4.9080526,2602.47792173949
          -73.9399689,4.9080609,2602.27972028988
          -73.9399798,4.9081185,2602.2682052081
          -73.9400434,4.9081862,2602.37023822937
          -73.9402517,4.9082298,2601.93332031371
          -73.9404763,4.9082835,2600.82133869658
          -73.9406263,4.9082467,2599.6399800693
          -73.9406752,4.9080139,2598.64592188166
          -73.9407307,4.9077846,2598.80251636763
          -73.9406948,4.9076675,2598.66858336689
          -73.9406289,4.9076526,2598.71760368246
          -73.9404153,4.9076016,2598.81045820737
          -73.9401991,4.907554,2599.46220602912
          -73.9400962,4.907619,2600.66474709927
          -73.940107,4.9076394,2601.45050471858
          -73.9401079,4.9076373,2601.30546365827
          -73.9401018,4.9076344,2601.11516695179
          -73.9400984,4.9076321,2601.04174416992
          -73.9400968,4.9076311,2601.42405768105
          -73.9400965,4.9076308,2600.70744257159
        </coordinates>
      </LineString>
    </Placemark>
  </Document>
</kml>
