<?xml version="1.0" encoding="UTF-8"?>
<kml xmlns="http://www.opengis.net/kml/2.2">
  <Document>
    <name>Nemocón - Cucunuba.gpx</name>
    <Style id="icon-123-normal">
      <IconStyle>
        <scale>1.1</scale>
        <Icon>
          <href>https://www.gstatic.com/mapspro/images/stock/123-red-dot.png</href>
        </Icon>
        <hotSpot x="16" xunits="pixels" y="32" yunits="insetPixels"/>
      </IconStyle>
      <LabelStyle>
        <scale>0</scale>
      </LabelStyle>
    </Style>
    <Style id="icon-123-highlight">
      <IconStyle>
        <scale>1.1</scale>
        <Icon>
          <href>https://www.gstatic.com/mapspro/images/stock/123-red-dot.png</href>
        </Icon>
        <hotSpot x="16" xunits="pixels" y="32" yunits="insetPixels"/>
      </IconStyle>
      <LabelStyle>
        <scale>1.1</scale>
      </LabelStyle>
    </Style>
    <StyleMap id="icon-123">
      <Pair>
        <key>normal</key>
        <styleUrl>#icon-123-normal</styleUrl>
      </Pair>
      <Pair>
        <key>highlight</key>
        <styleUrl>#icon-123-highlight</styleUrl>
      </Pair>
    </StyleMap>
    <Style id="icon-61-normal">
      <IconStyle>
        <scale>1.1</scale>
        <Icon>
          <href>https://www.gstatic.com/mapspro/images/stock/61-green-dot.png</href>
        </Icon>
        <hotSpot x="16" xunits="pixels" y="32" yunits="insetPixels"/>
      </IconStyle>
      <LabelStyle>
        <scale>0</scale>
      </LabelStyle>
    </Style>
    <Style id="icon-61-highlight">
      <IconStyle>
        <scale>1.1</scale>
        <Icon>
          <href>https://www.gstatic.com/mapspro/images/stock/61-green-dot.png</href>
        </Icon>
        <hotSpot x="16" xunits="pixels" y="32" yunits="insetPixels"/>
      </IconStyle>
      <LabelStyle>
        <scale>1.1</scale>
      </LabelStyle>
    </Style>
    <StyleMap id="icon-61">
      <Pair>
        <key>normal</key>
        <styleUrl>#icon-61-normal</styleUrl>
      </Pair>
      <Pair>
        <key>highlight</key>
        <styleUrl>#icon-61-highlight</styleUrl>
      </Pair>
    </StyleMap>
    <Style id="line-E65100-5000-normal">
      <LineStyle>
        <color>ff0051e6</color>
        <width>5</width>
      </LineStyle>
    </Style>
    <Style id="line-E65100-5000-highlight">
      <LineStyle>
        <color>ff0051e6</color>
        <width>7.5</width>
      </LineStyle>
    </Style>
    <StyleMap id="line-E65100-5000">
      <Pair>
        <key>normal</key>
        <styleUrl>#line-E65100-5000-normal</styleUrl>
      </Pair>
      <Pair>
        <key>highlight</key>
        <styleUrl>#line-E65100-5000-highlight</styleUrl>
      </Pair>
    </StyleMap>
    <Placemark>
      <name>Start of Track 1</name>
      <description><![CDATA[Friday, June 26, 2026, 8:05 PM GMT-05:00<br>Elevation: 8531 feet]]></description>
      <styleUrl>#icon-61</styleUrl>
      <Point>
        <coordinates>
          -73.8804828,5.0673083,2600.37952901459
        </coordinates>
      </Point>
    </Placemark>
    <Placemark>
      <name>End of Track 1</name>
      <description><![CDATA[Friday, June 26, 2026, 9:20 PM GMT-05:00<br>Elevation: 8472 feet]]></description>
      <styleUrl>#icon-123</styleUrl>
      <Point>
        <coordinates>
          -73.7669562,5.2498694,2582.2001953125
        </coordinates>
      </Point>
    </Placemark>
    <Placemark>
      <name>Track 1</name>
      <description><![CDATA[Statistics computed from imported data<br><br>Friday, June 26, 2026, 8:05 PM GMT-05:00<br>Distance: 18.0 miles<br>Duration: 1 hours, 14 minutes, and 51 seconds<br>Average Speed: 14.5 mph<br>Minimum Elevation: 8469 feet<br>Maximum Elevation: 9823 feet<br>Total climb: 1893 feet<br>Total descent: 1955 feet]]></description>
      <styleUrl>#line-E65100-5000</styleUrl>
      <LineString>
        <tessellate>1</tessellate>
        <coordinates>
          -73.8804828,5.0673083,2600.37952901459
          -73.8804825,5.0673083,2600.43469093484
          -73.8804126,5.067336,2600.22561650445
          -73.8800512,5.0674369,2599.58338793031
          -73.8796641,5.067538,2598.32193260292
          -73.87935,5.0676093,2599.39703881101
          -73.8789728,5.0676716,2599.58559412419
          -73.8786307,5.0677498,2599.44097746365
          -73.878349,5.0678132,2599.59482813994
          -73.8781435,5.0678796,2600.11149508406
          -73.8780846,5.0678958,2600.04155959183
          -73.8780803,5.0678937,2599.9688272832
          -73.878073,5.0678963,2600.0583440581
          -73.8779347,5.0679604,2599.92075678139
          -73.8777092,5.0680527,2599.40604553849
          -73.8774673,5.0681847,2599.0499686362
          -73.8772834,5.0683269,2599.10114960304
          -73.8770956,5.0684711,2599.12072975116
          -73.8769492,5.0685809,2599.09494465499
          -73.876741,5.068746,2599.07787771764
          -73.8763878,5.0689759,2598.41283567391
          -73.8760912,5.0692161,2597.51306317849
          -73.8757527,5.0694496,2596.55468953639
          -73.8754722,5.0695893,2595.76195457296
          -73.8752212,5.069733,2596.1470632854
          -73.8748919,5.0700594,2595.82158772226
          -73.874582,5.0705557,2594.13571044675
          -73.8744239,5.0710098,2594.9520475592
          -73.8743627,5.07158,2595.96038864185
          -73.8743192,5.0720279,2595.38651382181
          -73.8742811,5.0723283,2597.06421008619
          -73.8742243,5.0726759,2597.25165438767
          -73.874135,5.0731309,2595.96139338016
          -73.8740256,5.0737068,2597.08945735937
          -73.8738531,5.0743084,2595.8674849894
          -73.8737258,5.0747319,2596.81540726245
          -73.8735741,5.0753008,2596.96641337846
          -73.8733578,5.0759159,2594.97974048707
          -73.8730059,5.0765382,2594.44297087911
          -73.8726033,5.0771957,2593.87987845073
          -73.8721383,5.0778596,2592.94395436718
          -73.8717779,5.0784378,2592.70781185407
          -73.8716122,5.0788134,2595.75904082727
          -73.8713851,5.0793429,2594.05375000476
          -73.8711089,5.0800039,2592.71010201024
          -73.8708056,5.0807214,2592.10546661126
          -73.8704257,5.081408,2591.54374544986
          -73.8700072,5.0820082,2594.16268416799
          -73.8696495,5.08245,2598.04289801075
          -73.8693158,5.0828226,2597.53767673226
          -73.8688822,5.083276,2595.77864574788
          -73.8684306,5.0837782,2594.28858262039
          -73.8679425,5.0843129,2592.78250322208
          -73.8674389,5.0848553,2590.75498046884
          -73.8668699,5.0853371,2590.06547517782
          -73.866237,5.0857662,2589.50385358263
          -73.8656153,5.0862412,2589.93087293621
          -73.8650859,5.0868396,2590.59221440698
          -73.8646935,5.0872764,2590.39311787608
          -73.8643817,5.087568,2594.54848980658
          -73.8640053,5.0879347,2593.90557444044
          -73.8636658,5.0883568,2594.08016324757
          -73.8633095,5.0887762,2594.65051616657
          -73.862839,5.0890652,2594.44233851478
          -73.8623914,5.0894492,2594.80009617961
          -73.8619945,5.0898684,2596.86367079933
          -73.8616722,5.090332,2598.69889776745
          -73.8613043,5.0907737,2598.41307318752
          -73.8610094,5.0910883,2599.28215994454
          -73.8607472,5.0914122,2600.38421704946
          -73.8605277,5.091823,2599.74110341406
          -73.86022,5.0922386,2599.80376576009
          -73.8598879,5.0926734,2601.75015634038
          -73.8595973,5.093012,2603.57927832809
          -73.8592438,5.0933771,2602.55256292845
          -73.8589004,5.0937187,2599.75621837343
          -73.8585564,5.0940606,2598.48578903247
          -73.8581796,5.0944229,2599.44905803832
          -73.8578065,5.0948022,2599.0789351143
          -73.8575082,5.095244,2597.47874072382
          -73.8571992,5.0957374,2595.15026929211
          -73.8568842,5.0962538,2595.93254546173
          -73.8565712,5.0967881,2596.50024469781
          -73.8562736,5.0973466,2595.03531859248
          -73.8560119,5.097858,2594.73018157316
          -73.8557957,5.0984109,2594.90006963917
          -73.8556215,5.0988651,2596.94342698902
          -73.8553469,5.0994006,2598.00177333358
          -73.8549547,5.0999559,2597.87314050171
          -73.8546741,5.1003616,2597.33194642371
          -73.8544344,5.1006432,2599.38037423665
          -73.8541377,5.1009024,2599.60940397343
          -73.8538167,5.1011409,2600.09247039445
          -73.8534378,5.1013292,2597.65223208418
          -73.8530359,5.1015553,2596.23704530339
          -73.8526261,5.101792,2596.25282891425
          -73.8521666,5.1020749,2597.62607526443
          -73.8516633,5.1023814,2597.32966803813
          -73.8511513,5.1026918,2597.85636244809
          -73.8506742,5.1030633,2598.22970888482
          -73.8502852,5.1034307,2599.14836836278
          -73.849844,5.1038005,2599.93025706712
          -73.8493442,5.1040981,2599.96940777505
          -73.8488589,5.1043473,2599.98060431552
          -73.8484271,5.1045741,2600.20434843677
          -73.8479768,5.1048778,2602.40574156126
          -73.8475519,5.1051493,2603.16669271457
          -73.8471095,5.1054078,2603.96127907601
          -73.8467977,5.1057413,2605.83902546745
          -73.8465824,5.1060137,2607.68629337991
          -73.8464081,5.1062568,2608.2433894912
          -73.8462333,5.1064925,2608.85634351044
          -73.8460176,5.1068113,2608.18167224249
          -73.8458147,5.1071904,2609.12249325222
          -73.8456979,5.1076414,2610.51963457571
          -73.8455826,5.1080313,2612.34268673941
          -73.8454038,5.1083681,2614.99800542397
          -73.8451016,5.1085119,2617.8000375283
          -73.8447559,5.1086371,2621.49765050824
          -73.8445283,5.1090736,2619.17374345297
          -73.8443432,5.109566,2618.64643074333
          -73.8441876,5.1100607,2621.53937018599
          -73.8440678,5.1104915,2625.22142616535
          -73.8439228,5.1108468,2628.93652306722
          -73.8437455,5.1111913,2630.67075324944
          -73.8435695,5.1114964,2635.39523343289
          -73.8433074,5.1117437,2641.24932980272
          -73.8432183,5.1120556,2644.74609890209
          -73.843131,5.1123794,2648.67998389595
          -73.8431158,5.1127399,2651.17228166149
          -73.8430935,5.1130561,2655.38132359241
          -73.8430408,5.1134643,2657.26536786727
          -73.8430137,5.1138657,2654.63907040513
          -73.8430169,5.1142163,2652.75636318822
          -73.8429967,5.1145825,2652.60652733822
          -73.8429441,5.1150094,2652.17884933584
          -73.8427827,5.1153116,2651.70152854376
          -73.8426021,5.1155754,2651.00348022982
          -73.842406,5.1158944,2650.92407478478
          -73.8422108,5.1161709,2651.00120031743
          -73.8420321,5.1163499,2651.23452117973
          -73.8417894,5.1165494,2651.64807460844
          -73.8416042,5.1168295,2652.32330662156
          -73.8414746,5.1170276,2653.47713285755
          -73.8414308,5.1172838,2656.60120109722
          -73.8416182,5.1175662,2658.30705291218
          -73.8417045,5.1179119,2661.55961140422
          -73.8417305,5.1182435,2665.45240313984
          -73.8416079,5.118558,2670.50157541049
          -73.8416693,5.1188875,2674.25776688236
          -73.8416774,5.1192432,2677.16364305724
          -73.8418442,5.1195919,2680.94839649649
          -73.8420048,5.1199711,2683.54902433723
          -73.8420312,5.1203872,2687.70356383697
          -73.8419545,5.1207508,2690.55739696154
          -73.8421148,5.1210455,2691.71616337431
          -73.8424035,5.1210155,2692.33571402303
          -73.8426249,5.1211614,2696.381567845
          -73.8427104,5.1214638,2699.56984994692
          -73.8429034,5.1217243,2702.09832547135
          -73.8428896,5.1220667,2706.58515148428
          -73.8429554,5.1224057,2709.02950649158
          -73.8430988,5.1227545,2711.13394981398
          -73.8431078,5.1230978,2713.3458979463
          -73.8430115,5.1235211,2715.0324907517
          -73.842842,5.1239501,2717.22074691341
          -73.8425865,5.1241799,2720.13041225477
          -73.8424088,5.1243799,2720.71446516232
          -73.842373,5.1244423,2719.98183942904
          -73.8423714,5.1244435,2719.87177702418
          -73.8423711,5.1244446,2719.78160824146
          -73.8423708,5.1244456,2718.91943197065
          -73.8423719,5.1244495,2719.31598536268
          -73.8423721,5.1244505,2719.61656210739
          -73.842369,5.1244465,2720.23192651383
          -73.8423728,5.1244463,2720.24610593618
          -73.8423704,5.1244486,2719.73073237276
          -73.8423709,5.1244489,2720.31459121095
          -73.8423873,5.1245074,2720.70269583279
          -73.8423663,5.1247636,2719.32732769061
          -73.8423226,5.1251118,2716.31145112296
          -73.8422793,5.1254616,2714.49725228669
          -73.8421763,5.1258278,2711.12506072909
          -73.8422218,5.1262673,2708.06042992435
          -73.8421599,5.1265578,2704.52131902485
          -73.841842,5.1267447,2700.45197992365
          -73.8416883,5.1270157,2700.71521437507
          -73.8416096,5.1273389,2702.29667169151
          -73.8413493,5.1276052,2705.55175782174
          -73.8409846,5.1278289,2706.4605714192
          -73.8405823,5.1280913,2708.56497684053
          -73.8402042,5.1283524,2712.37484680202
          -73.8398208,5.1285705,2713.8620589692
          -73.8395715,5.1289097,2714.76324899527
          -73.8395809,5.1293129,2718.32358958375
          -73.8396243,5.1297192,2721.16859739832
          -73.8395028,5.130102,2721.84365443538
          -73.8392174,5.1303444,2723.3718211599
          -73.8390212,5.1305883,2725.17629012209
          -73.8390448,5.1308966,2726.17685308706
          -73.8392684,5.1312457,2726.49674910868
          -73.8392441,5.1316883,2729.09109116427
          -73.8390096,5.132077,2731.29898470191
          -73.838841,5.1324929,2731.38825991712
          -73.8386691,5.132861,2728.18929247745
          -73.8384138,5.1332664,2725.58295504192
          -73.8380747,5.1335586,2722.95279175748
          -73.8377594,5.1336262,2722.46121878427
          -73.8374896,5.1338196,2723.77467291071
          -73.8373781,5.1340644,2728.47473066644
          -73.8375685,5.1342252,2733.12324134223
          -73.8377275,5.1344728,2737.7102018474
          -73.8376822,5.1348222,2741.129388242
          -73.8374266,5.135084,2744.70350722087
          -73.8371879,5.1353531,2749.35232833584
          -73.8368915,5.1354761,2754.35849211884
          -73.8365271,5.1355302,2758.37107349468
          -73.8362204,5.1356922,2762.12334880469
          -73.8358332,5.1357184,2766.39981240474
          -73.8355883,5.1358598,2770.25522613449
          -73.8353908,5.1361865,2774.99095086431
          -73.8350543,5.1363903,2779.19020513412
          -73.8348146,5.136394,2783.99145681182
          -73.8345809,5.1364642,2788.82362138197
          -73.8344645,5.1366839,2794.99769112902
          -73.834247,5.1369463,2799.35109755524
          -73.833998,5.1371603,2802.89497102542
          -73.8338252,5.1374437,2805.64990763988
          -73.8337163,5.137761,2808.90707538284
          -73.8336432,5.1381345,2812.4596307369
          -73.8335192,5.1384005,2818.59962627378
          -73.8334968,5.1387038,2822.48017670187
          -73.8333744,5.1389248,2828.42209734233
          -73.833207,5.1391325,2833.22087669262
          -73.833258,5.1394591,2837.30974121356
          -73.8332754,5.1397632,2840.51471234024
          -73.833092,5.1399935,2845.03681470037
          -73.8330744,5.1402441,2851.12936693361
          -73.8331212,5.1405489,2854.88994452424
          -73.8328768,5.1408069,2859.54294348402
          -73.8326548,5.1411071,2862.70667744027
          -73.8326103,5.1415219,2863.23253787209
          -73.8325402,5.1417134,2863.62828444635
          -73.8325239,5.1417372,2863.13010867003
          -73.8324632,5.1417836,2863.16537759187
          -73.8322424,5.1419577,2862.22378337677
          -73.8320368,5.1422286,2859.05944995741
          -73.831775,5.1424911,2855.11932385696
          -73.83149,5.1427642,2852.0358079809
          -73.8313508,5.1430908,2851.14980569638
          -73.8311628,5.143415,2847.18390930611
          -73.8309869,5.1437255,2841.55686371725
          -73.8307966,5.14408,2837.12582064922
          -73.830601,5.1443571,2834.67438381951
          -73.8304334,5.1445936,2833.14659104968
          -73.8302959,5.1448776,2826.8152100803
          -73.8302274,5.1450814,2822.62032383214
          -73.8300113,5.145159,2817.15948959842
          -73.8297981,5.1449519,2815.85710580616
          -73.8295563,5.1447235,2814.65297052746
          -73.829366,5.1444853,2812.42612839896
          -73.829146,5.144677,2811.43819659984
          -73.8289897,5.1449752,2812.38367463118
          -73.8289076,5.1453014,2814.8101596643
          -73.8289282,5.1456628,2816.23985012688
          -73.8287393,5.1458671,2820.62861786513
          -73.828756,5.1461114,2821.07090467034
          -73.8289025,5.146439,2819.82050917423
          -73.8290083,5.1468149,2818.08555031226
          -73.8289711,5.1471632,2819.02301024548
          -73.8287575,5.1474004,2820.87517633791
          -73.8287668,5.1476529,2822.5098171774
          -73.8285406,5.1478977,2824.88117649961
          -73.82831,5.1480767,2826.81182799598
          -73.8280235,5.1482658,2827.49259351708
          -73.8277722,5.1483098,2828.84039362563
          -73.8275507,5.1482293,2828.24971948471
          -73.8273643,5.1483163,2822.9949991363
          -73.8275714,5.148581,2821.73052782279
          -73.8278168,5.1488843,2820.82474763908
          -73.828134,5.149087,2816.21747254344
          -73.8281287,5.1494382,2817.55385125271
          -73.8280429,5.14977,2820.11017888771
          -73.8280058,5.1500605,2825.40697404942
          -73.8279615,5.150255,2829.82341157251
          -73.8278094,5.1505257,2833.55848570479
          -73.8275502,5.1507177,2837.08824407185
          -73.8272595,5.1508293,2841.95512493062
          -73.8271567,5.1510161,2842.23984329976
          -73.8273065,5.151317,2842.73711223816
          -73.8274085,5.1516299,2845.84811154789
          -73.8273846,5.1518772,2850.9265764653
          -73.8272653,5.1521631,2856.33219759438
          -73.8270879,5.1524343,2860.4814596038
          -73.8269185,5.1527383,2864.85130930257
          -73.8268172,5.1530386,2869.43285976428
          -73.8268337,5.1533314,2876.32941960429
          -73.8268699,5.1536323,2880.89348032479
          -73.8267677,5.1538172,2884.2816391417
          -73.8265764,5.1540601,2887.86513452647
          -73.8263431,5.1542204,2891.8828416809
          -73.826123,5.1544791,2890.55301613164
          -73.8261168,5.1548132,2889.78629047812
          -73.8260126,5.1551676,2887.94697908166
          -73.8257383,5.1554711,2888.00446584015
          -73.8254554,5.1557775,2884.26186147489
          -73.8251766,5.1559648,2885.91229812473
          -73.8249781,5.1562101,2888.68701493121
          -73.82488,5.1565308,2892.06909179688
          -73.8248437,5.1568543,2896.54973596929
          -73.8247649,5.1571606,2900.05840433726
          -73.8246944,5.1575303,2902.68870493741
          -73.8246404,5.1578235,2904.33930659926
          -73.8244486,5.1581045,2901.81516011319
          -73.8242836,5.1584271,2897.40055339028
          -73.8240171,5.1586307,2892.84267191345
          -73.823696,5.1587153,2889.40119202217
          -73.8233873,5.1589216,2885.84755935815
          -73.8230991,5.1590864,2879.20459622772
          -73.8229883,5.1593403,2876.09471242574
          -73.8229608,5.1597924,2872.88776008683
          -73.8228937,5.1601252,2872.79249749821
          -73.8226686,5.1602032,2878.17107036344
          -73.8224064,5.1602688,2882.70246253539
          -73.8221226,5.1604144,2887.55713928925
          -73.8219421,5.1606291,2891.87671493696
          -73.8218555,5.1609684,2896.75965884146
          -73.8217967,5.1613118,2899.93307204795
          -73.8217348,5.1616592,2904.46476204092
          -73.8216944,5.1619873,2908.96257421718
          -73.8217442,5.162355,2914.12719726562
          -73.8219579,5.1627014,2917.41869956838
          -73.8221961,5.1630625,2918.41186769229
          -73.8222589,5.1634637,2918.50442198587
          -73.822227,5.1638971,2919.36344141468
          -73.8221436,5.1642274,2923.43028031691
          -73.8218948,5.1644684,2927.66601959158
          -73.821707,5.1648238,2931.93969948534
          -73.8215605,5.165222,2934.01145766594
          -73.8214419,5.1656679,2935.97678172545
          -73.8213154,5.1661262,2936.40211332718
          -73.8212319,5.1665116,2935.08902093063
          -73.8209253,5.16684,2936.4675180579
          -73.8207581,5.1672314,2940.30896805712
          -73.8206454,5.1677201,2940.86219019193
          -73.8204958,5.1681598,2942.60455372278
          -73.8201948,5.1685618,2942.13107052034
          -73.8198893,5.1689198,2942.17374738005
          -73.8195562,5.1692639,2943.68479506405
          -73.8194434,5.1696936,2944.09431041158
          -73.8192673,5.170124,2943.99556360263
          -73.8190608,5.1705456,2939.37689419246
          -73.8188011,5.1709559,2939.12920119373
          -73.8186138,5.1714221,2939.13240048503
          -73.8183965,5.1718409,2941.78911228486
          -73.8180104,5.1718809,2944.25876467116
          -73.8175879,5.1718354,2946.10937376928
          -73.8172604,5.1718551,2949.30294760708
          -73.816984,5.1720032,2951.72213046012
          -73.8166896,5.1722803,2954.05642201655
          -73.8162941,5.1724304,2954.74722552581
          -73.8159007,5.1725754,2954.24266017775
          -73.8155395,5.1728173,2955.39716568921
          -73.8151977,5.1730361,2958.55949322393
          -73.8148267,5.173231,2960.18666250139
          -73.8145502,5.1731126,2961.18834575205
          -73.8144792,5.1727725,2963.47361363989
          -73.8143779,5.1723941,2963.41210655287
          -73.8142947,5.1720094,2963.10861150038
          -73.8140936,5.1716641,2963.72774803006
          -73.813874,5.1714628,2962.00097704028
          -73.8135448,5.1714397,2958.34533029095
          -73.813313,5.1716362,2957.42649385506
          -73.813048,5.1718018,2952.99814381344
          -73.8128697,5.1720519,2947.97490262294
          -73.812703,5.1723809,2940.62529356718
          -73.8123701,5.1726195,2935.16180486897
          -73.81204,5.1727227,2933.042059372
          -73.8117315,5.172938,2931.96724498765
          -73.8114235,5.1732842,2930.49803258429
          -73.811098,5.1734456,2926.97897574769
          -73.8108003,5.1733585,2927.18345720196
          -73.8104884,5.1733198,2928.80347911839
          -73.8102301,5.1734209,2931.1910286898
          -73.8100386,5.1736435,2930.81553432838
          -73.8097386,5.1739314,2926.80586978661
          -73.8093245,5.1740863,2922.47579045496
          -73.8089134,5.1741644,2922.54763702182
          -73.8086652,5.1741772,2923.0894295188
          -73.8083149,5.1742262,2923.80201018609
          -73.8079603,5.1742159,2924.96780224684
          -73.8076884,5.1743386,2928.51886947837
          -73.8073991,5.1744639,2930.48748503022
          -73.8070819,5.1745048,2930.77832807985
          -73.8066251,5.1745813,2929.88779104409
          -73.8061938,5.1747059,2926.71723040305
          -73.8058759,5.1748001,2924.38771014571
          -73.8058266,5.1748231,2923.21734496817
          -73.8057943,5.1748474,2922.38092782324
          -73.8056739,5.174874,2922.44709928461
          -73.8055484,5.1749183,2921.76211996539
          -73.8052965,5.175032,2920.6546479324
          -73.8049878,5.1751216,2917.95661690913
          -73.8046602,5.1751905,2913.42574179227
          -73.8043063,5.1752457,2910.88535156445
          -73.8039629,5.1753003,2906.47781528844
          -73.803565,5.1753717,2901.63558819378
          -73.8031345,5.1754447,2897.44154412071
          -73.8027542,5.1755353,2893.61681293858
          -73.8024208,5.175592,2890.05741811411
          -73.8021127,5.1759484,2886.06689881287
          -73.801813,5.1763446,2886.67367352803
          -73.8015534,5.1768391,2887.37976306919
          -73.801286,5.1773516,2887.76168598404
          -73.8010599,5.1778727,2888.78026636207
          -73.8009723,5.1784242,2888.51520335497
          -73.8009298,5.1789965,2888.83642854539
          -73.8008713,5.1795461,2888.42997559408
          -73.8006984,5.1800736,2888.80970576521
          -73.8005145,5.1805497,2889.48086833156
          -73.8003481,5.1811227,2888.5261948311
          -73.800169,5.1816395,2889.0548877144
          -73.8000174,5.1820838,2889.04636131939
          -73.7998399,5.1825303,2887.0479304782
          -73.7996008,5.1830184,2887.18433917554
          -73.7993331,5.1835022,2887.27013709017
          -73.7990421,5.1839828,2887.89671456684
          -73.7987376,5.1844891,2887.51941435952
          -73.7983813,5.1849994,2885.1102870062
          -73.7980003,5.1854937,2885.6896993922
          -73.7975976,5.1859888,2887.00742551434
          -73.7973089,5.1863535,2888.89677345874
          -73.7970058,5.186813,2888.65494622976
          -73.796678,5.1873039,2889.41357421875
          -73.7964253,5.1878282,2890.49862914779
          -73.7961632,5.1882838,2891.88446228577
          -73.7958727,5.1887188,2891.08585590401
          -73.7955684,5.1891129,2890.47234916766
          -73.7951746,5.1895628,2889.63910267853
          -73.7948255,5.1900851,2889.27445850756
          -73.7945617,5.1906013,2889.21955912375
          -73.7942349,5.1910715,2890.27305457228
          -73.7938085,5.1914545,2890.17631842328
          -73.7934236,5.1918014,2889.88402543473
          -73.7932039,5.1919658,2889.77884359119
          -73.793178,5.1919738,2891.25432837574
          -73.7931788,5.1919738,2890.85802613371
          -73.7931771,5.1919741,2890.61664197527
          -73.7931758,5.1919736,2891.09964728955
          -73.7931767,5.1919743,2891.32316961413
          -73.7931763,5.1919745,2890.96070770586
          -73.7931755,5.1919746,2890.61529506312
          -73.7931736,5.1919737,2890.52774079174
          -73.7931735,5.1919737,2890.24860945856
          -73.7931688,5.1919865,2890.41037362792
          -73.7931665,5.1919981,2890.93418735684
          -73.7931714,5.1919976,2890.96675335992
          -73.7931736,5.1919974,2891.41433886238
          -73.7931771,5.191996,2890.83497793825
          -73.7931734,5.1919934,2890.47238054134
          -73.7931662,5.1919917,2890.25205794073
          -73.7931908,5.1919834,2890.27366066945
          -73.7931894,5.1919863,2890.67750253881
          -73.7931888,5.1919854,2889.78476599073
          -73.7931848,5.1919791,2889.79615619248
          -73.793183,5.1919787,2890.12589198071
          -73.7931821,5.1919787,2889.82077094834
          -73.7931784,5.1919773,2889.73606769596
          -73.7930733,5.1920997,2889.83917377768
          -73.7928132,5.1923394,2888.940120427
          -73.7925252,5.1926264,2888.10398527322
          -73.7921871,5.1929526,2887.90918547229
          -73.7918413,5.1932865,2886.84977608163
          -73.7915176,5.1935487,2886.60677478537
          -73.7911806,5.1938155,2887.23570099978
          -73.7908018,5.1940906,2888.08253282313
          -73.7904705,5.1942209,2889.61665165663
          -73.7902694,5.194021,2890.00533745921
          -73.7901035,5.193692,2889.09921445804
          -73.7898677,5.1932679,2888.07978710607
          -73.7896049,5.1928036,2887.23075772336
          -73.7893432,5.1923293,2886.28009808107
          -73.7890977,5.1919465,2886.40638130518
          -73.7887313,5.1919728,2886.50992360952
          -73.788264,5.1921021,2885.41151289153
          -73.7878117,5.192218,2883.51942314698
          -73.7875184,5.1923245,2884.18576498619
          -73.7875553,5.1924554,2886.60101739918
          -73.7877526,5.1926268,2887.46930681696
          -73.7881141,5.1928693,2888.40026460064
          -73.7884344,5.193113,2891.1782049681
          -73.7885673,5.1936038,2894.47140726606
          -73.7885384,5.1941675,2898.91494469973
          -73.7884534,5.1945462,2903.72552155687
          -73.7883951,5.1946705,2907.10280721278
          -73.7883953,5.1946664,2907.36208889402
          -73.7883956,5.1946652,2907.29914441746
          -73.7883953,5.1946646,2907.3745865402
          -73.7883726,5.1947293,2907.46288772564
          -73.7882527,5.1950164,2908.49793498813
          -73.7880768,5.1954609,2911.53350146319
          -73.7880164,5.1960211,2915.40107597556
          -73.7881027,5.1966124,2919.9749998036
          -73.7884435,5.1971004,2922.35630003382
          -73.7888665,5.1975211,2925.36327785373
          -73.7892699,5.1979505,2929.48491589286
          -73.7894144,5.1985039,2935.64979695096
          -73.789393,5.1991324,2938.975925213
          -73.7893235,5.199748,2943.93070832011
          -73.7889835,5.2002289,2947.78662902718
          -73.7890408,5.2007609,2951.53327065891
          -73.7890662,5.2012626,2954.45574312053
          -73.7889485,5.2017273,2956.91129916575
          -73.7887032,5.2021914,2960.06236170665
          -73.7886912,5.2026773,2962.8051321518
          -73.7887942,5.2031913,2965.38885053478
          -73.7891964,5.2035309,2972.33951709967
          -73.7892162,5.2039835,2976.62495202729
          -73.7889527,5.2044837,2980.54316915581
          -73.7887913,5.2050459,2983.87109603758
          -73.788977,5.2054324,2990.44904087165
          -73.7891872,5.2057875,2993.33166468361
          -73.7892632,5.2062829,2995.96599161107
          -73.7892858,5.2068048,2997.94580561387
          -73.7891431,5.2073673,2995.41760251997
          -73.788896,5.2078857,2990.80463091656
          -73.7884956,5.2082905,2986.16977131028
          -73.7881721,5.2088011,2982.68299774591
          -73.7877447,5.2091418,2977.54041257913
          -73.7873685,5.2091862,2971.65985758163
          -73.78722,5.2088103,2970.45971266491
          -73.7871438,5.2085463,2966.53155787941
          -73.7868149,5.2085382,2965.42903411179
          -73.7864595,5.2086561,2963.01168062959
          -73.7862255,5.208831,2961.92902478136
          -73.7859855,5.2090465,2960.18794852608
          -73.7859018,5.209425,2958.22759713695
          -73.7855769,5.2097588,2953.92108427889
          -73.7854081,5.2100241,2950.66893681177
          -73.7854005,5.2104921,2947.64102625436
          -73.7850474,5.2109077,2944.71765309805
          -73.7849665,5.2113972,2940.54525547188
          -73.7846786,5.2118552,2936.62629507945
          -73.7843335,5.2122584,2933.33605403398
          -73.7841209,5.2128286,2930.86208590861
          -73.7839247,5.2133116,2926.39919465704
          -73.78372,5.2138296,2919.66992859237
          -73.7833723,5.2139948,2915.03686480185
          -73.7829582,5.2140172,2912.49442769205
          -73.7827757,5.2145401,2908.26222188895
          -73.782603,5.2151484,2903.52089118144
          -73.7822992,5.2157122,2897.17823030361
          -73.7821511,5.2161697,2891.31432903328
          -73.7824943,5.2162298,2886.4897060227
          -73.7827163,5.2161035,2882.49709180788
          -73.7829187,5.216065,2879.76753460146
          -73.7831105,5.2163758,2878.41236588579
          -73.7829404,5.21681,2872.57264293729
          -73.7826151,5.21718,2869.76025837388
          -73.7826229,5.2177243,2865.87256919788
          -73.7826802,5.2182269,2861.02637527315
          -73.7826175,5.2187546,2853.79550369402
          -73.7822784,5.2191473,2849.44494239615
          -73.7824966,5.219554,2843.76454484575
          -73.7829403,5.2199621,2835.6207958302
          -73.7830777,5.2203128,2826.91740155705
          -73.782974,5.2208186,2819.9712404858
          -73.7832151,5.2213974,2814.03866400612
          -73.7833984,5.2220735,2807.25046592064
          -73.7835812,5.2227466,2801.38912527768
          -73.783354,5.2232522,2797.68492591439
          -73.7831424,5.2233503,2796.78784873294
          -73.7831532,5.2233946,2794.70612946326
          -73.7833773,5.223265,2795.20148292356
          -73.7835438,5.2231227,2797.1127830525
          -73.7835873,5.2230931,2798.0984768048
          -73.7836034,5.2230748,2798.22493567301
          -73.7836024,5.2230728,2798.1855810434
          -73.783604,5.2230578,2798.17009568096
          -73.7834919,5.2231224,2798.00900903123
          -73.7831019,5.2233558,2797.20509230532
          -73.7826593,5.2236666,2794.39432825821
          -73.7821809,5.2240917,2788.3205938896
          -73.7817529,5.2244452,2781.08604002831
          -73.7816249,5.2249026,2775.174375508
          -73.7814549,5.2253499,2767.85809919458
          -73.7811553,5.2253382,2764.01039046151
          -73.7812519,5.2249402,2759.41477045274
          -73.7812139,5.2243603,2755.84912956849
          -73.7811246,5.223688,2754.21197031341
          -73.7809816,5.223171,2753.42635374712
          -73.7806316,5.2233125,2753.03341669791
          -73.7803836,5.2238666,2751.05001771797
          -73.7800331,5.2242389,2747.50902191739
          -73.7798035,5.2245458,2745.87457735679
          -73.7797286,5.2250118,2742.36490715009
          -73.7797061,5.2253285,2739.65272034087
          -73.7795896,5.2256961,2735.80779519086
          -73.7793807,5.226117,2732.6447921806
          -73.7791549,5.2264417,2728.07189819704
          -73.7787428,5.2264696,2724.71878948849
          -73.7784852,5.2266305,2722.27255952741
          -73.7786335,5.2269735,2719.79750814536
          -73.7789123,5.227448,2715.45468653678
          -73.7790396,5.2278487,2711.67343744036
          -73.7789219,5.2283564,2707.88183420357
          -73.7787969,5.2287708,2702.66224120725
          -73.7785922,5.2290416,2698.96581680218
          -73.7781574,5.2290902,2695.7635294553
          -73.7778233,5.2293583,2691.12747331603
          -73.7776588,5.229709,2686.6668631535
          -73.7777212,5.2300361,2682.79873401531
          -73.7778492,5.2304064,2679.44435352768
          -73.777905,5.2308786,2675.42079957164
          -73.7776533,5.2313596,2671.94959296853
          -73.7774029,5.2316074,2668.48395001745
          -73.7771496,5.2314523,2664.05239187581
          -73.7768541,5.2313227,2661.43818042097
          -73.776666,5.2317352,2658.7786988971
          -73.776698,5.2323623,2653.58150841433
          -73.7767518,5.2328639,2648.2129594334
          -73.7767708,5.2334222,2641.65504344413
          -73.7766508,5.2340415,2636.22819144496
          -73.7764724,5.2345668,2630.04115529616
          -73.7762652,5.2350808,2625.85746637955
          -73.7762539,5.2356335,2621.48283032057
          -73.7759827,5.2362441,2615.90150699152
          -73.7757097,5.2368135,2609.7609605679
          -73.7753133,5.2370316,2605.87106611381
          -73.774855,5.2368212,2603.31083393055
          -73.7742861,5.2369575,2601.76497854674
          -73.7736395,5.237282,2600.3145222694
          -73.7730162,5.2374585,2599.52300948096
          -73.7725534,5.2380015,2598.91253097317
          -73.7720731,5.2386337,2596.67289973142
          -73.7718785,5.2392976,2595.88212757437
          -73.7716416,5.2397926,2594.39937160679
          -73.7715891,5.2403269,2594.07618276813
          -73.7713858,5.2408971,2594.08993601202
          -73.7709371,5.2414199,2594.16083526071
          -73.7704369,5.2418766,2591.25408438715
          -73.7700305,5.2424128,2588.60943831679
          -73.7697129,5.2430807,2586.9927972413
          -73.7693583,5.2437806,2585.69225656823
          -73.7690686,5.2443225,2583.355678611
          -73.7687068,5.2450117,2582.8391183227
          -73.7684508,5.245543,2581.89265539642
          -73.7682538,5.245933,2581.58526059334
          -73.7679906,5.2464194,2582.12008636523
          -73.7676818,5.2469637,2581.41615888902
          -73.7675099,5.2473665,2582.97240137871
          -73.7673168,5.2477066,2582.9061264674
          -73.7671332,5.2480073,2580.9973457814
          -73.7669444,5.2482507,2580.61704717392
          -73.766762,5.2485721,2581.07660890939
          -73.7666434,5.2488237,2581.56359798189
          -73.7665603,5.2491354,2581.42395309461
          -73.7664819,5.2493998,2582.91769071402
          -73.7664785,5.2494929,2583.99402220471
          -73.7665014,5.2495047,2583.90014648438
          -73.7666606,5.2495943,2583.90014648438
          -73.7668551,5.2496905,2583.90014648438
          -73.7669832,5.2498235,2581.33749657853
          -73.7669407,5.2498857,2581.65941236223
          -73.7669396,5.2498872,2582.50024414062
          -73.7669584,5.2499304,2582.10009765625
          -73.7669233,5.2499808,2582.10009765625
          -73.7669541,5.2499773,2582.00024414062
          -73.7669658,5.2499751,2582.00024414062
          -73.7669727,5.2499722,2582.00024414062
          -73.7669688,5.2499668,2582.50024414062
          -73.7669672,5.2499638,2582.50024414062
          -73.7669668,5.2499616,2582.50024414062
          -73.7669728,5.2499546,2582.50024414062
          -73.7669812,5.2498889,2582.50024414062
          -73.7669657,5.2498665,2582.50024414062
          -73.7669633,5.2498683,2582.50024414062
          -73.766961,5.2498692,2582.50024414062
          -73.7669592,5.2498713,2582.50024414062
          -73.7669587,5.2498698,2582.50024414062
          -73.766958,5.24987,2582.2001953125
          -73.7669561,5.2498674,2582.50024414062
          -73.7669559,5.2498698,2582.2001953125
          -73.7669562,5.2498694,2582.2001953125
        </coordinates>
      </LineString>
    </Placemark>
  </Document>
</kml>
