<?xml version="1.0" encoding="UTF-8"?>
<kml xmlns="http://www.opengis.net/kml/2.2">
  <Document>
    <name>Guacheta-Raquira.gpx</name>
    <Style id="icon-123-normal">
      <IconStyle>
        <scale>1.1</scale>
        <Icon>
          <href>https://www.gstatic.com/mapspro/images/stock/123-red-dot.png</href>
        </Icon>
        <hotSpot x="16" xunits="pixels" y="32" yunits="insetPixels"/>
      </IconStyle>
      <LabelStyle>
        <scale>0</scale>
      </LabelStyle>
    </Style>
    <Style id="icon-123-highlight">
      <IconStyle>
        <scale>1.1</scale>
        <Icon>
          <href>https://www.gstatic.com/mapspro/images/stock/123-red-dot.png</href>
        </Icon>
        <hotSpot x="16" xunits="pixels" y="32" yunits="insetPixels"/>
      </IconStyle>
      <LabelStyle>
        <scale>1.1</scale>
      </LabelStyle>
    </Style>
    <StyleMap id="icon-123">
      <Pair>
        <key>normal</key>
        <styleUrl>#icon-123-normal</styleUrl>
      </Pair>
      <Pair>
        <key>highlight</key>
        <styleUrl>#icon-123-highlight</styleUrl>
      </Pair>
    </StyleMap>
    <Style id="icon-61-normal">
      <IconStyle>
        <scale>1.1</scale>
        <Icon>
          <href>https://www.gstatic.com/mapspro/images/stock/61-green-dot.png</href>
        </Icon>
        <hotSpot x="16" xunits="pixels" y="32" yunits="insetPixels"/>
      </IconStyle>
      <LabelStyle>
        <scale>0</scale>
      </LabelStyle>
    </Style>
    <Style id="icon-61-highlight">
      <IconStyle>
        <scale>1.1</scale>
        <Icon>
          <href>https://www.gstatic.com/mapspro/images/stock/61-green-dot.png</href>
        </Icon>
        <hotSpot x="16" xunits="pixels" y="32" yunits="insetPixels"/>
      </IconStyle>
      <LabelStyle>
        <scale>1.1</scale>
      </LabelStyle>
    </Style>
    <StyleMap id="icon-61">
      <Pair>
        <key>normal</key>
        <styleUrl>#icon-61-normal</styleUrl>
      </Pair>
      <Pair>
        <key>highlight</key>
        <styleUrl>#icon-61-highlight</styleUrl>
      </Pair>
    </StyleMap>
    <Style id="line-E65100-5000-normal">
      <LineStyle>
        <color>ff0051e6</color>
        <width>5</width>
      </LineStyle>
    </Style>
    <Style id="line-E65100-5000-highlight">
      <LineStyle>
        <color>ff0051e6</color>
        <width>7.5</width>
      </LineStyle>
    </Style>
    <StyleMap id="line-E65100-5000">
      <Pair>
        <key>normal</key>
        <styleUrl>#line-E65100-5000-normal</styleUrl>
      </Pair>
      <Pair>
        <key>highlight</key>
        <styleUrl>#line-E65100-5000-highlight</styleUrl>
      </Pair>
    </StyleMap>
    <Placemark>
      <name>Start of Track 1</name>
      <description><![CDATA[Friday, June 26, 2026, 9:20 PM GMT-05:00<br>Elevation: 8471 feet]]></description>
      <styleUrl>#icon-61</styleUrl>
      <Point>
        <coordinates>
          -73.7668435,5.2499528,2582.10009765625
        </coordinates>
      </Point>
    </Placemark>
    <Placemark>
      <name>End of Track 1</name>
      <description><![CDATA[Friday, June 26, 2026, 10:12 PM GMT-05:00<br>Elevation: 8884 feet]]></description>
      <styleUrl>#icon-123</styleUrl>
      <Point>
        <coordinates>
          -73.6859443,5.3846521,2707.807741561
        </coordinates>
      </Point>
    </Placemark>
    <Placemark>
      <name>Track 1</name>
      <description><![CDATA[Statistics computed from imported data<br><br>Friday, June 26, 2026, 9:20 PM GMT-05:00<br>Distance: 13.1 miles<br>Duration: 51 minutes and 39 seconds<br>Average Speed: 15.2 mph<br>Minimum Elevation: 8471 feet<br>Maximum Elevation: 9332 feet<br>Total climb: 1607 feet<br>Total descent: 1196 feet]]></description>
      <styleUrl>#line-E65100-5000</styleUrl>
      <LineString>
        <tessellate>1</tessellate>
        <coordinates>
          -73.7668435,5.2499528,2582.10009765625
          -73.7669115,5.2498759,2582.2001953125
          -73.7669144,5.2498827,2582.10009765625
          -73.7669152,5.2498819,2582.2001953125
          -73.7669163,5.2498809,2582.00024414062
          -73.7669181,5.2498801,2582.00024414062
          -73.7669178,5.2498791,2582.50024414062
          -73.7669201,5.2498801,2582.00024414062
          -73.7669214,5.2498806,2582.10009765625
          -73.7669224,5.24988,2582.50024414062
          -73.7669246,5.2498785,2582.50024414062
          -73.7669033,5.2498953,2582.00024414062
          -73.766903,5.2501469,2582.00024414062
          -73.7668945,5.2503,2582.00024414062
          -73.7668706,5.2504023,2582.00024414062
          -73.7667688,5.250624,2582.00024414062
          -73.7666498,5.2508372,2583.50024414062
          -73.7665759,5.2510879,2583.50024414062
          -73.766525,5.2514046,2583.50024414062
          -73.7666119,5.2516849,2583.50024414062
          -73.7665962,5.252057,2583.50024414062
          -73.7666536,5.2523818,2583.50024414062
          -73.766654,5.2527006,2585.23725308569
          -73.7666437,5.2529063,2585.51201833198
          -73.7666281,5.2531877,2586.16561626039
          -73.7666334,5.2533871,2586.96598455828
          -73.7666027,5.2535432,2586.93898406467
          -73.7665503,5.2538807,2586.29794112911
          -73.7664498,5.2543339,2585.4980531063
          -73.7663427,5.2548022,2583.50024414062
          -73.7662263,5.2552923,2585.41803452705
          -73.7661257,5.2558107,2586.38263474141
          -73.7661318,5.2563219,2587.69782530259
          -73.7662207,5.2566941,2589.36030200737
          -73.7661821,5.2570186,2594.62845664049
          -73.7659588,5.2573418,2599.92059280425
          -73.7659391,5.2576942,2604.7937502966
          -73.7658967,5.2579723,2610.87517390771
          -73.7659733,5.2582243,2616.54983788052
          -73.7661118,5.2584722,2621.66401301972
          -73.7661216,5.2588726,2621.72400041474
          -73.7661094,5.259306,2619.83472555817
          -73.766151,5.2596818,2619.01131756291
          -73.7661777,5.260108,2612.00713841596
          -73.7659473,5.2604758,2604.88794101288
          -73.7656924,5.2608361,2599.83475452425
          -73.7654132,5.2611559,2595.55327410176
          -73.765207,5.2615301,2593.25916779384
          -73.7649731,5.2619387,2591.07896669309
          -73.7647309,5.2623599,2590.25102353933
          -73.7645132,5.2628465,2590.2495015476
          -73.7642873,5.263345,2590.59405839064
          -73.764045,5.2638276,2591.15717240126
          -73.7637793,5.2642525,2592.70572672381
          -73.7634508,5.264675,2593.56713152842
          -73.763179,5.2650393,2595.04079261237
          -73.7629987,5.2654164,2597.82137687868
          -73.7628691,5.2658779,2598.31926494852
          -73.7627268,5.266328,2599.44244635934
          -73.7625426,5.2665992,2602.40743739959
          -73.7621793,5.266858,2602.86154429164
          -73.7617655,5.2672309,2603.94348557573
          -73.7613555,5.2676374,2605.57678375205
          -73.7609427,5.2681136,2608.09970274854
          -73.7605451,5.2685609,2611.00575697553
          -73.7601326,5.2690323,2613.39761709019
          -73.7597039,5.2694916,2615.4508819656
          -73.7592685,5.2699544,2617.93470343618
          -73.758883,5.2704309,2620.86215721325
          -73.7585303,5.2709006,2622.95568853006
          -73.7582163,5.2712096,2627.38886528049
          -73.7578315,5.2713946,2630.48406510704
          -73.7573487,5.2715609,2630.25244281475
          -73.7569391,5.2717556,2631.34466849399
          -73.7567109,5.2721166,2635.01990130182
          -73.7563524,5.2722608,2639.67414985482
          -73.7559346,5.2723651,2644.47766521154
          -73.7555941,5.2725452,2645.48030005424
          -73.7554248,5.2728234,2650.20212634279
          -73.7552256,5.2730132,2657.01901929334
          -73.7549289,5.2731355,2660.51047932584
          -73.7547882,5.2733497,2666.22130276487
          -73.7546612,5.2735036,2670.03535589611
          -73.7545468,5.2738207,2674.34069589837
          -73.7543434,5.273985,2680.36077280267
          -73.754026,5.274056,2682.69300591331
          -73.7536445,5.2740765,2686.89310933785
          -73.7533297,5.2741517,2692.85337006368
          -73.753419,5.274338,2695.74269942247
          -73.7535258,5.2745923,2693.55287266673
          -73.7533871,5.2748642,2690.18755828432
          -73.7531844,5.2752784,2686.32836936315
          -73.7529618,5.2756796,2685.76056424095
          -73.7527053,5.2759819,2690.21934408257
          -73.7524664,5.2763028,2694.4381572729
          -73.7523525,5.2766752,2695.24413514762
          -73.7520918,5.2768336,2697.31398506647
          -73.7517041,5.2769016,2700.48255487441
          -73.7515444,5.2771881,2703.31373261023
          -73.7513611,5.2774233,2708.49895856991
          -73.7511274,5.2772938,2712.6412991482
          -73.7508985,5.2774216,2715.56668515081
          -73.7508314,5.2776974,2721.09677848114
          -73.7507177,5.2779858,2726.19750246615
          -73.7504919,5.2782367,2733.04803967129
          -73.7502985,5.2785258,2737.64915098073
          -73.750065,5.2786452,2742.20506568602
          -73.7498315,5.278796,2745.8514437076
          -73.7497293,5.2790802,2750.55723688353
          -73.7496032,5.2793565,2757.35363625647
          -73.7495045,5.2796312,2763.06636075639
          -73.7494027,5.2799239,2768.54349519731
          -73.7492467,5.2801516,2772.2187405671
          -73.7490577,5.2803869,2776.48815211993
          -73.7488947,5.2806777,2779.05561789197
          -73.7486939,5.2809164,2780.73864620569
          -73.7484001,5.2808695,2780.74033507768
          -73.7481857,5.2810639,2784.38084228719
          -73.7479565,5.281299,2788.004172052
          -73.7477143,5.2815228,2792.8550032136
          -73.747454,5.2817,2798.20398064383
          -73.7472057,5.2818909,2803.3381609854
          -73.7469164,5.2820523,2809.85181185004
          -73.7468341,5.2823567,2818.20953149409
          -73.7467807,5.282629,2824.12336577539
          -73.7466262,5.2828456,2830.90191050535
          -73.7463945,5.2828324,2836.45656445197
          -73.7461248,5.2829841,2842.01998328703
          -73.745842,5.2829794,2844.37573983658
          -73.7455122,5.2829386,2844.41726265006
          -73.7451365,5.2830572,2844.10807095069
          -73.7447077,5.2830913,2843.41272573806
          -73.7443354,5.2831668,2843.90497626371
          -73.743955,5.2831693,2845.40619890719
          -73.7436193,5.2832515,2845.21170781128
          -73.743363,5.2832699,2845.01472505214
          -73.7430203,5.2832922,2841.51346330461
          -73.7426923,5.2833752,2837.73639841822
          -73.7424542,5.2835081,2835.54518946268
          -73.7420921,5.2836003,2834.82063840561
          -73.7417628,5.283484,2833.82783379366
          -73.7414983,5.2835715,2833.09844789537
          -73.7412141,5.2839039,2828.21026908911
          -73.7408468,5.2841511,2824.8773755557
          -73.7405487,5.2844113,2824.26694234832
          -73.7402654,5.284699,2821.85451926936
          -73.7398489,5.2849054,2815.81111271011
          -73.739441,5.2851072,2810.5341357032
          -73.7391053,5.2853865,2806.20061735285
          -73.7387957,5.2855969,2801.29935146297
          -73.7384456,5.2856963,2797.10473811179
          -73.7380114,5.285757,2789.94223238951
          -73.737627,5.2859093,2784.68382902239
          -73.7372102,5.2860243,2780.12155943463
          -73.7367612,5.2860515,2775.56853980766
          -73.7364207,5.2860865,2772.7770565036
          -73.7360273,5.2862275,2765.12337813142
          -73.7357053,5.2863434,2759.29858174968
          -73.7355013,5.2866051,2753.90488874876
          -73.7352341,5.2868351,2747.90606591102
          -73.7349585,5.2871158,2743.16607755995
          -73.7346771,5.2872722,2738.94851766793
          -73.7343851,5.2875246,2733.40837554431
          -73.73413,5.2876615,2728.55559736446
          -73.7338522,5.2875947,2722.52035518799
          -73.7338298,5.2873568,2719.30484354068
          -73.733673,5.2872256,2713.46538217842
          -73.7333153,5.2871772,2708.78294817016
          -73.7330467,5.2870707,2709.17701656263
          -73.7327767,5.28708,2714.69164066207
          -73.7325331,5.2869165,2718.96728885989
          -73.7323202,5.2867255,2724.44884754902
          -73.7320018,5.2867949,2731.00202623538
          -73.7316523,5.2869901,2734.46435748733
          -73.7314136,5.2871836,2740.9829054152
          -73.7312149,5.2873717,2746.93560082471
          -73.7309511,5.28749,2751.19454019813
          -73.7306222,5.2875356,2753.08784493859
          -73.7302778,5.287604,2751.78505871697
          -73.7299437,5.2876827,2748.52534027533
          -73.7295464,5.2878096,2745.97662707368
          -73.7291619,5.2879652,2740.93332866399
          -73.7287655,5.2881821,2738.88554307802
          -73.7283696,5.288356,2734.92472944946
          -73.7278941,5.2884781,2730.89451698691
          -73.7274803,5.2885527,2725.04813971694
          -73.7270917,5.2887751,2719.38370449008
          -73.7267712,5.2891113,2715.15456469814
          -73.7264107,5.2892888,2712.2104731518
          -73.7260036,5.2894119,2706.48791892238
          -73.7256742,5.2895584,2698.93216577277
          -73.7255541,5.2897005,2694.93707514086
          -73.7254539,5.289954,2693.08098019041
          -73.7255719,5.2902327,2688.51159906421
          -73.725455,5.2904618,2684.2267446262
          -73.7250869,5.2905362,2679.41209877974
          -73.7247526,5.2905263,2674.09200881242
          -73.7244948,5.2905844,2668.35908935816
          -73.7242386,5.2907342,2663.92491771074
          -73.7238689,5.2906306,2658.15186894531
          -73.7234518,5.2906718,2653.30297571643
          -73.7232508,5.2907925,2651.95381237783
          -73.7232192,5.2907994,2651.15523228792
          -73.7232088,5.2908124,2651.14433105954
          -73.7232094,5.2908132,2651.1246312887
          -73.723209,5.290814,2651.13588829509
          -73.7231043,5.2908896,2650.77848553517
          -73.722792,5.2909921,2649.08454221108
          -73.7225025,5.2911783,2646.28267077623
          -73.7221813,5.2913993,2642.50609005035
          -73.721745,5.2915047,2641.69658345581
          -73.7213259,5.2917746,2635.65502034949
          -73.7208798,5.2920662,2631.59124464111
          -73.7204175,5.2922045,2625.86724276099
          -73.7202052,5.2924684,2625.96065521887
          -73.719983,5.2925416,2621.83269554714
          -73.7197172,5.2927097,2616.31511142128
          -73.7194244,5.2930315,2610.9300045063
          -73.7192841,5.2932169,2612.81850942762
          -73.7191344,5.2933696,2616.33706623779
          -73.7190388,5.2934825,2617.32561369147
          -73.7190005,5.2935153,2619.52975749741
          -73.7188018,5.2936769,2620.2359003289
          -73.7184485,5.2937596,2621.19297244789
          -73.7181208,5.2939277,2618.29926007041
          -73.7178048,5.2942964,2616.47548018232
          -73.7174414,5.2946451,2616.46573840858
          -73.7171015,5.2949723,2615.96649178983
          -73.7167815,5.2954076,2614.42879063588
          -73.716365,5.2957499,2613.81207210388
          -73.7159696,5.2961207,2613.82975779236
          -73.7155807,5.296405,2613.58878406852
          -73.7150681,5.2966661,2616.48656860975
          -73.7146606,5.2966748,2618.8849736856
          -73.7143281,5.2967768,2620.13942534927
          -73.7139645,5.2969914,2617.72576084167
          -73.7137529,5.2972195,2615.65820177119
          -73.7135792,5.297456,2612.64448478607
          -73.7134731,5.2977826,2609.9730823031
          -73.7133125,5.298191,2608.83137653361
          -73.7131546,5.298507,2608.18377577254
          -73.7130224,5.2988359,2612.03476487204
          -73.7128872,5.2990982,2612.08076083568
          -73.7126941,5.2994911,2611.06484732811
          -73.712553,5.2997929,2611.26248749854
          -73.7124026,5.3001454,2611.93300769883
          -73.7122333,5.3006312,2610.89706730548
          -73.7123171,5.301114,2610.49924630775
          -73.7124966,5.3015179,2610.08631744309
          -73.7125373,5.3019352,2609.90432041843
          -73.7124386,5.302252,2608.44650609522
          -73.7123412,5.3025099,2608.82738284013
          -73.7121446,5.3028276,2606.84058655043
          -73.7118881,5.303181,2605.74440810521
          -73.7116053,5.3035412,2604.25082839322
          -73.7115051,5.3038552,2603.98548095532
          -73.7115053,5.304181,2603.46506878876
          -73.7115033,5.3042625,2602.93820823091
          -73.7114994,5.3042659,2602.52114093101
          -73.7115055,5.3044188,2602.53523873007
          -73.7115034,5.3047358,2602.52395322128
          -73.7115095,5.3050595,2601.04721413763
          -73.7115202,5.3053957,2598.40014648438
          -73.7115133,5.3057521,2600.237892068
          -73.7114956,5.3060748,2598.40014648438
          -73.7114462,5.3063554,2600.15335473803
          -73.7114168,5.3066002,2600.96220245456
          -73.7113985,5.3069251,2598.40014648438
          -73.7113521,5.3072444,2601.22356482026
          -73.7112653,5.307504,2600.87784742955
          -73.7111864,5.3075401,2602.10009765625
          -73.7111722,5.307543,2602.10009765625
          -73.7111725,5.3075449,2602.10009765625
          -73.7111722,5.3075456,2602.10009765625
          -73.7111727,5.3075464,2602.10009765625
          -73.711173,5.3075467,2602.10009765625
          -73.7111737,5.3075475,2602.7001953125
          -73.7111746,5.3075482,2602.10009765625
          -73.7111748,5.3075485,2602.10009765625
          -73.7111756,5.3075494,2602.7001953125
          -73.7111571,5.3075623,2602.10009765625
          -73.7111476,5.3075796,2602.90014648438
          -73.7111488,5.3075819,2602.10009765625
          -73.7111496,5.3075824,2602.10009765625
          -73.7111508,5.307582,2602.10009765625
          -73.7111517,5.3075818,2602.90014648438
          -73.7111528,5.3075816,2602.90014648438
          -73.7111532,5.3075814,2602.10009765625
          -73.7111537,5.3075814,2602.10009765625
          -73.7111546,5.3075814,2602.10009765625
          -73.7111445,5.3075957,2602.10009765625
          -73.7111423,5.3075938,2602.50024414062
          -73.711141,5.3075928,2602.10009765625
          -73.7111408,5.3075945,2602.10009765625
          -73.7112188,5.3076812,2602.90014648438
          -73.7112215,5.3078421,2602.90014648438
          -73.7111259,5.3081146,2602.7001953125
          -73.7110765,5.308336,2600.90014648438
          -73.711024,5.3085229,2602.90014648438
          -73.7109751,5.3086914,2602.90014648438
          -73.7109351,5.3089433,2602.7001953125
          -73.7108771,5.3092311,2602.7001953125
          -73.710855,5.3093225,2603.90014648438
          -73.7108461,5.309528,2602.90014648438
          -73.7107937,5.3099363,2602.90014648438
          -73.7106926,5.3104841,2602.7001953125
          -73.7104443,5.3110307,2601.60009765625
          -73.7101773,5.3115984,2600.90014648438
          -73.7099651,5.3120121,2601.60009765625
          -73.7099019,5.3121289,2601.60009765625
          -73.7098285,5.3122773,2601.60009765625
          -73.7096182,5.3126812,2601.60009765625
          -73.709334,5.3132093,2601.60009765625
          -73.7088993,5.3137469,2601.60009765625
          -73.7082694,5.3142343,2597.45641641784
          -73.7077038,5.314694,2596.98050988981
          -73.70756,5.315237,2601.60009765625
          -73.7076966,5.3158354,2599.72264551802
          -73.7074443,5.3163199,2600.00024414062
          -73.707147,5.3168235,2600.00024414062
          -73.7067581,5.3174532,2600.00024414062
          -73.7063316,5.318143,2598.07269006248
          -73.7060561,5.3186461,2597.93939080132
          -73.7058481,5.3190242,2598.39560732016
          -73.7056402,5.3194783,2598.15170900985
          -73.7053132,5.3200769,2596.52286581218
          -73.704958,5.3207665,2595.48281376604
          -73.7046618,5.321315,2594.92728395467
          -73.7044175,5.3217974,2595.62172668418
          -73.7041749,5.322302,2594.8036404208
          -73.7041256,5.322958,2595.15916100651
          -73.7040941,5.3236304,2595.74741010922
          -73.7038295,5.3241804,2596.45925997891
          -73.7033638,5.3245606,2597.21188773255
          -73.7030153,5.3250365,2598.14611849348
          -73.7025318,5.325525,2597.32777668495
          -73.7019546,5.3260171,2596.9443687242
          -73.7014405,5.3264801,2598.44370108737
          -73.7009301,5.3268573,2599.57671306586
          -73.7004633,5.3274089,2596.0247798755
          -73.7000747,5.3278388,2594.10858510591
          -73.6998524,5.3280739,2594.31207224763
          -73.6996638,5.328331,2593.9298084671
          -73.6997051,5.3286438,2593.65887616654
          -73.700065,5.3290666,2593.53567083792
          -73.7004181,5.3296532,2594.53819826469
          -73.7008719,5.3301974,2594.72186887797
          -73.7011324,5.330798,2594.65066151201
          -73.701012,5.3314918,2594.93637149718
          -73.7011352,5.3322291,2594.26767421485
          -73.701212,5.3330193,2593.26977729289
          -73.7014987,5.3337231,2595.26957588194
          -73.7019139,5.33446,2595.37716369659
          -73.7023936,5.3352284,2595.71254354517
          -73.7029104,5.3359194,2596.11616215967
          -73.703167,5.3363013,2595.87387453497
          -73.7034236,5.3365895,2595.95699490087
          -73.7037897,5.3370849,2595.23465266021
          -73.7042079,5.3376792,2592.94715693355
          -73.704702,5.3382759,2591.88058266373
          -73.7051752,5.3389497,2591.64122027726
          -73.7055522,5.3397492,2590.78593417044
          -73.7058889,5.3406109,2589.85449314387
          -73.7062764,5.3414019,2589.63992723404
          -73.7065963,5.3418683,2591.92527445939
          -73.706851,5.3421588,2592.41774930694
          -73.7069632,5.34247,2592.60838404468
          -73.7069809,5.342797,2591.78441288797
          -73.7070122,5.3432058,2590.73537183784
          -73.7071264,5.3436467,2589.84176647729
          -73.7072986,5.3440738,2589.35673211042
          -73.7075028,5.3445184,2588.93004782219
          -73.7076535,5.3449698,2589.39893139524
          -73.7075762,5.345334,2589.26086105557
          -73.7073374,5.3456028,2589.1436528499
          -73.707093,5.3458562,2589.05795029528
          -73.7068984,5.3462094,2588.7792665394
          -73.7067931,5.346674,2588.66457559052
          -73.7066406,5.3470948,2588.63538739622
          -73.7064684,5.3475569,2588.4818934535
          -73.7062867,5.3480468,2587.56140508489
          -73.7060981,5.3485081,2587.28855161627
          -73.7058766,5.3490161,2586.85827130331
          -73.7056946,5.3494893,2585.94692716748
          -73.7056137,5.3499289,2585.62044007715
          -73.7056345,5.3504223,2585.65201284083
          -73.7055727,5.3509318,2584.42195412736
          -73.7054428,5.3514264,2583.98906556809
          -73.7053303,5.3518944,2583.31083643139
          -73.7052657,5.3522662,2583.35707680881
          -73.7051674,5.3525153,2583.89373705803
          -73.7050381,5.3528077,2583.96148956594
          -73.7048702,5.3531295,2583.34487612773
          -73.704624,5.3534302,2583.07793000071
          -73.7044221,5.3537277,2583.01385671431
          -73.7043997,5.3541216,2582.88358881174
          -73.7044039,5.3545413,2583.02668280694
          -73.7044234,5.3549983,2583.17466305145
          -73.7045186,5.3553459,2584.30187762116
          -73.7044252,5.3557886,2582.99594390965
          -73.7044712,5.3562654,2581.80381015546
          -73.7044893,5.3567124,2581.5448720849
          -73.704497,5.3572393,2581.94841426404
          -73.7045469,5.3577337,2581.90773807385
          -73.704609,5.3582185,2582.42673527046
          -73.7045826,5.3586732,2582.59340241482
          -73.704569,5.3591801,2582.56044605389
          -73.7046048,5.3596923,2583.73416744271
          -73.7046771,5.3602987,2585.82018555478
          -73.7048336,5.3609504,2587.50071738932
          -73.705033,5.3615959,2588.80150495509
          -73.705468,5.3622002,2587.88021821157
          -73.7060311,5.3625668,2587.74230103733
          -73.7066324,5.3629099,2587.44205683155
          -73.7066737,5.3634019,2588.05351012129
          -73.7064414,5.363902,2590.35972139069
          -73.706187,5.3644247,2593.32899864353
          -73.7059984,5.3649124,2598.8078552713
          -73.7059418,5.3654418,2603.2161128246
          -73.706051,5.3660138,2607.33413126399
          -73.7061694,5.3665159,2611.84047429864
          -73.7059312,5.3668825,2618.22271025639
          -73.7055447,5.3671544,2622.43085715341
          -73.7051204,5.3674629,2627.18970256167
          -73.7046918,5.3679282,2629.97928407644
          -73.7042702,5.3684075,2634.39673651679
          -73.7038387,5.3688301,2641.71415626372
          -73.7033342,5.3690837,2649.02864400077
          -73.702883,5.3693521,2656.05502066875
          -73.7024581,5.3697465,2661.54703039286
          -73.7020689,5.3700685,2665.60737743749
          -73.7018244,5.3704904,2669.561551669
          -73.7021382,5.3709087,2671.73573355843
          -73.7027268,5.3709769,2674.43411268709
          -73.7030212,5.3712828,2678.67086611364
          -73.7028917,5.3716641,2685.23802677224
          -73.7026378,5.3718112,2691.7723234565
          -73.7023369,5.3718547,2696.20478086464
          -73.702033,5.371995,2701.90402552166
          -73.7017337,5.3722632,2705.63814608634
          -73.701384,5.3726518,2709.64129610365
          -73.700935,5.3729096,2715.64433667313
          -73.7004839,5.373099,2723.51804624507
          -73.7000764,5.3734346,2731.423428997
          -73.6996759,5.373784,2735.00649627065
          -73.699335,5.3740093,2741.36994575594
          -73.6990393,5.374225,2745.22524234098
          -73.6986368,5.3745197,2746.22715820678
          -73.6981136,5.374801,2747.61479100394
          -73.6975958,5.3751098,2744.69108009276
          -73.6970901,5.3755514,2738.60776347633
          -73.6965274,5.3760488,2731.51073664131
          -73.6958858,5.3765444,2725.65689189088
          -73.6952599,5.377028,2723.57250518175
          -73.6946281,5.377451,2720.08543295467
          -73.6938852,5.377694,2714.88161330968
          -73.6931908,5.3781495,2712.65529231089
          -73.6924538,5.3784995,2710.81151115234
          -73.6917728,5.3786671,2710.44391765206
          -73.691359,5.3789924,2711.86261330786
          -73.691005,5.3795617,2711.71090300675
          -73.6906796,5.3800072,2709.88533329653
          -73.6904688,5.3802687,2709.10111138622
          -73.6901068,5.3807094,2707.45951116213
          -73.6899312,5.380925,2707.5442002778
          -73.6896454,5.3812648,2706.97919366853
          -73.6893434,5.381625,2705.65366261252
          -73.6891915,5.3818062,2705.72710511758
          -73.6889339,5.3820691,2705.49154034192
          -73.6886984,5.3823301,2705.21925364863
          -73.6884847,5.3825636,2705.19429902967
          -73.6882912,5.3828116,2705.30693940732
          -73.6880497,5.383091,2704.9311412547
          -73.6878696,5.3832839,2705.1739692018
          -73.6876139,5.3835704,2704.99969828931
          -73.6874426,5.3837672,2705.02549119079
          -73.6872085,5.3840413,2704.86258080759
          -73.68696,5.3843165,2704.9697361244
          -73.686775,5.3845914,2705.4534823048
          -73.6865789,5.3848708,2705.77892220827
          -73.6864298,5.3849958,2705.49288214773
          -73.6862712,5.3849131,2705.55663957297
          -73.6861359,5.384795,2706.21771946919
          -73.6859765,5.3846738,2706.74612547638
          -73.6859405,5.3846499,2707.7704322092
          -73.68594,5.3846475,2707.83259200537
          -73.6859442,5.3846523,2707.87314212612
        </coordinates>
      </LineString>
    </Placemark>
  </Document>
</kml>
