<?xml version="1.0" encoding="UTF-8"?>
<kml xmlns="http://www.opengis.net/kml/2.2">
  <Document>
    <name>Guacheta - Raquira.gpx</name>
    <Style id="icon-123-normal">
      <IconStyle>
        <scale>1.1</scale>
        <Icon>
          <href>https://www.gstatic.com/mapspro/images/stock/123-red-dot.png</href>
        </Icon>
        <hotSpot x="16" xunits="pixels" y="32" yunits="insetPixels"/>
      </IconStyle>
      <LabelStyle>
        <scale>0</scale>
      </LabelStyle>
    </Style>
    <Style id="icon-123-highlight">
      <IconStyle>
        <scale>1.1</scale>
        <Icon>
          <href>https://www.gstatic.com/mapspro/images/stock/123-red-dot.png</href>
        </Icon>
        <hotSpot x="16" xunits="pixels" y="32" yunits="insetPixels"/>
      </IconStyle>
      <LabelStyle>
        <scale>1.1</scale>
      </LabelStyle>
    </Style>
    <StyleMap id="icon-123">
      <Pair>
        <key>normal</key>
        <styleUrl>#icon-123-normal</styleUrl>
      </Pair>
      <Pair>
        <key>highlight</key>
        <styleUrl>#icon-123-highlight</styleUrl>
      </Pair>
    </StyleMap>
    <Style id="icon-1899-7CB342-nodesc-normal">
      <IconStyle>
        <color>ff42b37c</color>
        <scale>1</scale>
        <Icon>
          <href>https://www.gstatic.com/mapspro/images/stock/503-wht-blank_maps.png</href>
        </Icon>
        <hotSpot x="32" xunits="pixels" y="64" yunits="insetPixels"/>
      </IconStyle>
      <LabelStyle>
        <scale>0</scale>
      </LabelStyle>
      <BalloonStyle>
        <text><![CDATA[<h3>$[name]</h3>]]></text>
      </BalloonStyle>
    </Style>
    <Style id="icon-1899-7CB342-nodesc-highlight">
      <IconStyle>
        <color>ff42b37c</color>
        <scale>1</scale>
        <Icon>
          <href>https://www.gstatic.com/mapspro/images/stock/503-wht-blank_maps.png</href>
        </Icon>
        <hotSpot x="32" xunits="pixels" y="64" yunits="insetPixels"/>
      </IconStyle>
      <LabelStyle>
        <scale>1</scale>
      </LabelStyle>
      <BalloonStyle>
        <text><![CDATA[<h3>$[name]</h3>]]></text>
      </BalloonStyle>
    </Style>
    <StyleMap id="icon-1899-7CB342-nodesc">
      <Pair>
        <key>normal</key>
        <styleUrl>#icon-1899-7CB342-nodesc-normal</styleUrl>
      </Pair>
      <Pair>
        <key>highlight</key>
        <styleUrl>#icon-1899-7CB342-nodesc-highlight</styleUrl>
      </Pair>
    </StyleMap>
    <Style id="icon-61-normal">
      <IconStyle>
        <scale>1.1</scale>
        <Icon>
          <href>https://www.gstatic.com/mapspro/images/stock/61-green-dot.png</href>
        </Icon>
        <hotSpot x="16" xunits="pixels" y="32" yunits="insetPixels"/>
      </IconStyle>
      <LabelStyle>
        <scale>0</scale>
      </LabelStyle>
    </Style>
    <Style id="icon-61-highlight">
      <IconStyle>
        <scale>1.1</scale>
        <Icon>
          <href>https://www.gstatic.com/mapspro/images/stock/61-green-dot.png</href>
        </Icon>
        <hotSpot x="16" xunits="pixels" y="32" yunits="insetPixels"/>
      </IconStyle>
      <LabelStyle>
        <scale>1.1</scale>
      </LabelStyle>
    </Style>
    <StyleMap id="icon-61">
      <Pair>
        <key>normal</key>
        <styleUrl>#icon-61-normal</styleUrl>
      </Pair>
      <Pair>
        <key>highlight</key>
        <styleUrl>#icon-61-highlight</styleUrl>
      </Pair>
    </StyleMap>
    <Style id="line-E65100-5000-normal">
      <LineStyle>
        <color>ff0051e6</color>
        <width>5</width>
      </LineStyle>
    </Style>
    <Style id="line-E65100-5000-highlight">
      <LineStyle>
        <color>ff0051e6</color>
        <width>7.5</width>
      </LineStyle>
    </Style>
    <StyleMap id="line-E65100-5000">
      <Pair>
        <key>normal</key>
        <styleUrl>#line-E65100-5000-normal</styleUrl>
      </Pair>
      <Pair>
        <key>highlight</key>
        <styleUrl>#line-E65100-5000-highlight</styleUrl>
      </Pair>
    </StyleMap>
    <Placemark>
      <name>Start of Track 1</name>
      <description><![CDATA[Friday, June 26, 2026, 10:12 PM GMT-05:00<br>Elevation: 8883 feet]]></description>
      <styleUrl>#icon-61</styleUrl>
      <Point>
        <coordinates>
          -73.6859455,5.3846525,2707.67666401176
        </coordinates>
      </Point>
    </Placemark>
    <Placemark>
      <name>End of Track 1</name>
      <description><![CDATA[Friday, June 26, 2026, 11:36 PM GMT-05:00<br>Elevation: 7113 feet]]></description>
      <styleUrl>#icon-123</styleUrl>
      <Point>
        <coordinates>
          -73.6326945,5.5416005,2167.90014648438
        </coordinates>
      </Point>
    </Placemark>
    <Placemark>
      <name>Track 1</name>
      <description><![CDATA[Statistics computed from imported data<br><br>Friday, June 26, 2026, 10:12 PM GMT-05:00<br>Distance: 18.5 miles<br>Duration: 1 hours, 24 minutes, and 17 seconds<br>Average Speed: 13.2 mph<br>Minimum Elevation: 7112 feet<br>Maximum Elevation: 9987 feet<br>Total climb: 1660 feet<br>Total descent: 3431 feet]]></description>
      <styleUrl>#line-E65100-5000</styleUrl>
      <LineString>
        <tessellate>1</tessellate>
        <coordinates>
          -73.6859455,5.3846525,2707.67666401176
          -73.6859445,5.3846531,2707.8171909887
          -73.6859454,5.3846524,2707.53831039198
          -73.6859453,5.3846525,2707.56531023116
          -73.6859452,5.3846524,2707.42223581991
          -73.6859406,5.3846501,2704.7001953125
          -73.685846,5.3845097,2707.12497881536
          -73.6858864,5.3843323,2707.75648385808
          -73.6860905,5.3841121,2704.7001953125
          -73.6862777,5.3839049,2705.60009765625
          -73.686417,5.3838278,2705.60009765625
          -73.686521,5.3839245,2705.60009765625
          -73.6867476,5.3841211,2704.7001953125
          -73.6869131,5.3842817,2702.94739564343
          -73.686951,5.3843114,2702.80004882812
          -73.6870929,5.3844135,2702.7001953125
          -73.687287,5.3845744,2702.7001953125
          -73.687533,5.3847773,2701.00024414062
          -73.6876814,5.3848966,2699.90014648438
          -73.6878645,5.3850512,2699.90014648438
          -73.6878926,5.3851658,2699.60009765625
          -73.6878029,5.385267,2699.40014648438
          -73.6877949,5.3852619,2699.40014648438
          -73.6878019,5.3852655,2699.50024414062
          -73.6878029,5.3852659,2699.2001953125
          -73.6877757,5.3853054,2699.60009765625
          -73.687623,5.3855634,2699.60009765625
          -73.6874372,5.3858099,2699.60009765625
          -73.6872735,5.3860548,2698.80004882812
          -73.6870327,5.386386,2698.80004882812
          -73.6868895,5.3865861,2698.10009765625
          -73.6867149,5.3868084,2698.10009765625
          -73.6865663,5.3870392,2698.10009765625
          -73.6864788,5.3871911,2698.10009765625
          -73.6865654,5.3873319,2698.10009765625
          -73.6865716,5.3875318,2698.10009765625
          -73.6865827,5.3877265,2694.7001953125
          -73.6865811,5.3879064,2694.7001953125
          -73.6865844,5.3880788,2694.7001953125
          -73.6865798,5.3882585,2694.60009765625
          -73.6865692,5.3885096,2694.60009765625
          -73.6865884,5.3888336,2692.76289563256
          -73.6865708,5.3892398,2692.73390230127
          -73.6865312,5.3895531,2691.96191753859
          -73.6864483,5.3899063,2691.43524042771
          -73.6862969,5.3903142,2690.65987333737
          -73.6861643,5.3907496,2690.16860021072
          -73.6860098,5.3912366,2689.91746360713
          -73.6858297,5.3917156,2689.26010884727
          -73.6857407,5.3919979,2689.38349837343
          -73.6856031,5.3924487,2689.2244644423
          -73.6854715,5.3929046,2689.09477844653
          -73.6853003,5.3934334,2689.28771360064
          -73.6850845,5.3940452,2688.11404058103
          -73.6848876,5.3946257,2687.94530990341
          -73.6846825,5.3951376,2688.04038611692
          -73.6844382,5.3957877,2686.75728222695
          -73.6842332,5.3964605,2686.0133926206
          -73.6840305,5.3971395,2685.00026229117
          -73.6838218,5.3977324,2684.12355350054
          -73.6836135,5.3983285,2682.35768398672
          -73.683387,5.3989875,2681.38588205286
          -73.6831439,5.3996534,2681.4976738255
          -73.6829012,5.4003486,2680.62905384499
          -73.6826444,5.4010922,2679.91113833918
          -73.6824262,5.4017029,2679.30917899623
          -73.6821208,5.4024151,2678.48193083186
          -73.6818264,5.4030085,2679.15802550611
          -73.6815833,5.4035614,2679.03457093779
          -73.6813908,5.4040092,2679.194216846
          -73.6812593,5.4045035,2678.26211909142
          -73.6811784,5.4050497,2676.80222980645
          -73.6811295,5.4056063,2676.96496544295
          -73.6810346,5.4060822,2677.59970419862
          -73.6810234,5.4065333,2683.64630632717
          -73.6811597,5.40713,2685.37108439786
          -73.6813609,5.4077419,2682.29782343899
          -73.6812279,5.4083238,2679.73662416194
          -73.6808901,5.4088506,2683.41314813654
          -73.6808127,5.4093719,2685.62889116621
          -73.6810372,5.4100253,2683.23582851378
          -73.6811764,5.4106153,2677.21985064937
          -73.6812496,5.4110017,2676.58161730837
          -73.6813139,5.4113635,2676.98578988619
          -73.6813602,5.4118105,2677.34856013012
          -73.6815162,5.4122929,2679.7604822513
          -73.6817205,5.4127011,2683.67862463037
          -73.6819029,5.4128947,2690.08984328886
          -73.6817546,5.4131377,2696.52148839928
          -73.6815076,5.4132765,2701.31505384906
          -73.6813599,5.4136166,2705.6800720847
          -73.6812039,5.4139916,2710.63307458675
          -73.6811702,5.4143898,2715.62887173811
          -73.681093,5.414766,2721.81357842001
          -73.6809709,5.4150492,2725.51024078587
          -73.6807337,5.4153846,2728.44086571642
          -73.6804384,5.4157401,2730.80460415345
          -73.6801447,5.4161087,2733.85590456256
          -73.6798592,5.4164894,2736.16029238641
          -73.679547,5.4168803,2736.48475449506
          -73.6791358,5.417164,2736.42980623203
          -73.6786596,5.4173707,2735.67019097435
          -73.6781727,5.4175355,2736.59443095524
          -73.6776515,5.417655,2736.40804047409
          -73.6771999,5.4178434,2736.11391572376
          -73.6767638,5.4180754,2735.50076944768
          -73.6763776,5.4182621,2734.53451631236
          -73.6759417,5.4184551,2735.01768322015
          -73.6754715,5.418669,2734.66029961138
          -73.6750102,5.418918,2733.45649101282
          -73.6745586,5.4191836,2730.83755515685
          -73.6741593,5.419416,2725.64450729649
          -73.6736956,5.4196496,2722.56122977906
          -73.6732577,5.4197971,2721.63116338635
          -73.6726797,5.4199389,2719.1477476612
          -73.6721708,5.4200336,2718.19224150314
          -73.671618,5.4201028,2715.14130448418
          -73.6710868,5.4201707,2713.58468823279
          -73.6705727,5.4203703,2711.98873755877
          -73.6700964,5.4205811,2711.32518661302
          -73.6695734,5.4207206,2708.76659292176
          -73.6691502,5.4209733,2707.87167839604
          -73.6687908,5.4213485,2709.17922197802
          -73.6684421,5.4217013,2713.13907526078
          -73.6680751,5.4219414,2716.4458923436
          -73.66769,5.4221373,2721.48954489333
          -73.6673056,5.4223031,2723.86533790005
          -73.667003,5.4223936,2724.1329762805
          -73.6666179,5.4225645,2721.85377150996
          -73.666216,5.4228093,2716.40337254932
          -73.6658703,5.4230665,2714.63757083281
          -73.6657156,5.4235364,2713.5882727336
          -73.6655538,5.4240908,2711.81656442745
          -73.6653965,5.4246688,2712.29067985354
          -73.6652934,5.4252486,2713.67120790026
          -73.665195,5.425829,2716.03682076897
          -73.6649611,5.426301,2717.26725882205
          -73.6645478,5.4265805,2717.60965868725
          -73.6640889,5.4267624,2714.86080281254
          -73.6637632,5.4270833,2711.49799967894
          -73.6636283,5.4274857,2710.49146286442
          -73.6633344,5.427723,2708.28797198684
          -73.6629662,5.4278205,2705.24342032335
          -73.6626451,5.4278502,2703.19798914645
          -73.6622931,5.4278288,2700.06582827092
          -73.6620896,5.4280272,2696.87135916022
          -73.6620582,5.4280796,2696.5403766676
          -73.6620577,5.4280789,2696.75595671892
          -73.6620575,5.4280789,2696.66545748143
          -73.6620465,5.4281283,2696.41037404553
          -73.6620146,5.4281643,2696.26888029434
          -73.6620227,5.4281538,2696.34399895763
          -73.6620255,5.4281558,2697.09250911433
          -73.6620283,5.4281561,2696.89197751116
          -73.6620294,5.4281568,2696.58279875016
          -73.6620325,5.42816,2696.450317338
          -73.6620295,5.4281536,2696.38265350225
          -73.6620301,5.428152,2696.61764434504
          -73.6620303,5.4281513,2696.66207451179
          -73.6620308,5.4281507,2696.50643915221
          -73.6620311,5.4281501,2696.38527155651
          -73.6620277,5.42815,2696.27801838694
          -73.6620257,5.4281516,2695.86539417065
          -73.6620254,5.4281529,2696.08838377432
          -73.662037,5.4281408,2695.89285578243
          -73.6620704,5.4280967,2695.53644845597
          -73.6620679,5.4280865,2695.76617306067
          -73.6620659,5.4280848,2695.7859676175
          -73.6620656,5.4280838,2695.60240493391
          -73.6620648,5.4280837,2695.51958325285
          -73.6620646,5.4280827,2695.33567687622
          -73.6620645,5.4280822,2695.29482017215
          -73.6620633,5.4280818,2695.72965678616
          -73.6620626,5.4280825,2695.66097245638
          -73.6620618,5.4280825,2695.6156272691
          -73.6620127,5.4282091,2695.49842437431
          -73.662077,5.4284301,2696.76161295288
          -73.6621311,5.4286825,2699.71043222566
          -73.661921,5.4288651,2701.85044162947
          -73.6616351,5.4290623,2704.74021070981
          -73.6617027,5.4292919,2706.45208043284
          -73.6620253,5.4291588,2708.20330147876
          -73.6623077,5.4292485,2711.67173492255
          -73.6622888,5.4295915,2715.26586720695
          -73.6621801,5.4299704,2717.07731885579
          -73.6623267,5.4302244,2718.85154389157
          -73.6626019,5.4303915,2720.07708450651
          -73.6628639,5.4306888,2722.71070280858
          -73.6633044,5.4306959,2724.44243013026
          -73.6637501,5.4306782,2727.02446528711
          -73.6641404,5.4309092,2729.86104506213
          -73.6641113,5.4311518,2736.69671646859
          -73.6638547,5.4313252,2738.53410260008
          -73.6637095,5.431605,2742.61742104333
          -73.6638733,5.4319811,2745.43895084267
          -73.6641254,5.4322846,2748.53145682418
          -73.6642851,5.4325775,2752.98414721056
          -73.6642586,5.4328942,2757.31660477688
          -73.6645111,5.4330618,2761.08734625211
          -73.6645454,5.4331268,2763.20831057457
          -73.6645432,5.4331247,2763.76991372136
          -73.6645417,5.4331269,2763.96790756611
          -73.6645175,5.4332395,2763.74731348864
          -73.6642099,5.4333762,2765.38638873946
          -73.6639018,5.4333308,2767.90947778592
          -73.66372,5.4335749,2772.56192107485
          -73.6637023,5.4339132,2776.56978513754
          -73.6639265,5.4342532,2778.27898164274
          -73.6639163,5.434614,2780.89752008642
          -73.6636125,5.434787,2784.55383354494
          -73.6633426,5.4347324,2787.96602235346
          -73.6632064,5.4345085,2790.46807938506
          -73.6629745,5.4343894,2792.73514826064
          -73.6628268,5.4346787,2796.57569203803
          -73.6627747,5.4350252,2799.67039704658
          -73.6628896,5.4353315,2802.84660402471
          -73.6628153,5.4356876,2806.2562278427
          -73.6627469,5.4359681,2810.4820765567
          -73.6626665,5.436242,2816.25766733358
          -73.6625322,5.4365321,2819.24469051339
          -73.6624105,5.4368739,2822.51247838937
          -73.6621764,5.437127,2826.86084244473
          -73.6619217,5.4373909,2831.02459530143
          -73.6616261,5.4376751,2834.5948408076
          -73.6613421,5.4379392,2838.23311700867
          -73.6612873,5.4382843,2842.74580216026
          -73.6615728,5.4386046,2845.77728871667
          -73.6618311,5.4388986,2848.78978976323
          -73.6617545,5.4391846,2851.70165362607
          -73.6614249,5.4391425,2855.86912458292
          -73.6610205,5.438939,2856.94311646202
          -73.6607139,5.4390887,2858.74090753495
          -73.660558,5.4394992,2863.57351545956
          -73.6603763,5.439935,2865.73930391457
          -73.6602748,5.4403413,2869.56453564501
          -73.6604511,5.4405734,2873.47159954783
          -73.6607777,5.4404838,2877.07809727872
          -73.6611133,5.4402278,2879.81146096253
          -73.6614467,5.4401604,2881.19824729287
          -73.6616496,5.4403925,2883.72549866249
          -73.6615154,5.4406664,2887.04271181991
          -73.6613542,5.4409865,2889.02829320157
          -73.6611722,5.4412519,2891.78007685525
          -73.6609057,5.4415706,2895.86602629558
          -73.6606145,5.4418636,2897.86516600765
          -73.6604829,5.4421685,2901.92784121682
          -73.6607293,5.4424511,2905.08547062849
          -73.6610181,5.4427291,2908.25130849042
          -73.6609692,5.4430755,2912.45976826408
          -73.6607435,5.4433484,2914.75102533316
          -73.6605274,5.4436098,2917.72370652387
          -73.660446,5.4440257,2920.61246018003
          -73.6603725,5.4444297,2922.17134571367
          -73.6601747,5.444672,2924.6481453272
          -73.6598712,5.444489,2926.85523072325
          -73.6599131,5.4441564,2929.83053514364
          -73.6601038,5.4437465,2932.03632206693
          -73.6602746,5.4433547,2934.29791364768
          -73.660224,5.4429841,2936.99923099257
          -73.6599846,5.4426551,2939.86366901566
          -73.6596867,5.4424046,2944.36892339223
          -73.6593607,5.4425871,2948.54099541545
          -73.6591743,5.4429782,2952.09744301835
          -73.6589373,5.4433395,2955.22110626406
          -73.6585563,5.4434311,2958.52958001183
          -73.6581608,5.4436115,2961.66433054849
          -73.6577436,5.4438992,2964.35625492235
          -73.6573168,5.4442045,2964.53927581962
          -73.656896,5.4444668,2964.30706282157
          -73.6564727,5.4447581,2966.23911026033
          -73.6560784,5.4450606,2967.58027333305
          -73.655755,5.4454413,2967.73650343358
          -73.6554225,5.4457978,2969.83555959536
          -73.6551577,5.4461002,2976.69453422345
          -73.6549108,5.446409,2980.57325105608
          -73.6546338,5.4467649,2983.52101417048
          -73.6543121,5.4471502,2985.05778922108
          -73.6539826,5.4475491,2987.9244174705
          -73.6536838,5.4479511,2988.97749643291
          -73.6533956,5.4483976,2991.43050306466
          -73.653096,5.4488786,2994.19089254306
          -73.6527947,5.4493591,2993.51175011102
          -73.6525125,5.4498305,2992.50765197804
          -73.652231,5.450316,2988.98240775804
          -73.6519291,5.4507971,2988.27703681783
          -73.6516411,5.4512806,2988.87368365281
          -73.6513239,5.4517313,2991.10696079974
          -73.6509114,5.4520794,2992.94415936758
          -73.6505431,5.4523178,2996.17468098482
          -73.6501684,5.4525843,3001.8662876246
          -73.6497918,5.4528451,3007.55171830663
          -73.6494162,5.4531588,3009.26614970701
          -73.6490602,5.4534869,3010.43266620235
          -73.6486497,5.4538649,3009.43574983338
          -73.6482581,5.45425,3009.41332709563
          -73.6478177,5.4546481,3010.29008665244
          -73.6473728,5.4550498,3009.78646809124
          -73.6470005,5.4554135,3008.68406512728
          -73.6465571,5.4558192,3006.98994990405
          -73.6460735,5.4562348,3007.46135001859
          -73.6456907,5.4566029,3009.58738702692
          -73.6452363,5.4570179,3011.58184003421
          -73.6448105,5.4574006,3010.33825166956
          -73.644365,5.4577997,3007.16813034033
          -73.6439496,5.4582171,3007.83639874967
          -73.6435904,5.4585296,3014.38377510963
          -73.6432518,5.4588417,3019.11960036051
          -73.6428737,5.4591898,3022.45275349436
          -73.6424759,5.4595355,3023.1689453125
          -73.6421045,5.4599142,3024.9534838988
          -73.64179,5.4603574,3027.28353676144
          -73.6414717,5.460812,3026.52674033669
          -73.6411144,5.4612957,3025.72763041018
          -73.6408527,5.4617239,3028.6683414396
          -73.6408351,5.4621798,3031.24419267456
          -73.6408059,5.4626854,3029.59104260286
          -73.6407793,5.4631907,3029.28819642621
          -73.6407286,5.4636381,3029.77248000848
          -73.6404922,5.4638907,3034.45927351332
          -73.6401571,5.4641764,3038.6117039755
          -73.6398208,5.4644144,3040.42195484799
          -73.6395986,5.4647849,3044.54720812845
          -73.6393569,5.4651956,3044.49814618582
          -73.6390662,5.465681,3043.61257735611
          -73.6389393,5.4659819,3043.5486426763
          -73.638996,5.4660487,3043.91946033842
          -73.6389959,5.4660466,3043.31367474681
          -73.6389946,5.466046,3043.25548060841
          -73.6390445,5.4660898,3043.29041348421
          -73.63907,5.4661513,3042.9378473276
          -73.6390692,5.4661524,3043.21571963279
          -73.6390672,5.4661477,3042.52233722518
          -73.6390559,5.4661381,3042.72126097018
          -73.6390536,5.4661061,3042.70239570079
          -73.6389054,5.466028,3042.40310794101
          -73.6387509,5.4662233,3042.4549045563
          -73.6385997,5.4664653,3041.55074932546
          -73.6384166,5.4667842,3039.26350962671
          -73.6382046,5.4671478,3034.39692017959
          -73.6379911,5.4675059,3031.20093325947
          -73.637773,5.4678855,3029.15049898661
          -73.6375421,5.4682791,3025.42109390069
          -73.6373265,5.4686429,3024.15550880719
          -73.6371059,5.4690307,3023.04446597866
          -73.6368705,5.4694207,3020.21771216076
          -73.6366407,5.4697656,3016.96835752803
          -73.6364436,5.4700876,3015.99396861691
          -73.6362592,5.4704251,3015.03982113822
          -73.6360936,5.4707122,3010.96985707596
          -73.635871,5.4710682,3005.99231315976
          -73.6355571,5.4712616,3000.56475020443
          -73.6352412,5.4711743,2996.57512961556
          -73.6348562,5.4710386,2992.25860485988
          -73.6344449,5.4708918,2987.22393125909
          -73.6341822,5.4708433,2985.94771742101
          -73.633999,5.4708759,2986.60623054938
          -73.6337288,5.4710239,2985.4192771563
          -73.6334303,5.4711712,2980.9999936964
          -73.6331492,5.4712929,2977.21440841941
          -73.6328736,5.4714687,2974.06813424477
          -73.6327991,5.4717423,2970.64742844554
          -73.632782,5.4720591,2968.35543703433
          -73.6325816,5.4724052,2963.83722446633
          -73.6323276,5.472728,2959.14121824762
          -73.6319988,5.4731322,2955.06558947299
          -73.6317145,5.4735342,2953.26622114633
          -73.6314778,5.4738631,2953.37065456734
          -73.6311873,5.4742637,2953.25262399757
          -73.6308934,5.4746858,2950.16418231087
          -73.6305769,5.475105,2948.61784507369
          -73.6303035,5.4754622,2947.71077501772
          -73.6300568,5.4758026,2944.15297135854
          -73.629793,5.476132,2941.11837047183
          -73.6294996,5.4765389,2938.25497963482
          -73.6291571,5.4768693,2937.7029580081
          -73.6287747,5.4771747,2934.83984946462
          -73.6284239,5.4774504,2931.44166730418
          -73.6280892,5.4777012,2927.64834445491
          -73.6278842,5.4778898,2923.05637993501
          -73.6278031,5.4783131,2920.421756648
          -73.6277766,5.4787985,2914.39347071802
          -73.6277665,5.4793376,2914.28002729173
          -73.6277394,5.4799018,2915.37922444668
          -73.6276154,5.4804444,2914.33462186567
          -73.6273957,5.4809523,2913.86437067407
          -73.6271902,5.4813777,2912.13434242115
          -73.6269799,5.4818575,2912.00603882933
          -73.6267778,5.4823226,2914.7018875446
          -73.6265683,5.4827655,2915.71391346424
          -73.626391,5.4831464,2915.70860003685
          -73.6262555,5.4835453,2914.28984033146
          -73.626308,5.4840206,2911.83494170254
          -73.6264326,5.4845465,2907.78729519026
          -73.6264944,5.4850089,2905.90375095482
          -73.6264143,5.4854614,2905.07999596412
          -73.6263095,5.4858726,2904.55288884464
          -73.6262491,5.4863642,2903.41899524722
          -73.6262786,5.4868319,2902.66041439219
          -73.6263248,5.487141,2903.62667667919
          -73.6263384,5.4874424,2904.76413548638
          -73.6263602,5.4878891,2905.4685791776
          -73.6262375,5.4883555,2905.92537151192
          -73.6260755,5.4888112,2905.24902937768
          -73.6259185,5.4892432,2904.99067769849
          -73.6257504,5.4896298,2903.12848326775
          -73.6255433,5.48992,2902.77974047971
          -73.6252618,5.4902316,2902.20233165727
          -73.6249617,5.4905787,2901.08283643517
          -73.6247057,5.4908488,2900.26492225861
          -73.624471,5.4911402,2898.47252591282
          -73.6243996,5.491497,2896.57796812081
          -73.6243674,5.4918852,2893.57373442258
          -73.6242852,5.492268,2891.01035852889
          -73.6241617,5.4926311,2887.23514700143
          -73.6239624,5.4929291,2884.45292722809
          -73.6236778,5.4931022,2880.28312544798
          -73.6233783,5.493234,2878.48020848147
          -73.6230849,5.4931778,2875.17207734701
          -73.6228754,5.4928806,2873.0999355651
          -73.6225548,5.4926006,2870.16925478224
          -73.6221479,5.49237,2868.67371440169
          -73.6218855,5.4921276,2867.91478094848
          -73.6218622,5.4917822,2865.39432006922
          -73.6218301,5.4914799,2863.92760110592
          -73.6216044,5.4913594,2861.98589413614
          -73.62155,5.4915847,2859.23368864883
          -73.621631,5.4919664,2854.38773753255
          -73.6214976,5.49226,2848.67361588679
          -73.6213533,5.4925715,2846.75357139708
          -73.621367,5.4929394,2844.07107769817
          -73.6215427,5.4932899,2839.2754697645
          -73.6217354,5.4936472,2834.18531862983
          -73.6218216,5.4940239,2831.35094415671
          -73.6217255,5.4944479,2826.68603467011
          -73.6216366,5.4948411,2823.90775976909
          -73.6215759,5.4952603,2820.02668838861
          -73.6216232,5.4955429,2816.7252752178
          -73.6217188,5.4958117,2814.12508730976
          -73.6216018,5.4960393,2811.06772458091
          -73.621319,5.4962343,2808.26003699465
          -73.6210214,5.4964725,2806.37219068042
          -73.6207581,5.4966912,2800.99049912303
          -73.6205455,5.4967602,2797.34117097401
          -73.6204285,5.4966814,2794.57101061965
          -73.6204843,5.4964501,2793.15037882722
          -73.6205942,5.4962066,2790.61154181861
          -73.6204173,5.4960269,2787.46709675485
          -73.6199977,5.4960067,2784.09293407669
          -73.6196586,5.4960279,2783.21861327674
          -73.6194472,5.4962514,2780.12267550817
          -73.6192802,5.4965927,2775.61128620533
          -73.6193214,5.4968958,2769.88797352217
          -73.6195921,5.4970933,2768.11895142886
          -73.6199005,5.4972811,2764.2185456172
          -73.6201318,5.4975415,2759.95359716373
          -73.6201473,5.4978721,2755.83474840248
          -73.6201657,5.4981902,2752.84028116328
          -73.6201624,5.4985296,2748.81558823058
          -73.6200118,5.498835,2745.42740806136
          -73.6198938,5.4990977,2743.09253722008
          -73.6197985,5.4992969,2741.09314650901
          -73.6196134,5.4993385,2737.79783511991
          -73.6195386,5.4993497,2736.49108081371
          -73.6194621,5.4993235,2735.76186896567
          -73.6193214,5.4992717,2734.33303674673
          -73.6191373,5.4991918,2732.98498558696
          -73.6191039,5.4989198,2731.20505296982
          -73.6189365,5.4986961,2728.78264643017
          -73.6185922,5.4985705,2724.73675069979
          -73.6183155,5.4984738,2721.42027559875
          -73.6181244,5.4986602,2719.49994591057
          -73.618137,5.4988201,2715.58085043732
          -73.618134,5.4988508,2714.54981085534
          -73.618125,5.4988309,2714.65790159039
          -73.6181223,5.498827,2714.65785046639
          -73.6181213,5.4988262,2714.98239161622
          -73.6181219,5.4988273,2715.10469552168
          -73.6181277,5.4988332,2714.57815163521
          -73.6181389,5.4988406,2714.48502354531
          -73.6181445,5.498843,2714.52981482229
          -73.6181512,5.4988429,2714.60519997403
          -73.6181501,5.4988425,2714.76320664238
          -73.6182202,5.4989341,2714.190683446
          -73.6184304,5.4990133,2713.28725829177
          -73.6186521,5.4990959,2711.51603239519
          -73.6187005,5.4993515,2709.29104901878
          -73.6187795,5.4996372,2707.34359340426
          -73.6186728,5.4998835,2704.73167740255
          -73.6184432,5.5000412,2701.5882816482
          -73.6183239,5.5002885,2698.54018750309
          -73.6185289,5.5005074,2697.23588302685
          -73.6188201,5.5006334,2693.97388811873
          -73.6188746,5.5009384,2691.00589090139
          -73.6187852,5.5012206,2689.48056323682
          -73.6189456,5.5015391,2688.85958859811
          -73.6191775,5.5017371,2684.20099330508
          -73.619543,5.5018825,2680.36353655001
          -73.6198882,5.5020881,2675.18335096271
          -73.6202289,5.5023037,2670.65746529835
          -73.6205116,5.5025878,2664.89112350339
          -73.6207451,5.5028853,2661.65738923383
          -73.6210508,5.5031251,2657.38883462815
          -73.6213175,5.5033244,2654.49523042714
          -73.6215782,5.503587,2651.36006251183
          -73.6217451,5.5039786,2646.92076527784
          -73.6218137,5.5043011,2641.27725230871
          -73.6216644,5.5046147,2637.07913702621
          -73.6215002,5.5048985,2634.2283459428
          -73.6214637,5.5051252,2631.9720379041
          -73.6213596,5.5052854,2630.29406543568
          -73.6211844,5.5055035,2625.98836937571
          -73.6210441,5.5056951,2623.33834213661
          -73.62082,5.5058965,2617.90001251371
          -73.6207594,5.5063902,2613.45029459826
          -73.6207213,5.5068417,2609.27477832189
          -73.6205368,5.5069438,2604.00301533451
          -73.6202516,5.5070036,2597.74216965876
          -73.6200634,5.5073589,2593.03803101931
          -73.6197413,5.5076779,2591.3710362704
          -73.619489,5.507931,2591.59695501536
          -73.6193022,5.5083358,2586.13305023558
          -73.6194197,5.5085952,2584.77456825906
          -73.6193483,5.5088591,2580.62294359743
          -73.6194741,5.5092576,2572.81172658633
          -73.6195542,5.5095966,2568.88425615299
          -73.6196288,5.5099394,2563.57345809626
          -73.6195522,5.5102648,2558.19923999747
          -73.6194101,5.5105911,2555.7858430426
          -73.6192496,5.5109145,2554.80499646494
          -73.6189451,5.5111489,2550.53283340533
          -73.6186297,5.5113798,2548.10249832972
          -73.6183984,5.5116783,2545.80144688705
          -73.6180774,5.5118131,2542.7694503546
          -73.6178563,5.5118733,2542.81392860845
          -73.6178051,5.5119176,2543.57769769158
          -73.6178035,5.511917,2544.98768366307
          -73.6178026,5.5119159,2545.11813829556
          -73.6178024,5.5119161,2544.69991202393
          -73.6178021,5.5119165,2545.14368800985
          -73.6177596,5.5120212,2544.76980497912
          -73.6177562,5.512239,2543.21051575904
          -73.6177136,5.5124825,2542.96161862735
          -73.6175623,5.5127566,2538.69372488196
          -73.6174129,5.5130344,2534.89528345781
          -73.6174726,5.5133074,2533.01972745703
          -73.6176857,5.5135323,2529.01834481902
          -73.6178707,5.5137532,2525.7473397196
          -73.6178414,5.5140132,2520.45805515382
          -73.6177132,5.5143561,2517.89883772346
          -73.6176519,5.514742,2516.65172267711
          -73.6175889,5.515096,2512.58739528169
          -73.6177589,5.5153136,2507.26464814125
          -73.6180274,5.5155022,2500.91348972848
          -73.6183165,5.5156443,2492.94907297025
          -73.6185042,5.5157649,2489.39310560794
          -73.6184437,5.5161007,2485.78534096299
          -73.6185136,5.5164015,2483.35591066421
          -73.6187475,5.5165707,2480.24592404304
          -73.6187843,5.5169392,2477.0007514522
          -73.6187705,5.5173602,2474.20733648973
          -73.6187715,5.5177697,2471.74602311146
          -73.6189087,5.5181099,2468.18858381518
          -73.6191608,5.5183844,2464.80917205649
          -73.6194075,5.5186912,2464.20434921627
          -73.6195176,5.5190589,2463.22965754701
          -73.619587,5.5194079,2460.42742705903
          -73.6197194,5.5196668,2458.572491034
          -73.6198984,5.5199327,2455.74447502555
          -73.6202505,5.5201398,2453.70033052305
          -73.6204576,5.5202637,2451.88729397413
          -73.6204245,5.5203679,2451.59514768098
          -73.6202485,5.5204948,2451.77799277054
          -73.6200675,5.5203807,2453.30304946369
          -73.6198228,5.5203156,2454.03836596399
          -73.6195095,5.5203188,2452.55779978157
          -73.619265,5.5205078,2452.4969460072
          -73.6190301,5.5207356,2451.78719843767
          -73.61888,5.5209589,2450.57987054881
          -73.6187174,5.5210769,2450.30897286107
          -73.6186708,5.5213316,2447.21993384913
          -73.6186526,5.5215862,2443.45553766708
          -73.6185664,5.5218647,2441.64755472561
          -73.6186227,5.5221538,2438.05775756698
          -73.6187092,5.5223899,2434.3042021461
          -73.6187387,5.5226265,2430.08268937166
          -73.6187129,5.5229303,2423.9379663351
          -73.6186941,5.5231419,2420.76835327859
          -73.61874,5.5234481,2416.94187616064
          -73.6189272,5.5236834,2413.99488555406
          -73.6190771,5.5239457,2411.77209867718
          -73.6192334,5.5241821,2410.39280319931
          -73.6192097,5.5244598,2408.4673659628
          -73.6189801,5.5245964,2403.77401679578
          -73.6187601,5.5245255,2402.02857667806
          -73.6185204,5.5245441,2397.10787258263
          -73.6183515,5.524725,2392.80141777047
          -73.6182826,5.5248717,2390.84114038265
          -73.6182811,5.5248782,2390.2574817136
          -73.6182809,5.5248765,2390.16859829441
          -73.618281,5.5248762,2390.08910560372
          -73.6182831,5.5248664,2390.16878820185
          -73.6182814,5.5248648,2390.68002834847
          -73.6182745,5.5248611,2390.31861735101
          -73.618276,5.524866,2390.5349077143
          -73.6182763,5.5248648,2390.77607552817
          -73.6182832,5.5248634,2390.51581764743
          -73.6182805,5.5248627,2390.54089719365
          -73.6182773,5.5248438,2390.22687026156
          -73.6183163,5.5247794,2390.20906268205
          -73.6183498,5.5247112,2391.2294752573
          -73.6182573,5.5247123,2391.33414073495
          -73.6182469,5.5247118,2391.34508507946
          -73.6181611,5.524667,2391.05894338242
          -73.618036,5.5245336,2389.37336697578
          -73.617875,5.5243443,2388.42797431919
          -73.617665,5.524239,2385.75659515987
          -73.6174968,5.5240998,2383.4056346238
          -73.6173091,5.5239163,2380.54731783019
          -73.6170627,5.5237316,2376.14348932604
          -73.616732,5.5236198,2373.14425862102
          -73.6163868,5.5236691,2372.48365969541
          -73.6161975,5.5237154,2372.75797316495
          -73.6162029,5.5237315,2375.7239095561
          -73.6162482,5.5237095,2375.68831116437
          -73.6162574,5.5236999,2375.46104779637
          -73.6162569,5.5236987,2375.58524713956
          -73.6162971,5.5236876,2375.09139660382
          -73.6165897,5.52361,2373.62722303515
          -73.6168875,5.5236664,2372.35342263002
          -73.617226,5.5238349,2373.57474695207
          -73.6174977,5.5240996,2375.8139956255
          -73.617795,5.5242932,2381.15799214197
          -73.6180399,5.5245408,2386.16048429454
          -73.6182779,5.5247012,2390.01409099838
          -73.6184445,5.524629,2392.16263042246
          -73.6186693,5.5245026,2393.12473145335
          -73.6189339,5.5245944,2396.68045534134
          -73.6191933,5.5244915,2401.7266845297
          -73.6192322,5.5241769,2403.88939571751
          -73.6190699,5.5238864,2408.71605672789
          -73.6188706,5.5236338,2410.53015540524
          -73.6187185,5.5233261,2412.75822428496
          -73.6187078,5.5230556,2414.84267018921
          -73.6187418,5.5227451,2420.76574410917
          -73.6187392,5.5224755,2423.45299540433
          -73.6186658,5.522212,2428.4640416338
          -73.6185629,5.5219022,2433.52512874593
          -73.6186326,5.5216057,2438.22106607097
          -73.6186568,5.5212489,2442.1582706041
          -73.6188129,5.5210042,2445.54145848698
          -73.6190285,5.5207307,2449.83461019512
          -73.6192679,5.5204897,2450.76470589553
          -73.6195232,5.5203163,2452.10344116795
          -73.6197975,5.5203067,2453.23310564648
          -73.6201168,5.5204176,2454.07769502592
          -73.6202745,5.5205064,2454.51365979588
          -73.6202961,5.5204779,2453.90153142939
          -73.6205053,5.5202794,2451.1923149739
          -73.6204794,5.5203053,2451.21701527111
          -73.6204763,5.5203056,2451.62682038423
          -73.6204763,5.5203053,2451.50533544163
          -73.6205804,5.520301,2450.87376432263
          -73.6208633,5.5203962,2450.44890806892
          -73.621092,5.5205531,2450.15845064706
          -73.6213435,5.5207524,2448.93818271348
          -73.6215935,5.5210101,2446.36865835747
          -73.6218289,5.5212366,2443.75726016357
          -73.6220941,5.5214734,2441.40731337575
          -73.6224128,5.5217658,2440.78787421553
          -73.6227445,5.5220625,2443.07307349018
          -73.6230715,5.5223594,2444.11650096965
          -73.6233374,5.5226023,2445.45884552707
          -73.623665,5.5228268,2446.61962856434
          -73.6240334,5.5229816,2448.55526142179
          -73.6243168,5.5230868,2451.02008776462
          -73.6246374,5.5232096,2452.91461968167
          -73.624883,5.5233298,2454.69885241162
          -73.6250607,5.5234792,2454.61529195836
          -73.6251936,5.5237119,2453.251953125
          -73.6251848,5.5239779,2452.22057080838
          -73.6251168,5.5243053,2449.37191843569
          -73.6250933,5.5246172,2446.7549456234
          -73.6251108,5.5249144,2444.95044513005
          -73.6251444,5.5252091,2442.37589497252
          -73.6252229,5.5255109,2439.80244970797
          -73.6251632,5.5258066,2437.4763482343
          -73.6249007,5.5260133,2435.85894594051
          -73.624697,5.5262931,2432.05598041161
          -73.6246697,5.5266031,2430.62422730805
          -73.6246975,5.5268869,2429.42559050466
          -73.6247092,5.5272192,2426.5516532615
          -73.6247292,5.5275206,2424.79249527226
          -73.6246386,5.5278144,2422.04975118159
          -73.6245491,5.5280317,2419.71282643597
          -73.6243591,5.5281825,2417.23355145397
          -73.6241038,5.5283666,2413.74502721015
          -73.6239262,5.5286371,2410.45499604632
          -73.6237754,5.5289176,2408.15286548877
          -73.6235655,5.5292121,2406.3564624717
          -73.6233772,5.5294809,2403.59251308508
          -73.6231942,5.5297493,2401.08149333496
          -73.6230118,5.5299993,2399.04643532758
          -73.6228525,5.5303331,2395.07771719416
          -73.6226958,5.5307131,2393.67498390015
          -73.6224949,5.5311346,2392.15993012975
          -73.6223597,5.5315001,2391.02007768884
          -73.6221986,5.5318205,2391.23911964152
          -73.6220871,5.5320416,2392.19096472405
          -73.6219739,5.532299,2393.51683298597
          -73.6217164,5.5325407,2392.96135080802
          -73.6214597,5.5327026,2390.50654158446
          -73.6212532,5.532933,2387.7121141864
          -73.6210869,5.5331825,2385.40282657274
          -73.6208993,5.5334337,2384.05062376313
          -73.6209594,5.5337103,2381.04385589494
          -73.621137,5.5339625,2378.7190216063
          -73.6210962,5.5342319,2375.5356377252
          -73.6208246,5.5344375,2371.55886605361
          -73.6205306,5.5347034,2368.80512713214
          -73.6203415,5.5349745,2365.93274965659
          -73.6201786,5.535352,2362.39186096809
          -73.620147,5.5356976,2361.41662423426
          -73.6202195,5.535939,2360.88949808852
          -73.6202273,5.5359492,2361.7978344116
          -73.6202262,5.5359484,2361.64511626439
          -73.6202276,5.5359481,2361.9429921785
          -73.6202281,5.5359488,2361.76390857822
          -73.6202273,5.5359488,2361.72797265835
          -73.6202269,5.5359509,2361.60705850839
          -73.6202809,5.5360571,2361.93153154722
          -73.6203494,5.5363674,2362.00101432632
          -73.6202815,5.5367291,2363.41795560035
          -73.6202407,5.5371048,2363.06496489528
          -73.6202764,5.5374162,2362.67073397755
          -73.6203508,5.5377504,2362.46978086689
          -73.6202324,5.5381017,2361.22084746688
          -73.6200396,5.5384296,2359.66195498395
          -73.6200818,5.5388293,2357.61552963323
          -73.6201744,5.5391401,2354.52849763461
          -73.6201045,5.5394019,2353.84629084796
          -73.6198548,5.5396221,2354.0108015703
          -73.6196694,5.5398071,2351.92804238171
          -73.6195642,5.5401714,2351.43304175806
          -73.6194981,5.5405906,2349.7647929413
          -73.6194879,5.5410067,2347.05584082517
          -73.6194574,5.5414562,2345.309844524
          -73.6194554,5.5418677,2343.3605199938
          -73.619716,5.5422038,2343.38875483181
          -73.6200865,5.542465,2344.49369937673
          -73.6202934,5.5428693,2345.17491352854
          -73.6204859,5.5432913,2343.71856311187
          -73.6206257,5.5436384,2341.37375892362
          -73.6207932,5.5438347,2340.73517522891
          -73.6208122,5.5438603,2339.66788063387
          -73.6208209,5.543868,2339.66510626823
          -73.6208378,5.5439376,2339.59313916256
          -73.6210188,5.5441307,2339.18342226436
          -73.6212019,5.5444062,2338.39121124368
          -73.62143,5.5447882,2337.52476498508
          -73.6216235,5.5452137,2333.4505599202
          -73.6219109,5.5452442,2331.25760079829
          -73.6219169,5.5448346,2325.87510962829
          -73.6219709,5.5443513,2323.00889976479
          -73.6221955,5.5439025,2321.14034944109
          -73.6224292,5.5436251,2317.86556062452
          -73.6223799,5.543324,2315.14090979707
          -73.6221921,5.5430087,2312.07867276997
          -73.6220972,5.5426956,2310.16576474076
          -73.6220717,5.5423345,2309.37051818717
          -73.6220261,5.5419363,2304.80899120125
          -73.622132,5.5415274,2301.48571098177
          -73.6222339,5.5410734,2296.78842699632
          -73.6223153,5.5407612,2295.91247176057
          -73.6224766,5.5403551,2293.86464109725
          -73.6228914,5.5400897,2289.14728448314
          -73.623259,5.5398623,2286.80011010665
          -73.6234031,5.5393547,2281.82991797303
          -73.6234668,5.5388378,2278.14729409628
          -73.6234359,5.5385525,2274.39148660649
          -73.6236683,5.5384179,2273.73120117188
          -73.6238824,5.5385303,2271.73284611218
          -73.6239847,5.5386389,2269.96004168788
          -73.6241562,5.5387829,2269.44425011214
          -73.6244135,5.5388498,2266.26922152233
          -73.6246503,5.5387896,2263.58432633567
          -73.6248578,5.5388619,2262.93428760022
          -73.6251419,5.5390179,2261.0124941541
          -73.6253517,5.5392326,2257.61176931277
          -73.6255889,5.5394179,2255.47941234576
          -73.6259686,5.5394658,2253.92641550272
          -73.6263812,5.5395137,2249.51471301461
          -73.6266995,5.5395326,2244.72886586355
          -73.6269684,5.5394712,2241.81564770073
          -73.6273237,5.5394082,2240.02923290454
          -73.6276768,5.5394929,2236.95642416143
          -73.6279945,5.5395931,2233.44191795217
          -73.6282431,5.5397325,2231.51180920145
          -73.6283557,5.5398534,2229.62180425672
          -73.6283524,5.5398514,2229.09893043651
          -73.6283513,5.5398509,2228.25866088092
          -73.6283697,5.5398693,2228.15354525554
          -73.6283729,5.5398714,2228.24137310486
          -73.6283738,5.5398711,2228.43078103327
          -73.6283925,5.5398865,2229.7001953125
          -73.6285834,5.5400392,2229.7001953125
          -73.6288163,5.5402308,2225.2001953125
          -73.6290499,5.5403861,2225.2001953125
          -73.6293506,5.5404264,2221.48440470589
          -73.6297132,5.5404565,2218.37922063601
          -73.6300643,5.5405265,2214.58706530156
          -73.6303926,5.5406248,2212.15772174532
          -73.630782,5.5406267,2210.65833398704
          -73.6311498,5.5404978,2206.96788103355
          -73.6312882,5.5403828,2204.10384109272
          -73.6313261,5.5404561,2203.58941603247
          -73.6312352,5.5406579,2201.82042108815
          -73.6310702,5.5409641,2197.2718668753
          -73.6308812,5.541209,2192.22104611331
          -73.6309903,5.5414462,2189.42835944746
          -73.6312971,5.541561,2185.76299521687
          -73.6316771,5.541619,2181.58132731452
          -73.6320463,5.5416225,2177.74025118896
          -73.6323809,5.5416157,2173.30166582531
          -73.6326161,5.5416065,2168.46265485507
          -73.6326815,5.5415961,2167.19370589567
          -73.6326852,5.541596,2167.90014648438
          -73.6326884,5.5415982,2167.90014648438
          -73.6326918,5.5415989,2167.90014648438
          -73.6326945,5.5416005,2167.90014648438
        </coordinates>
      </LineString>
    </Placemark>
    <Placemark>
      <name>Lenguazaque</name>
      <styleUrl>#icon-1899-7CB342-nodesc</styleUrl>
      <Point>
        <coordinates>
          -73.7121453,5.3060578,0
        </coordinates>
      </Point>
    </Placemark>
  </Document>
</kml>
