<?xml version="1.0" encoding="UTF-8"?>
<kml xmlns="http://www.opengis.net/kml/2.2">
  <Document>
    <name>Villa_de_Leyva_-Raquira_(Desierto).gpx</name>
    <Style id="icon-123-normal">
      <IconStyle>
        <scale>1.1</scale>
        <Icon>
          <href>https://www.gstatic.com/mapspro/images/stock/123-red-dot.png</href>
        </Icon>
        <hotSpot x="16" xunits="pixels" y="32" yunits="insetPixels"/>
      </IconStyle>
      <LabelStyle>
        <scale>0</scale>
      </LabelStyle>
    </Style>
    <Style id="icon-123-highlight">
      <IconStyle>
        <scale>1.1</scale>
        <Icon>
          <href>https://www.gstatic.com/mapspro/images/stock/123-red-dot.png</href>
        </Icon>
        <hotSpot x="16" xunits="pixels" y="32" yunits="insetPixels"/>
      </IconStyle>
      <LabelStyle>
        <scale>1.1</scale>
      </LabelStyle>
    </Style>
    <StyleMap id="icon-123">
      <Pair>
        <key>normal</key>
        <styleUrl>#icon-123-normal</styleUrl>
      </Pair>
      <Pair>
        <key>highlight</key>
        <styleUrl>#icon-123-highlight</styleUrl>
      </Pair>
    </StyleMap>
    <Style id="icon-61-normal">
      <IconStyle>
        <scale>1.1</scale>
        <Icon>
          <href>https://www.gstatic.com/mapspro/images/stock/61-green-dot.png</href>
        </Icon>
        <hotSpot x="16" xunits="pixels" y="32" yunits="insetPixels"/>
      </IconStyle>
      <LabelStyle>
        <scale>0</scale>
      </LabelStyle>
    </Style>
    <Style id="icon-61-highlight">
      <IconStyle>
        <scale>1.1</scale>
        <Icon>
          <href>https://www.gstatic.com/mapspro/images/stock/61-green-dot.png</href>
        </Icon>
        <hotSpot x="16" xunits="pixels" y="32" yunits="insetPixels"/>
      </IconStyle>
      <LabelStyle>
        <scale>1.1</scale>
      </LabelStyle>
    </Style>
    <StyleMap id="icon-61">
      <Pair>
        <key>normal</key>
        <styleUrl>#icon-61-normal</styleUrl>
      </Pair>
      <Pair>
        <key>highlight</key>
        <styleUrl>#icon-61-highlight</styleUrl>
      </Pair>
    </StyleMap>
    <Style id="line-E65100-5000-normal">
      <LineStyle>
        <color>ff0051e6</color>
        <width>5</width>
      </LineStyle>
    </Style>
    <Style id="line-E65100-5000-highlight">
      <LineStyle>
        <color>ff0051e6</color>
        <width>7.5</width>
      </LineStyle>
    </Style>
    <StyleMap id="line-E65100-5000">
      <Pair>
        <key>normal</key>
        <styleUrl>#line-E65100-5000-normal</styleUrl>
      </Pair>
      <Pair>
        <key>highlight</key>
        <styleUrl>#line-E65100-5000-highlight</styleUrl>
      </Pair>
    </StyleMap>
    <Placemark>
      <name>Start of Track 1</name>
      <description><![CDATA[Tuesday, June 9, 2026, 3:26 PM GMT-05:00<br>Elevation: 7631 feet]]></description>
      <styleUrl>#icon-61</styleUrl>
      <Point>
        <coordinates>
          -73.5233235,5.6341042,0
        </coordinates>
      </Point>
    </Placemark>
    <Placemark>
      <name>End of Track 1</name>
      <description><![CDATA[Tuesday, June 9, 2026, 6:10 PM GMT-05:00<br>Elevation: 7139 feet]]></description>
      <styleUrl>#icon-123</styleUrl>
      <Point>
        <coordinates>
          -73.6331248,5.537405,2176.10009765625
        </coordinates>
      </Point>
    </Placemark>
    <Placemark>
      <name>Track 1</name>
      <description><![CDATA[Statistics computed from imported data<br><br>Tuesday, June 9, 2026, 3:26 PM GMT-05:00<br>Distance: 18.0 miles<br>Duration: 2 hours, 43 minutes, and 5 seconds<br>Average Speed: 6.6 mph<br>Minimum Elevation: 6875 feet<br>Maximum Elevation: 8375 feet<br>Total climb: 1974 feet<br>Total descent: 2467 feet]]></description>
      <styleUrl>#line-E65100-5000</styleUrl>
      <LineString>
        <tessellate>1</tessellate>
        <coordinates>
          -73.5233539,5.6341777,0
          -73.5258615,5.6368859,0
          -73.5258515,5.6371314,0
          -73.5264176,5.637892,0
          -73.5268331,5.6385993,0
          -73.5274318,5.639467,0
          -73.5277732,5.6401443,0
          -73.5282512,5.6406628,0
          -73.5291622,5.6413161,0
          -73.529882,5.6418616,0
          -73.5304194,5.6422363,0
          -73.5310816,5.642914,0
          -73.5315215,5.6436292,0
          -73.5319447,5.6439364,0
          -73.5328828,5.6443172,0
          -73.5336602,5.6448538,0
          -73.5333338,5.6457663,0
          -73.5331053,5.6463452,0
          -73.5329107,5.6468044,0
          -73.5325994,5.6475408,0
          -73.5323221,5.6485079,0
          -73.5316908,5.6492883,0
          -73.5309548,5.6501395,0
          -73.5305702,5.6508182,0
          -73.5311961,5.6516517,0
          -73.5318409,5.6518467,0
          -73.532469,5.6519225,0
          -73.5334344,5.6520898,0
          -73.5336213,5.6529294,0
          -73.5336406,5.6538691,0
          -73.5337292,5.6544762,0
          -73.5335717,5.655118,0
          -73.5338641,5.6553854,0
          -73.5343879,5.6552614,0
          -73.5347804,5.6551725,0
          -73.5352192,5.6555022,0
          -73.5355087,5.6549487,0
          -73.5356147,5.6542607,0
          -73.536126,5.6537296,0
          -73.5364591,5.652684,0
          -73.5369055,5.6522873,0
          -73.537193,5.652644,0
          -73.5369592,5.653471,0
          -73.5371507,5.6540253,0
          -73.5374066,5.65515,0
          -73.5377032,5.6563743,0
          -73.5377447,5.6576322,0
          -73.537941,5.6580537,0
          -73.5380139,5.6587862,0
          -73.5382737,5.6590253,0
          -73.5387758,5.6597461,0
          -73.5389482,5.6601214,0
          -73.5390717,5.6603505,0
          -73.5390986,5.6606892,0
          -73.539104,5.661044,0
          -73.539363,5.660988,0
          -73.539702,5.660924,0
          -73.540072,5.660859,0
          -73.540462,5.660775,0
          -73.54082,5.660661,0
          -73.541201,5.660486,0
          -73.541653,5.660438,0
          -73.542136,5.660429,0
          -73.542561,5.660353,0
          -73.542901,5.660104,0
          -73.543271,5.659959,0
          -73.543413,5.659708,0
          -73.543641,5.659452,0
          -73.544039,5.659276,0
          -73.544441,5.6591,0
          -73.544815,5.658935,0
          -73.545152,5.658818,0
          -73.545385,5.658755,0
          -73.545764,5.658646,0
          -73.546161,5.658507,0
          -73.546552,5.658383,0
          -73.546819,5.658118,0
          -73.547085,5.657808,0
          -73.547383,5.657677,0
          -73.54772,5.657557,0
          -73.548037,5.657502,0
          -73.548276,5.657523,0
          -73.548416,5.657425,0
          -73.548623,5.657572,0
          -73.548757,5.657429,0
          -73.548892,5.657177,0
          -73.549112,5.657,0
          -73.549339,5.656776,0
          -73.549582,5.656507,0
          -73.549849,5.656215,0
          -73.55011,5.655912,0
          -73.55039,5.655615,0
          -73.550708,5.655323,0
          -73.551064,5.655044,0
          -73.551428,5.654749,0
          -73.551731,5.654505,0
          -73.551985,5.654232,0
          -73.552213,5.653932,0
          -73.552372,5.653605,0
          -73.552532,5.653312,0
          -73.552757,5.653072,0
          -73.552859,5.652728,0
          -73.552935,5.652476,0
          -73.552938,5.652358,0
          -73.553033,5.652219,0
          -73.553118,5.65206,0
          -73.553165,5.651921,0
          -73.553209,5.651762,0
          -73.553252,5.651607,0
          -73.553321,5.65148,0
          -73.55337,5.651373,0
          -73.553423,5.651268,0
          -73.553442,5.651128,0
          -73.553417,5.651,0
          -73.553394,5.650873,0
          -73.553359,5.650774,0
          -73.553391,5.650621,0
          -73.55342,5.650436,0
          -73.553438,5.650238,0
          -73.553451,5.650064,0
          -73.553474,5.649866,0
          -73.553545,5.649582,0
          -73.553612,5.649264,0
          -73.553643,5.648985,0
          -73.553714,5.648588,0
          -73.553808,5.648232,0
          -73.553705,5.647835,0
          -73.553636,5.647401,0
          -73.553611,5.646969,0
          -73.553652,5.646523,0
          -73.553684,5.646112,0
          -73.553899,5.645918,0
          -73.554148,5.645656,0
          -73.554139,5.645442,0
          -73.553996,5.645154,0
          -73.553719,5.644868,0
          -73.553386,5.644573,0
          -73.553037,5.644223,0
          -73.552784,5.643768,0
          -73.5526,5.643375,0
          -73.552681,5.643259,0
          -73.552996,5.643126,0
          -73.553413,5.64316,0
          -73.553857,5.643159,0
          -73.55432,5.643111,0
          -73.554769,5.64311,0
          -73.555211,5.643115,0
          -73.555592,5.642994,0
          -73.55603,5.642731,0
          -73.556444,5.642527,0
          -73.556801,5.642356,0
          -73.557151,5.642325,0
          -73.557585,5.642146,0
          -73.558024,5.641886,0
          -73.558504,5.64167,0
          -73.558873,5.641522,0
          -73.559309,5.641364,0
          -73.559674,5.641371,0
          -73.560064,5.641571,0
          -73.560525,5.641778,0
          -73.560992,5.641977,0
          -73.561411,5.642134,0
          -73.561816,5.642256,0
          -73.562236,5.642329,0
          -73.562613,5.642365,0
          -73.563026,5.642213,0
          -73.563473,5.642168,0
          -73.563965,5.642303,0
          -73.564409,5.64245,0
          -73.564614,5.642503,0
          -73.564638,5.642498,0
          -73.564615,5.642496,0
          -73.564498,5.642458,0
          -73.564171,5.642367,0
          -73.563818,5.642232,0
          -73.563682,5.642195,0
          -73.563616,5.642182,0
          -73.563615,5.642179,0
          -73.563615,5.642178,0
          -73.563544,5.642168,0
          -73.56352,5.642166,0
          -73.563519,5.642166,0
          -73.56352,5.642165,0
          -73.563507,5.642168,0
          -73.563521,5.642174,0
          -73.563623,5.642201,0
          -73.563899,5.642279,0
          -73.564241,5.642396,0
          -73.564634,5.642504,0
          -73.565036,5.642627,0
          -73.565447,5.642612,0
          -73.565926,5.642465,0
          -73.566371,5.642373,0
          -73.566629,5.642309,0
          -73.566579,5.642196,0
          -73.566275,5.641983,0
          -73.565862,5.641691,0
          -73.56537,5.641384,0
          -73.564784,5.641106,0
          -73.564403,5.640945,0
          -73.564455,5.640727,0
          -73.564616,5.640312,0
          -73.564789,5.639981,0
          -73.56476,5.639654,0
          -73.564903,5.639251,0
          -73.565183,5.638812,0
          -73.565363,5.638391,0
          -73.565633,5.638498,0
          -73.56603,5.638555,0
          -73.566492,5.638552,0
          -73.566957,5.638553,0
          -73.567411,5.638457,0
          -73.567907,5.638435,0
          -73.568353,5.63836,0
          -73.568817,5.638227,0
          -73.569212,5.63825,0
          -73.569614,5.638125,0
          -73.570073,5.637935,0
          -73.570507,5.637885,0
          -73.570784,5.637833,0
          -73.570949,5.63753,0
          -73.571183,5.637115,0
          -73.571426,5.636672,0
          -73.571737,5.636368,0
          -73.57211,5.636063,0
          -73.572559,5.635833,0
          -73.572859,5.635595,0
          -73.57316,5.63522,0
          -73.573381,5.634754,0
          -73.573698,5.634363,0
          -73.574116,5.634036,0
          -73.574527,5.633699,0
          -73.574907,5.63331,0
          -73.575228,5.632879,0
          -73.575416,5.632583,0
          -73.575491,5.632403,0
          -73.575607,5.63223,0
          -73.575882,5.631955,0
          -73.57624,5.631602,0
          -73.576479,5.631411,0
          -73.576633,5.631424,0
          -73.576628,5.631426,0
          -73.576632,5.631427,0
          -73.576631,5.631427,0
          -73.576632,5.631427,0
          -73.576634,5.631424,0
          -73.576554,5.631387,0
          -73.576277,5.631392,0
          -73.575994,5.63138,0
          -73.575636,5.631414,0
          -73.57515,5.631503,0
          -73.574722,5.6316,0
          -73.574209,5.631722,0
          -73.573686,5.631782,0
          -73.57325,5.631803,0
          -73.572695,5.63184,0
          -73.57218,5.631862,0
          -73.571637,5.631851,0
          -73.571088,5.631738,0
          -73.570662,5.631522,0
          -73.570244,5.63112,0
          -73.569967,5.630695,0
          -73.569694,5.630231,0
          -73.569402,5.629723,0
          -73.56906,5.629212,0
          -73.56856,5.628917,0
          -73.568015,5.628699,0
          -73.567612,5.628541,0
          -73.567162,5.628372,0
          -73.566799,5.628213,0
          -73.56651,5.627976,0
          -73.566289,5.627768,0
          -73.566182,5.627683,0
          -73.566181,5.627689,0
          -73.566184,5.627693,0
          -73.566161,5.62766,0
          -73.566272,5.627582,0
          -73.566612,5.627613,0
          -73.566973,5.627562,0
          -73.567209,5.62722,0
          -73.567311,5.626778,0
          -73.567462,5.626363,0
          -73.567692,5.625845,0
          -73.56791,5.625308,0
          -73.568401,5.625019,0
          -73.568957,5.624821,0
          -73.569513,5.624612,0
          -73.569973,5.624321,0
          -73.570195,5.623906,0
          -73.570331,5.623781,0
          -73.570282,5.623713,0
          -73.570272,5.623696,0
          -73.570272,5.623697,0
          -73.570269,5.623681,0
          -73.570371,5.62376,0
          -73.570588,5.624068,0
          -73.570922,5.624333,0
          -73.571467,5.624594,0
          -73.572131,5.624694,0
          -73.57271,5.624638,0
          -73.572872,5.624599,0
          -73.572879,5.6246,0
          -73.57289,5.624506,0
          -73.572824,5.624272,0
          -73.572698,5.623854,0
          -73.572583,5.623431,0
          -73.572468,5.623009,0
          -73.572256,5.62269,0
          -73.57197,5.622439,0
          -73.571723,5.622234,0
          -73.571599,5.621883,0
          -73.571706,5.621668,0
          -73.572009,5.621613,0
          -73.572272,5.621397,0
          -73.572478,5.621054,0
          -73.572632,5.620708,0
          -73.572693,5.620524,0
          -73.572705,5.620501,0
          -73.572707,5.620433,0
          -73.572708,5.620269,0
          -73.572746,5.620112,0
          -73.572759,5.620063,0
          -73.572759,5.620061,0
          -73.572761,5.620061,0
          -73.572761,5.62006,0
          -73.57276,5.62006,0
          -73.57276,5.620059,0
          -73.572762,5.62006,0
          -73.572762,5.620063,0
          -73.572762,5.620062,0
          -73.572762,5.620063,0
          -73.572763,5.62005,0
          -73.572764,5.620027,0
          -73.572769,5.620026,0
          -73.572769,5.620014,0
          -73.57277,5.619856,0
          -73.572798,5.619634,0
          -73.572844,5.619345,0
          -73.572955,5.619034,0
          -73.573114,5.618765,0
          -73.573157,5.618482,0
          -73.573245,5.618162,0
          -73.573252,5.617818,0
          -73.573207,5.61751,0
          -73.573283,5.617216,0
          -73.5733,5.616875,0
          -73.573301,5.616717,0
          -73.573298,5.616709,0
          -73.5733,5.616721,0
          -73.573318,5.616787,0
          -73.5733,5.617117,0
          -73.573191,5.61744,0
          -73.573213,5.617482,0
          -73.573223,5.617453,0
          -73.57322,5.617446,0
          -73.573221,5.617445,0
          -73.573221,5.617444,0
          -73.573219,5.617441,0
          -73.573219,5.617442,0
          -73.57322,5.617443,0
          -73.573221,5.617444,0
          -73.573221,5.617443,0
          -73.573244,5.617358,0
          -73.573301,5.617098,0
          -73.573295,5.616744,0
          -73.573347,5.616279,0
          -73.57347,5.615861,0
          -73.573735,5.615554,0
          -73.574061,5.615232,0
          -73.57445,5.614957,0
          -73.574728,5.614706,0
          -73.574612,5.61437,0
          -73.574397,5.614032,0
          -73.574183,5.613745,0
          -73.573874,5.613543,0
          -73.573788,5.613161,0
          -73.573588,5.612848,0
          -73.573652,5.612532,0
          -73.573555,5.612209,0
          -73.573509,5.611843,0
          -73.573381,5.611478,0
          -73.573064,5.611198,0
          -73.57285,5.610889,0
          -73.572706,5.610544,0
          -73.572693,5.610291,0
          -73.572816,5.609859,0
          -73.573087,5.609469,0
          -73.573265,5.609084,0
          -73.573408,5.608665,0
          -73.573667,5.6083,0
          -73.574063,5.607959,0
          -73.574552,5.607706,0
          -73.574989,5.607503,0
          -73.575224,5.607197,0
          -73.57544,5.606879,0
          -73.575653,5.606481,0
          -73.575779,5.606021,0
          -73.575962,5.60573,0
          -73.576253,5.605525,0
          -73.576286,5.605205,0
          -73.576274,5.604873,0
          -73.576078,5.604633,0
          -73.575758,5.60447,0
          -73.5755,5.604235,0
          -73.575447,5.603956,0
          -73.575566,5.603691,0
          -73.575668,5.60335,0
          -73.575681,5.602969,0
          -73.575584,5.602615,0
          -73.575712,5.602478,0
          -73.575857,5.602666,0
          -73.576038,5.602947,0
          -73.576291,5.603129,0
          -73.576495,5.602945,0
          -73.576677,5.602635,0
          -73.5768,5.602389,0
          -73.576707,5.602144,0
          -73.576658,5.601881,0
          -73.576693,5.601582,0
          -73.576764,5.601258,0
          -73.576766,5.600976,0
          -73.576797,5.600631,0
          -73.576824,5.60026,0
          -73.576981,5.599927,0
          -73.577151,5.599683,0
          -73.57739,5.599435,0
          -73.577674,5.599239,0
          -73.577938,5.599019,0
          -73.578185,5.598777,0
          -73.578487,5.598545,0
          -73.578655,5.598238,0
          -73.578768,5.597868,0
          -73.57882,5.597482,0
          -73.579008,5.597089,0
          -73.579145,5.596804,0
          -73.579374,5.596736,0
          -73.579463,5.596786,0
          -73.579458,5.596786,0
          -73.579459,5.596786,0
          -73.579459,5.596787,0
          -73.57946,5.596787,0
          -73.579461,5.596787,0
          -73.579461,5.596788,0
          -73.579462,5.596788,0
          -73.579463,5.596788,0
          -73.579463,5.596789,0
          -73.579464,5.596789,0
          -73.579464,5.59679,0
          -73.579464,5.596789,0
          -73.579463,5.59679,0
          -73.579463,5.596789,0
          -73.579463,5.596788,0
          -73.579463,5.596787,0
          -73.579464,5.596786,0
          -73.579466,5.596787,0
          -73.579467,5.596786,0
          -73.579469,5.596787,0
          -73.579472,5.596785,0
          -73.579473,5.596784,0
          -73.579474,5.596784,0
          -73.579475,5.596784,0
          -73.579475,5.596782,0
          -73.579475,5.59678,0
          -73.579475,5.596779,0
          -73.579478,5.596776,0
          -73.579481,5.596775,0
          -73.579483,5.596773,0
          -73.579484,5.596772,0
          -73.579484,5.59677,0
          -73.579486,5.596772,0
          -73.579486,5.596773,0
          -73.579487,5.596773,0
          -73.579489,5.596774,0
          -73.579489,5.596775,0
          -73.579487,5.596779,0
          -73.57948,5.596784,0
          -73.579478,5.596787,0
          -73.579477,5.596788,0
          -73.579477,5.596789,0
          -73.579476,5.59679,0
          -73.579473,5.596788,0
          -73.579475,5.59679,0
          -73.579474,5.596786,0
          -73.579482,5.596777,0
          -73.579482,5.596776,0
          -73.57948,5.596781,0
          -73.579474,5.596784,0
          -73.579472,5.596775,0
          -73.579473,5.596775,0
          -73.579472,5.596774,0
          -73.579474,5.596777,0
          -73.579474,5.596785,0
          -73.579472,5.596786,0
          -73.579471,5.596786,0
          -73.579541,5.596731,0
          -73.579706,5.596536,0
          -73.579811,5.596269,0
          -73.579886,5.595921,0
          -73.579919,5.595557,0
          -73.579941,5.595197,0
          -73.579978,5.594831,0
          -73.579977,5.594477,0
          -73.579966,5.594125,0
          -73.580009,5.593824,0
          -73.579892,5.59353,0
          -73.579871,5.593218,0
          -73.579978,5.5929,0
          -73.580119,5.592681,0
          -73.580194,5.592478,0
          -73.5803,5.592216,0
          -73.580392,5.591904,0
          -73.580379,5.591573,0
          -73.580364,5.591211,0
          -73.580305,5.590799,0
          -73.580304,5.590479,0
          -73.580412,5.590147,0
          -73.580588,5.589856,0
          -73.580747,5.589597,0
          -73.5807054,5.58949,0
          -73.5805104,5.5892752,0
          -73.5803097,5.5891188,0
          -73.5800544,5.5890077,0
          -73.579672,5.5887268,0
          -73.5793803,5.588476,0
          -73.5793014,5.5883627,0
          -73.579244,5.5880678,0
          -73.5787893,5.5877978,0
          -73.5784691,5.5875615,0
          -73.5787216,5.5872578,0
          -73.5790084,5.587016,0
          -73.5793162,5.5863134,0
          -73.5795347,5.5854639,0
          -73.5797024,5.5850054,0
          -73.5798547,5.5838075,0
          -73.5802623,5.5833347,0
          -73.5805098,5.5826319,0
          -73.580685,5.5818681,0
          -73.580674,5.5812985,0
          -73.5812553,5.5804636,0
          -73.5817498,5.5802724,0
          -73.5821146,5.5799744,0
          -73.5826081,5.5797142,0
          -73.5826406,5.5791186,0
          -73.5831137,5.5784138,0
          -73.582707,5.5784565,0
          -73.5839515,5.5762131,0
          -73.5832816,5.5755997,0
          -73.5824102,5.5751862,0
          -73.5814166,5.5719468,0
          -73.5827404,5.5686221,0
          -73.584066,5.5667273,0
          -73.5848576,5.5656091,0
          -73.5851842,5.5638239,0
          -73.5867554,5.5627007,0
          -73.5887211,5.5618455,0
          -73.5893136,5.5621222,0
          -73.5893577,5.5610539,0
          -73.5900455,5.5605835,0
          -73.5910564,5.5612019,0
          -73.5919564,5.5616853,0
          -73.5954956,5.5615707,0
          -73.5976174,5.560957,0
          -73.5990285,5.5601996,0
          -73.600461,5.5611719,0
          -73.6013234,5.5606889,0
          -73.6019712,5.5581556,0
          -73.6040566,5.557523,0
          -73.6061292,5.5563738,0
          -73.6082921,5.5558099,0
          -73.6119376,5.5539154,0
          -73.6142325,5.5520498,0
          -73.6151322,5.5519354,0
          -73.6159211,5.5514512,0
          -73.6173455,5.5518925,0
          -73.6190232,5.5515578,0
          -73.6192613,5.5509207,0
          -73.6190799,5.5504312,0
          -73.620105,5.5500797,0
          -73.6217548,5.5501175,0
          -73.6223866,5.5496025,0
          -73.6212004,5.5487683,0
          -73.6212511,5.548458,0
          -73.6200533,5.5476195,0
          -73.6192613,5.5469653,0
          -73.621333,5.5471935,0
          -73.6218323,5.5468804,0
          -73.622833,5.5470015,0
          -73.6237625,5.5469766,0
          -73.6238625,5.5466865,0
          -73.6258437,5.5456018,0
          -73.6267484,5.5448458,0
          -73.6271364,5.5447669,0
          -73.6284677,5.5434246,0
          -73.6296053,5.5426894,0
          -73.6290369,5.5411898,0
          -73.6282163,5.5405255,0
          -73.6284829,5.5401781,0
          -73.6290499,5.5403861,0
          -73.6343479,5.5370419,0
        </coordinates>
      </LineString>
    </Placemark>
  </Document>
</kml>
