<?xml version="1.0" encoding="UTF-8"?>
<kml xmlns="http://www.opengis.net/kml/2.2">
  <Document>
    <name>Directions from Villa de Leyva, Boyaca to Monasterio de Santo Eccehomo, Santo Ecce Homo, Santa Sofía, Boyaca</name>
    <Style id="icon-1899-DB4436-nodesc-normal">
      <IconStyle>
        <color>ff3644db</color>
        <scale>1</scale>
        <Icon>
          <href>https://www.gstatic.com/mapspro/images/stock/503-wht-blank_maps.png</href>
        </Icon>
        <hotSpot x="32" xunits="pixels" y="64" yunits="insetPixels"/>
      </IconStyle>
      <LabelStyle>
        <scale>0</scale>
      </LabelStyle>
      <BalloonStyle>
        <text><![CDATA[<h3>$[name]</h3>]]></text>
      </BalloonStyle>
    </Style>
    <Style id="icon-1899-DB4436-nodesc-highlight">
      <IconStyle>
        <color>ff3644db</color>
        <scale>1</scale>
        <Icon>
          <href>https://www.gstatic.com/mapspro/images/stock/503-wht-blank_maps.png</href>
        </Icon>
        <hotSpot x="32" xunits="pixels" y="64" yunits="insetPixels"/>
      </IconStyle>
      <LabelStyle>
        <scale>1</scale>
      </LabelStyle>
      <BalloonStyle>
        <text><![CDATA[<h3>$[name]</h3>]]></text>
      </BalloonStyle>
    </Style>
    <StyleMap id="icon-1899-DB4436-nodesc">
      <Pair>
        <key>normal</key>
        <styleUrl>#icon-1899-DB4436-nodesc-normal</styleUrl>
      </Pair>
      <Pair>
        <key>highlight</key>
        <styleUrl>#icon-1899-DB4436-nodesc-highlight</styleUrl>
      </Pair>
    </StyleMap>
    <Style id="line-1267FF-5000-nodesc-normal">
      <LineStyle>
        <color>ffff6712</color>
        <width>5</width>
      </LineStyle>
      <BalloonStyle>
        <text><![CDATA[<h3>$[name]</h3>]]></text>
      </BalloonStyle>
    </Style>
    <Style id="line-1267FF-5000-nodesc-highlight">
      <LineStyle>
        <color>ffff6712</color>
        <width>7.5</width>
      </LineStyle>
      <BalloonStyle>
        <text><![CDATA[<h3>$[name]</h3>]]></text>
      </BalloonStyle>
    </Style>
    <StyleMap id="line-1267FF-5000-nodesc">
      <Pair>
        <key>normal</key>
        <styleUrl>#line-1267FF-5000-nodesc-normal</styleUrl>
      </Pair>
      <Pair>
        <key>highlight</key>
        <styleUrl>#line-1267FF-5000-nodesc-highlight</styleUrl>
      </Pair>
    </StyleMap>
    <Placemark>
      <name>Directions from Villa de Leyva, Boyaca to Monasterio de Santo Eccehomo, Santo Ecce Homo, Santa Sofía, Boyaca</name>
      <styleUrl>#line-1267FF-5000-nodesc</styleUrl>
      <LineString>
        <tessellate>1</tessellate>
        <coordinates>
          -73.52712,5.63647,0
          -73.52707,5.63637,0
          -73.5271,5.63636,0
          -73.52715,5.63633,0
          -73.52721,5.63629,0
          -73.52729,5.63621,0
          -73.52734,5.63618,0
          -73.52739,5.63612,0
          -73.52752,5.63598,0
          -73.52776,5.63569,0
          -73.52809,5.63532,0
          -73.52831,5.63508,0
          -73.52835,5.63502,0
          -73.5284,5.63495,0
          -73.52843,5.63488,0
          -73.52845,5.63484,0
          -73.52846,5.63478,0
          -73.52847,5.63472,0
          -73.52847,5.63465,0
          -73.52845,5.63456,0
          -73.52849,5.63457,0
          -73.52852,5.63459,0
          -73.52854,5.63461,0
          -73.52857,5.63463,0
          -73.52863,5.63466,0
          -73.52872,5.63475,0
          -73.52893,5.63493,0
          -73.52901,5.635,0
          -73.52908,5.63509,0
          -73.52916,5.63522,0
          -73.5292,5.63533,0
          -73.52921,5.63535,0
          -73.52925,5.63553,0
          -73.52931,5.6358,0
          -73.52933,5.63586,0
          -73.52936,5.63591,0
          -73.52939,5.63599,0
          -73.52942,5.63602,0
          -73.52946,5.63607,0
          -73.5295,5.63608,0
          -73.52956,5.63611,0
          -73.52986,5.63622,0
          -73.53011,5.63633,0
          -73.53023,5.63639,0
          -73.5305,5.63652,0
          -73.53066,5.63661,0
          -73.53121,5.63686,0
          -73.53163,5.63702,0
          -73.53214,5.63722,0
          -73.53249,5.63734,0
          -73.53262,5.63735,0
          -73.53282,5.63736,0
          -73.53299,5.63738,0
          -73.53311,5.6374,0
          -73.53388,5.63764,0
          -73.53429,5.63778,0
          -73.53456,5.63786,0
          -73.53473,5.63792,0
          -73.53476,5.63793,0
          -73.53501,5.63798,0
          -73.53507,5.638,0
          -73.53539,5.63806,0
          -73.53557,5.6381,0
          -73.53564,5.63811,0
          -73.53578,5.63813,0
          -73.53582,5.63814,0
          -73.53584,5.63815,0
          -73.53598,5.63818,0
          -73.536,5.63818,0
          -73.53624,5.63825,0
          -73.53635,5.63827,0
          -73.53652,5.6383,0
          -73.5367,5.63835,0
          -73.53672,5.63835,0
          -73.53688,5.63839,0
          -73.53701,5.63841,0
          -73.53707,5.63841,0
          -73.53723,5.63842,0
          -73.53725,5.63842,0
          -73.5374,5.63842,0
          -73.53761,5.63843,0
          -73.53774,5.63843,0
          -73.53793,5.63845,0
          -73.53798,5.63845,0
          -73.538,5.63846,0
          -73.53806,5.63847,0
          -73.53813,5.63849,0
          -73.5382,5.63853,0
          -73.53834,5.63864,0
          -73.53857,5.63882,0
          -73.53859,5.63884,0
          -73.53879,5.63903,0
          -73.53883,5.63908,0
          -73.53886,5.63911,0
          -73.53888,5.63913,0
          -73.53889,5.63914,0
          -73.53891,5.63915,0
          -73.53893,5.63915,0
          -73.53895,5.63915,0
          -73.53897,5.63912,0
          -73.53898,5.63906,0
          -73.53902,5.63883,0
          -73.53902,5.63878,0
          -73.53906,5.63842,0
          -73.53907,5.63837,0
          -73.53909,5.63821,0
          -73.53911,5.63806,0
          -73.53918,5.63818,0
          -73.53921,5.63822,0
          -73.53925,5.63826,0
          -73.53935,5.63837,0
          -73.53953,5.63855,0
          -73.53959,5.6386,0
          -73.53965,5.63866,0
          -73.5399,5.63889,0
          -73.54011,5.6391,0
          -73.54029,5.63927,0
          -73.54039,5.63938,0
          -73.5404,5.63939,0
          -73.5405,5.63951,0
          -73.54079,5.63989,0
          -73.54094,5.64005,0
          -73.54098,5.64008,0
          -73.54108,5.64018,0
          -73.54139,5.64042,0
          -73.54173,5.64068,0
          -73.54177,5.6407,0
          -73.54196,5.64082,0
          -73.54219,5.64096,0
          -73.54223,5.64098,0
          -73.54228,5.64102,0
          -73.54236,5.64109,0
          -73.54243,5.64116,0
          -73.54257,5.64134,0
          -73.54266,5.64145,0
          -73.54274,5.64152,0
          -73.5428,5.64158,0
          -73.54283,5.64159,0
          -73.54285,5.6416,0
          -73.5429,5.64163,0
          -73.54296,5.64164,0
          -73.543,5.64165,0
          -73.54304,5.64166,0
          -73.54314,5.64167,0
          -73.54344,5.64174,0
          -73.54365,5.64177,0
          -73.54372,5.64178,0
          -73.54407,5.64189,0
          -73.54417,5.64192,0
          -73.54424,5.64193,0
          -73.54432,5.64192,0
          -73.54437,5.64191,0
          -73.54447,5.64189,0
          -73.54456,5.64189,0
          -73.54489,5.64187,0
          -73.54533,5.64183,0
          -73.54573,5.64178,0
          -73.54581,5.64178,0
          -73.54589,5.64178,0
          -73.54597,5.64178,0
          -73.54601,5.64179,0
          -73.54602,5.64179,0
          -73.54619,5.64181,0
          -73.54622,5.64182,0
          -73.54633,5.64185,0
          -73.5464,5.64189,0
          -73.54652,5.64196,0
          -73.54656,5.64199,0
          -73.54693,5.64217,0
          -73.54704,5.64221,0
          -73.54714,5.64222,0
          -73.54716,5.64223,0
          -73.54732,5.64224,0
          -73.54745,5.64226,0
          -73.54754,5.64227,0
          -73.54767,5.6423,0
          -73.54768,5.64231,0
          -73.54788,5.64236,0
          -73.54803,5.6424,0
          -73.54809,5.64243,0
          -73.54813,5.64246,0
          -73.54819,5.64252,0
          -73.54834,5.64262,0
          -73.54843,5.64267,0
          -73.5485,5.64271,0
          -73.5486,5.64278,0
          -73.54869,5.64282,0
          -73.54877,5.64284,0
          -73.5488,5.64285,0
          -73.54885,5.64285,0
          -73.54899,5.64285,0
          -73.54902,5.64285,0
          -73.54909,5.64285,0
          -73.54918,5.64287,0
          -73.54921,5.64287,0
          -73.54933,5.6429,0
          -73.54936,5.64291,0
          -73.54951,5.64295,0
          -73.54954,5.64295,0
          -73.54969,5.64296,0
          -73.54982,5.64296,0
          -73.55004,5.64295,0
          -73.55033,5.64293,0
          -73.55051,5.64293,0
          -73.55061,5.64295,0
          -73.55078,5.64297,0
          -73.55125,5.64302,0
          -73.55152,5.64305,0
          -73.55169,5.64304,0
          -73.5517,5.64304,0
          -73.55185,5.64301,0
          -73.55187,5.64301,0
          -73.55195,5.64299,0
          -73.552,5.64298,0
          -73.55209,5.64298,0
          -73.55216,5.64298,0
          -73.55219,5.64298,0
          -73.55224,5.643,0
          -73.55228,5.64302,0
          -73.55234,5.64306,0
          -73.55241,5.64311,0
          -73.55245,5.64316,0
          -73.55251,5.64326,0
          -73.55257,5.64327,0
          -73.55264,5.64326,0
          -73.55269,5.64326,0
          -73.55275,5.64325,0
          -73.55277,5.64323,0
          -73.55285,5.64319,0
          -73.55287,5.64318,0
          -73.55297,5.64313,0
          -73.55301,5.64312,0
          -73.55303,5.64312,0
          -73.55306,5.64312,0
          -73.55311,5.64312,0
          -73.55317,5.64313,0
          -73.55334,5.64316,0
          -73.55351,5.64319,0
          -73.55358,5.64319,0
          -73.55363,5.64319,0
          -73.55378,5.64317,0
          -73.55381,5.64317,0
          -73.55404,5.64313,0
          -73.55417,5.64311,0
          -73.55426,5.64311,0
          -73.55437,5.64311,0
          -73.55443,5.64311,0
          -73.5545,5.64313,0
          -73.55455,5.64313,0
          -73.55463,5.64313,0
          -73.55475,5.64311,0
          -73.55499,5.64311,0
          -73.55518,5.64312,0
          -73.55523,5.64312,0
          -73.55527,5.64312,0
          -73.55534,5.6431,0
          -73.55539,5.64308,0
          -73.55551,5.64302,0
          -73.55577,5.64288,0
          -73.5559,5.6428,0
          -73.55598,5.64274,0
          -73.55602,5.64271,0
          -73.55609,5.64267,0
          -73.55622,5.64262,0
          -73.55635,5.64257,0
          -73.55649,5.6425,0
          -73.55656,5.64245,0
          -73.55664,5.6424,0
          -73.55668,5.64238,0
          -73.55672,5.64237,0
          -73.55678,5.64236,0
          -73.55687,5.64235,0
          -73.55705,5.64234,0
          -73.5571,5.64234,0
          -73.55713,5.64233,0
          -73.55716,5.64233,0
          -73.5572,5.64231,0
          -73.55732,5.64225,0
          -73.55736,5.64224,0
          -73.55752,5.64217,0
          -73.55753,5.64217,0
          -73.55759,5.64214,0
          -73.55763,5.64212,0
          -73.55768,5.64208,0
          -73.55778,5.64201,0
          -73.55785,5.64197,0
          -73.55797,5.64189,0
          -73.55816,5.6418,0
          -73.55826,5.64175,0
          -73.5585,5.64166,0
          -73.55869,5.64158,0
          -73.55881,5.64153,0
          -73.55889,5.64149,0
          -73.55896,5.64148,0
          -73.55899,5.64147,0
          -73.55903,5.64146,0
          -73.55911,5.64144,0
          -73.55921,5.6414,0
          -73.5594,5.64132,0
          -73.55942,5.64131,0
          -73.55945,5.6413,0
          -73.55948,5.6413,0
          -73.55949,5.64129,0
          -73.5595,5.64129,0
          -73.55953,5.6413,0
          -73.55957,5.64131,0
          -73.55962,5.64133,0
          -73.55968,5.64136,0
          -73.55975,5.64139,0
          -73.55985,5.64144,0
          -73.56008,5.64156,0
          -73.56037,5.6417,0
          -73.56049,5.64175,0
          -73.56066,5.64182,0
          -73.56082,5.64189,0
          -73.56099,5.64197,0
          -73.56125,5.64208,0
          -73.56144,5.64215,0
          -73.56156,5.64219,0
          -73.56166,5.64221,0
          -73.56179,5.64224,0
          -73.56218,5.64231,0
          -73.56242,5.64235,0
          -73.56259,5.64238,0
          -73.56263,5.64238,0
          -73.56266,5.64237,0
          -73.56268,5.64236,0
          -73.56271,5.64235,0
          -73.56273,5.64234,0
          -73.56289,5.64226,0
          -73.56295,5.64223,0
          -73.5631,5.64216,0
          -73.56318,5.64214,0
          -73.56324,5.64213,0
          -73.56328,5.64213,0
          -73.56338,5.64214,0
          -73.56347,5.64215,0
          -73.56356,5.64217,0
          -73.56369,5.64219,0
          -73.56376,5.64221,0
          -73.56379,5.64222,0
          -73.56389,5.64226,0
          -73.56408,5.64234,0
          -73.56422,5.64239,0
          -73.56436,5.64243,0
          -73.5645,5.64246,0
          -73.56462,5.64249,0
          -73.56466,5.6425,0
          -73.56472,5.64251,0
          -73.56485,5.64255,0
          -73.56499,5.64259,0
          -73.5651,5.64262,0
          -73.56515,5.64264,0
          -73.56517,5.64264,0
          -73.56519,5.64264,0
          -73.56521,5.64263,0
          -73.5654,5.64259,0
          -73.56549,5.64257,0
          -73.56552,5.64257,0
          -73.56567,5.64253,0
          -73.56578,5.6425,0
          -73.56602,5.64243,0
          -73.56616,5.6424,0
          -73.56665,5.64233,0
          -73.56682,5.64244,0
          -73.56697,5.64255,0
          -73.56709,5.64264,0
          -73.56718,5.64274,0
          -73.5673,5.64293,0
          -73.56739,5.64317,0
          -73.56751,5.64348,0
          -73.56758,5.64371,0
          -73.56763,5.64425,0
          -73.56769,5.64497,0
          -73.56771,5.64525,0
          -73.56772,5.64527,0
          -73.56773,5.64529,0
          -73.56775,5.64531,0
          -73.56779,5.64533,0
          -73.56782,5.64534,0
          -73.56792,5.64537,0
          -73.56802,5.64536,0
          -73.56838,5.64534,0
          -73.56914,5.64525,0
          -73.56946,5.64528,0
          -73.56949,5.64528,0
          -73.5696,5.64531,0
          -73.56974,5.64536,0
          -73.56986,5.64542,0
          -73.56995,5.64549,0
          -73.57005,5.6456,0
          -73.57008,5.64566,0
          -73.57012,5.64574,0
          -73.57017,5.64593,0
          -73.57021,5.64614,0
          -73.57023,5.64624,0
          -73.57027,5.64631,0
          -73.57032,5.64642,0
          -73.57047,5.64658,0
          -73.57068,5.64674,0
          -73.57091,5.64692,0
          -73.57112,5.64711,0
          -73.57119,5.64716,0
          -73.57161,5.64748,0
          -73.5719,5.64771,0
          -73.57204,5.64782,0
          -73.57228,5.64801,0
          -73.57233,5.64805,0
          -73.57276,5.64837,0
          -73.57284,5.64843,0
          -73.57382,5.64906,0
          -73.57407,5.64917,0
          -73.57437,5.64934,0
          -73.5745,5.64944,0
          -73.5747,5.64958,0
          -73.57528,5.65004,0
          -73.57535,5.65012,0
          -73.57539,5.65017,0
          -73.57547,5.65025,0
          -73.5755,5.65028,0
          -73.57566,5.65058,0
          -73.57574,5.65079,0
          -73.57578,5.6509,0
          -73.57587,5.65115,0
          -73.57596,5.6514,0
          -73.57602,5.65157,0
          -73.57607,5.65171,0
          -73.57608,5.65174,0
          -73.5761,5.65181,0
          -73.57619,5.65209,0
          -73.5762,5.65213,0
          -73.57624,5.65226,0
          -73.5763,5.65235,0
          -73.57635,5.6524,0
          -73.5764,5.65245,0
          -73.57653,5.65257,0
          -73.57673,5.65273,0
          -73.577,5.65296,0
          -73.57716,5.65313,0
          -73.57723,5.65321,0
          -73.57748,5.65349,0
          -73.57786,5.65395,0
          -73.57797,5.65409,0
          -73.57802,5.65414,0
          -73.57804,5.65417,0
          -73.57809,5.65423,0
          -73.57839,5.65463,0
          -73.5788,5.65522,0
          -73.57902,5.65556,0
          -73.57931,5.65601,0
          -73.57941,5.65616,0
          -73.57943,5.6562,0
          -73.57945,5.65622,0
          -73.57951,5.65631,0
          -73.57966,5.65653,0
          -73.58012,5.65717,0
          -73.58038,5.6575,0
          -73.58066,5.65796,0
          -73.58087,5.65837,0
          -73.58104,5.65872,0
          -73.58125,5.6591,0
          -73.58133,5.65926,0
          -73.58145,5.65943,0
          -73.58166,5.65965,0
          -73.58193,5.65995,0
          -73.58213,5.66014,0
          -73.58237,5.66028,0
          -73.58264,5.66036,0
          -73.58271,5.66038,0
          -73.58291,5.6604,0
          -73.58301,5.66042,0
          -73.58311,5.66044,0
          -73.58329,5.66051,0
          -73.58346,5.66059,0
          -73.58381,5.66075,0
          -73.5842,5.66096,0
          -73.58458,5.66115,0
          -73.58487,5.66129,0
          -73.58557,5.66165,0
          -73.58595,5.6619,0
          -73.58622,5.6621,0
          -73.58629,5.66216,0
          -73.58636,5.66222,0
          -73.58641,5.66226,0
          -73.58648,5.66232,0
          -73.58657,5.66241,0
          -73.58664,5.66249,0
          -73.58667,5.66255,0
          -73.58668,5.66259,0
          -73.58669,5.66273,0
          -73.58671,5.66299,0
          -73.58671,5.66329,0
          -73.5867,5.66335,0
          -73.58667,5.66359,0
          -73.58664,5.66373,0
          -73.5866,5.66391,0
          -73.58658,5.664,0
          -73.58656,5.66409,0
          -73.58653,5.66426,0
          -73.58653,5.66427,0
          -73.58649,5.66444,0
          -73.58648,5.66451,0
          -73.58645,5.66462,0
          -73.58644,5.66469,0
          -73.58643,5.6648,0
          -73.58642,5.66484,0
          -73.58642,5.66495,0
          -73.58642,5.66498,0
          -73.58642,5.66506,0
          -73.58642,5.66513,0
          -73.58642,5.66516,0
          -73.58641,5.66526,0
          -73.5864,5.66534,0
          -73.58639,5.6654,0
          -73.58638,5.66551,0
          -73.58638,5.66552,0
          -73.58639,5.6656,0
          -73.5864,5.66569,0
          -73.58642,5.66579,0
          -73.58644,5.66587,0
          -73.58647,5.66594,0
          -73.5865,5.66604,0
          -73.58654,5.66615,0
          -73.58656,5.66621,0
          -73.58658,5.6663,0
          -73.58658,5.66637,0
          -73.58656,5.66643,0
          -73.58654,5.66649,0
          -73.58649,5.66654,0
          -73.58647,5.66657,0
          -73.58645,5.6666,0
          -73.5864,5.66666,0
          -73.58638,5.66668,0
          -73.58626,5.66682,0
          -73.58625,5.66683,0
          -73.58615,5.66696,0
          -73.58613,5.66698,0
          -73.58603,5.66709,0
          -73.58602,5.6671,0
          -73.58597,5.66718,0
          -73.58594,5.66725,0
          -73.58593,5.66725,0
          -73.58591,5.66733,0
          -73.58591,5.66739,0
          -73.5859,5.66742,0
          -73.5859,5.66752,0
          -73.5859,5.6676,0
          -73.5859,5.66774,0
          -73.58591,5.66778,0
          -73.58593,5.66796,0
          -73.58593,5.668,0
          -73.58594,5.66814,0
          -73.58595,5.66826,0
          -73.58595,5.66832,0
          -73.58597,5.6685,0
          -73.58597,5.66851,0
          -73.58598,5.66862,0
          -73.58599,5.66868,0
          -73.58599,5.66871,0
          -73.586,5.66881,0
          -73.586,5.66886,0
          -73.58599,5.66887,0
          -73.58596,5.66897,0
          -73.58594,5.66903,0
          -73.5859,5.66909,0
          -73.58584,5.66918,0
          -73.58579,5.66925,0
          -73.58575,5.66934,0
          -73.58573,5.6694,0
          -73.5857,5.66951,0
          -73.58569,5.66955,0
          -73.58569,5.66969,0
          -73.58569,5.66974,0
          -73.5857,5.66987,0
          -73.58571,5.66992,0
          -73.58573,5.67004,0
          -73.58573,5.67009,0
          -73.58575,5.67019,0
          -73.58576,5.67022,0
          -73.58577,5.67033,0
          -73.58578,5.6704,0
          -73.58579,5.67042,0
          -73.5858,5.67055,0
          -73.58581,5.67058,0
          -73.58581,5.67066,0
          -73.5858,5.67076,0
          -73.5858,5.67093,0
          -73.5858,5.67094,0
          -73.5858,5.67112,0
          -73.5858,5.67128,0
          -73.5858,5.6713,0
          -73.5858,5.67148,0
          -73.5858,5.67155,0
          -73.58581,5.67166,0
          -73.58581,5.67184,0
          -73.5858,5.67188,0
          -73.58579,5.672,0
          -73.58576,5.67214,0
          -73.58574,5.67223,0
          -73.58573,5.67227,0
          -73.58572,5.67229,0
          -73.58572,5.6723,0
          -73.58572,5.67233,0
          -73.58572,5.67237,0
          -73.58574,5.67245,0
          -73.58577,5.67251,0
          -73.58586,5.67262,0
          -73.58589,5.67267,0
          -73.58597,5.67276,0
          -73.58606,5.67287,0
          -73.5861,5.67296,0
          -73.58613,5.67306,0
          -73.58614,5.67319,0
          -73.58614,5.67325,0
          -73.58615,5.67348,0
          -73.58615,5.67372,0
          -73.58614,5.67379,0
          -73.58614,5.67386,0
          -73.58611,5.67395,0
          -73.58611,5.67397,0
          -73.58608,5.67404,0
          -73.58607,5.67407,0
          -73.58597,5.6743,0
          -73.58596,5.67432,0
          -73.5859,5.67447,0
          -73.58583,5.67463,0
          -73.58577,5.67478,0
          -73.58572,5.67492,0
          -73.58569,5.67505,0
          -73.58567,5.67515,0
          -73.58565,5.67551,0
          -73.58564,5.67568,0
          -73.58564,5.67573,0
          -73.58565,5.67596,0
          -73.58567,5.67603,0
          -73.58569,5.67608,0
          -73.58571,5.67613,0
          -73.58574,5.67617,0
          -73.58578,5.67622,0
          -73.58582,5.67626,0
          -73.58589,5.67632,0
          -73.58595,5.67636,0
          -73.58602,5.67642,0
          -73.58606,5.67647,0
          -73.58607,5.6765,0
          -73.58608,5.67654,0
          -73.58608,5.6766,0
          -73.58607,5.67674,0
          -73.58607,5.67678,0
          -73.58607,5.67682,0
          -73.58606,5.67692,0
          -73.58606,5.67701,0
          -73.58606,5.67715,0
          -73.58607,5.67723,0
          -73.58608,5.67731,0
          -73.58609,5.67731,0
          -73.58614,5.67749,0
          -73.58619,5.67761,0
          -73.58628,5.67782,0
          -73.58629,5.67783,0
          -73.58632,5.678,0
          -73.58633,5.67809,0
          -73.58631,5.67817,0
          -73.5863,5.67825,0
          -73.58628,5.67835,0
          -73.58627,5.6784,0
          -73.5862,5.6787,0
          -73.58609,5.67915,0
          -73.58607,5.67924,0
          -73.58607,5.67934,0
          -73.58606,5.6794,0
          -73.58606,5.67949,0
          -73.58606,5.67962,0
          -73.58609,5.67986,0
          -73.58609,5.67995,0
          -73.58609,5.68004,0
          -73.58609,5.68012,0
          -73.58608,5.68019,0
          -73.58607,5.6803,0
          -73.58604,5.68039,0
          -73.58602,5.68047,0
          -73.58601,5.6805,0
          -73.58596,5.68064,0
          -73.58589,5.68081,0
          -73.58587,5.68088,0
          -73.58586,5.68099,0
          -73.5858,5.68134,0
          -73.58581,5.68148,0
          -73.58584,5.68158,0
          -73.58589,5.6817,0
          -73.58594,5.68182,0
          -73.58616,5.68223,0
          -73.58617,5.68226,0
          -73.58636,5.68265,0
          -73.58647,5.68291,0
          -73.58652,5.68302,0
          -73.58666,5.68331,0
          -73.58682,5.68369,0
          -73.58684,5.68373,0
          -73.58706,5.68375,0
          -73.58746,5.68374,0
          -73.58757,5.68373,0
          -73.58763,5.68373,0
          -73.5878,5.68373,0
          -73.58792,5.68374,0
          -73.58802,5.68377,0
          -73.58826,5.68386,0
          -73.58851,5.68394,0
          -73.58861,5.68397,0
          -73.5887,5.684,0
          -73.58878,5.68403,0
          -73.58896,5.68408,0
          -73.58897,5.68408,0
          -73.58911,5.68412,0
          -73.58913,5.68412,0
          -73.58922,5.68413,0
          -73.58934,5.68413,0
          -73.58945,5.68413,0
          -73.58961,5.68408,0
          -73.58978,5.68401,0
          -73.59004,5.6839,0
          -73.59006,5.68389,0
          -73.59032,5.68379,0
          -73.5908,5.68362,0
          -73.59107,5.68356,0
          -73.59134,5.6835,0
          -73.59145,5.68348,0
          -73.59154,5.68345,0
          -73.59155,5.68345,0
          -73.5916,5.68343,0
          -73.59165,5.6834,0
          -73.5917,5.68336,0
          -73.59177,5.68331,0
          -73.59189,5.68321,0
          -73.5919,5.6832,0
          -73.59199,5.68314,0
          -73.59211,5.68304,0
          -73.59213,5.68302,0
          -73.59256,5.68268,0
          -73.59261,5.68264,0
          -73.5927,5.68258,0
          -73.59274,5.68254,0
          -73.59292,5.68237,0
          -73.59319,5.68212,0
          -73.59338,5.68192,0
          -73.59345,5.68184,0
          -73.59347,5.68182,0
          -73.59351,5.68176,0
          -73.59356,5.68167,0
          -73.59373,5.68125,0
          -73.59385,5.68101,0
          -73.59395,5.68086,0
          -73.59413,5.68059,0
          -73.59415,5.68056,0
          -73.59419,5.6805,0
          -73.59425,5.68041,0
          -73.59433,5.6803,0
          -73.59454,5.67993,0
          -73.59467,5.67973,0
          -73.59476,5.67963,0
          -73.59479,5.6796,0
          -73.59491,5.67941,0
          -73.59498,5.67925,0
          -73.59503,5.67912,0
          -73.59507,5.67897,0
          -73.59508,5.67885,0
          -73.59508,5.67876,0
          -73.59508,5.67872,0
          -73.59508,5.67858,0
          -73.59508,5.67856,0
          -73.59507,5.67854,0
          -73.59505,5.6784,0
          -73.59504,5.67836,0
        </coordinates>
      </LineString>
    </Placemark>
    <Placemark>
      <name>Villa de Leyva, Boyaca</name>
      <styleUrl>#icon-1899-DB4436-nodesc</styleUrl>
      <Point>
        <coordinates>
          -73.5271183,5.6364695,0
        </coordinates>
      </Point>
    </Placemark>
    <Placemark>
      <name>Santo Ecce Homo, Santa Sofía, Boyaca</name>
      <styleUrl>#icon-1899-DB4436-nodesc</styleUrl>
      <Point>
        <coordinates>
          -73.5910748,5.683555,0
        </coordinates>
      </Point>
    </Placemark>
    <Placemark>
      <name>Monasterio de Santo Eccehomo, Santo Ecce Homo, Santa Sofía, Boyaca</name>
      <styleUrl>#icon-1899-DB4436-nodesc</styleUrl>
      <Point>
        <coordinates>
          -73.5950431,5.678364,0
        </coordinates>
      </Point>
    </Placemark>
  </Document>
</kml>
