<?xml version="1.0" encoding="UTF-8"?>
<kml xmlns="http://www.opengis.net/kml/2.2">
  <Document>
    <name>Directions from Monasterio de Santo Eccehomo, Santo Ecce Homo, Santa Sofía, Boyaca to Tinjacá, Boyaca</name>
    <Style id="icon-1899-DB4436-nodesc-normal">
      <IconStyle>
        <color>ff3644db</color>
        <scale>1</scale>
        <Icon>
          <href>https://www.gstatic.com/mapspro/images/stock/503-wht-blank_maps.png</href>
        </Icon>
        <hotSpot x="32" xunits="pixels" y="64" yunits="insetPixels"/>
      </IconStyle>
      <LabelStyle>
        <scale>0</scale>
      </LabelStyle>
      <BalloonStyle>
        <text><![CDATA[<h3>$[name]</h3>]]></text>
      </BalloonStyle>
    </Style>
    <Style id="icon-1899-DB4436-nodesc-highlight">
      <IconStyle>
        <color>ff3644db</color>
        <scale>1</scale>
        <Icon>
          <href>https://www.gstatic.com/mapspro/images/stock/503-wht-blank_maps.png</href>
        </Icon>
        <hotSpot x="32" xunits="pixels" y="64" yunits="insetPixels"/>
      </IconStyle>
      <LabelStyle>
        <scale>1</scale>
      </LabelStyle>
      <BalloonStyle>
        <text><![CDATA[<h3>$[name]</h3>]]></text>
      </BalloonStyle>
    </Style>
    <StyleMap id="icon-1899-DB4436-nodesc">
      <Pair>
        <key>normal</key>
        <styleUrl>#icon-1899-DB4436-nodesc-normal</styleUrl>
      </Pair>
      <Pair>
        <key>highlight</key>
        <styleUrl>#icon-1899-DB4436-nodesc-highlight</styleUrl>
      </Pair>
    </StyleMap>
    <Style id="line-1267FF-5000-nodesc-normal">
      <LineStyle>
        <color>ffff6712</color>
        <width>5</width>
      </LineStyle>
      <BalloonStyle>
        <text><![CDATA[<h3>$[name]</h3>]]></text>
      </BalloonStyle>
    </Style>
    <Style id="line-1267FF-5000-nodesc-highlight">
      <LineStyle>
        <color>ffff6712</color>
        <width>7.5</width>
      </LineStyle>
      <BalloonStyle>
        <text><![CDATA[<h3>$[name]</h3>]]></text>
      </BalloonStyle>
    </Style>
    <StyleMap id="line-1267FF-5000-nodesc">
      <Pair>
        <key>normal</key>
        <styleUrl>#line-1267FF-5000-nodesc-normal</styleUrl>
      </Pair>
      <Pair>
        <key>highlight</key>
        <styleUrl>#line-1267FF-5000-nodesc-highlight</styleUrl>
      </Pair>
    </StyleMap>
    <Placemark>
      <name>Directions from Monasterio de Santo Eccehomo, Santo Ecce Homo, Santa Sofía, Boyaca to Tinjacá, Boyaca</name>
      <styleUrl>#line-1267FF-5000-nodesc</styleUrl>
      <LineString>
        <tessellate>1</tessellate>
        <coordinates>
          -73.59504,5.67836,0
          -73.59507,5.67854,0
          -73.59508,5.67856,0
          -73.59508,5.67885,0
          -73.59507,5.67897,0
          -73.59503,5.67912,0
          -73.59491,5.67941,0
          -73.59479,5.6796,0
          -73.59491,5.67953,0
          -73.59505,5.67947,0
          -73.59512,5.67945,0
          -73.5953,5.67945,0
          -73.59638,5.67959,0
          -73.59717,5.67972,0
          -73.59721,5.67974,0
          -73.59723,5.6797,0
          -73.59732,5.67957,0
          -73.59733,5.67953,0
          -73.59735,5.6795,0
          -73.59739,5.67932,0
          -73.59743,5.67921,0
          -73.59744,5.67914,0
          -73.59738,5.67849,0
          -73.59738,5.6783,0
          -73.5974,5.67814,0
          -73.59742,5.67809,0
          -73.59745,5.67806,0
          -73.59748,5.67804,0
          -73.59812,5.67787,0
          -73.59814,5.67786,0
          -73.59815,5.67785,0
          -73.59817,5.67784,0
          -73.59817,5.67783,0
          -73.59819,5.67781,0
          -73.59827,5.67769,0
          -73.59829,5.67765,0
          -73.59836,5.67757,0
          -73.59839,5.67755,0
          -73.59848,5.67746,0
          -73.59859,5.67738,0
          -73.59861,5.67736,0
          -73.59864,5.67729,0
          -73.59864,5.67721,0
          -73.59868,5.67709,0
          -73.59871,5.67706,0
          -73.59873,5.67703,0
          -73.5989,5.67691,0
          -73.59906,5.67684,0
          -73.59908,5.67684,0
          -73.59911,5.67683,0
          -73.59916,5.67683,0
          -73.59918,5.67682,0
          -73.59919,5.67682,0
          -73.59921,5.67681,0
          -73.59937,5.67677,0
          -73.5994,5.67677,0
          -73.59943,5.67676,0
          -73.59948,5.67676,0
          -73.59951,5.67675,0
          -73.59955,5.67675,0
          -73.59957,5.67674,0
          -73.59959,5.67674,0
          -73.59961,5.67673,0
          -73.59963,5.67673,0
          -73.59966,5.67674,0
          -73.5997,5.67674,0
          -73.59972,5.67675,0
          -73.59974,5.67675,0
          -73.59978,5.67677,0
          -73.59982,5.67677,0
          -73.59983,5.67678,0
          -73.59991,5.67678,0
          -73.6,5.6768,0
          -73.60013,5.6768,0
          -73.60017,5.67681,0
          -73.60023,5.67681,0
          -73.60035,5.67683,0
          -73.60044,5.67683,0
          -73.60047,5.67682,0
          -73.60052,5.67683,0
          -73.60065,5.67683,0
          -73.60079,5.67688,0
          -73.60089,5.67688,0
          -73.60091,5.67687,0
          -73.60105,5.67687,0
          -73.60107,5.67688,0
          -73.60112,5.67688,0
          -73.60116,5.67689,0
          -73.60125,5.6769,0
          -73.60136,5.6769,0
          -73.60141,5.67688,0
          -73.60142,5.67688,0
          -73.60152,5.67683,0
          -73.60169,5.67671,0
          -73.60182,5.67665,0
          -73.60214,5.67644,0
          -73.60223,5.67641,0
          -73.60232,5.67641,0
          -73.60234,5.67642,0
          -73.60246,5.67644,0
          -73.60263,5.67653,0
          -73.6027,5.67658,0
          -73.60276,5.67661,0
          -73.60282,5.67662,0
          -73.60284,5.67663,0
          -73.60289,5.67663,0
          -73.60291,5.67662,0
          -73.60293,5.6766,0
          -73.60295,5.67659,0
          -73.60298,5.67652,0
          -73.60298,5.6765,0
          -73.603,5.67644,0
          -73.60302,5.67618,0
          -73.60304,5.67609,0
          -73.60311,5.67589,0
          -73.60313,5.67581,0
          -73.60313,5.67577,0
          -73.60314,5.67573,0
          -73.60314,5.67569,0
          -73.60315,5.67563,0
          -73.60317,5.67558,0
          -73.60319,5.67555,0
          -73.6032,5.67552,0
          -73.60325,5.67547,0
          -73.60327,5.67546,0
          -73.6033,5.67543,0
          -73.60333,5.67542,0
          -73.60355,5.67528,0
          -73.6036,5.67523,0
          -73.60362,5.67522,0
          -73.60365,5.67517,0
          -73.60366,5.67514,0
          -73.6037,5.67507,0
          -73.60377,5.675,0
          -73.60422,5.67463,0
          -73.60434,5.67456,0
          -73.60451,5.67443,0
          -73.60458,5.67434,0
          -73.60486,5.6739,0
          -73.60497,5.67377,0
          -73.60503,5.67375,0
          -73.60509,5.67372,0
          -73.60518,5.67372,0
          -73.60545,5.67378,0
          -73.6055,5.67378,0
          -73.60559,5.67376,0
          -73.6057,5.67367,0
          -73.60579,5.67357,0
          -73.60581,5.67353,0
          -73.60581,5.67348,0
          -73.60579,5.67344,0
          -73.60575,5.67339,0
          -73.60573,5.67335,0
          -73.60568,5.6732,0
          -73.60568,5.67313,0
          -73.6057,5.67308,0
          -73.60582,5.67297,0
          -73.60596,5.67281,0
          -73.60598,5.67276,0
          -73.60598,5.67271,0
          -73.60597,5.67265,0
          -73.60597,5.67255,0
          -73.60599,5.67247,0
          -73.60601,5.67244,0
          -73.60602,5.67239,0
          -73.60603,5.67237,0
          -73.60603,5.67231,0
          -73.60604,5.67229,0
          -73.60604,5.67227,0
          -73.60603,5.67223,0
          -73.60603,5.6722,0
          -73.60605,5.67213,0
          -73.60608,5.6721,0
          -73.60609,5.67207,0
          -73.60611,5.67205,0
          -73.60643,5.67163,0
          -73.60662,5.67134,0
          -73.60668,5.67118,0
          -73.60672,5.67098,0
          -73.60684,5.67058,0
          -73.60688,5.67049,0
          -73.60689,5.67049,0
          -73.60692,5.67042,0
          -73.60697,5.67034,0
          -73.60698,5.67033,0
          -73.60701,5.67028,0
          -73.60734,5.66997,0
          -73.60737,5.66996,0
          -73.60739,5.66994,0
          -73.60741,5.66993,0
          -73.60742,5.66992,0
          -73.60744,5.66991,0
          -73.60745,5.6699,0
          -73.60752,5.66987,0
          -73.60754,5.66987,0
          -73.60756,5.66986,0
          -73.6076,5.66985,0
          -73.60771,5.6698,0
          -73.60773,5.66978,0
          -73.60775,5.66977,0
          -73.60784,5.66968,0
          -73.60812,5.66947,0
          -73.60851,5.66922,0
          -73.60863,5.66916,0
          -73.60884,5.66911,0
          -73.60889,5.66911,0
          -73.60893,5.66912,0
          -73.60896,5.66912,0
          -73.60911,5.66916,0
          -73.6092,5.66916,0
          -73.60923,5.66915,0
          -73.60932,5.66915,0
          -73.60933,5.66914,0
          -73.60935,5.66914,0
          -73.60942,5.66911,0
          -73.60945,5.66908,0
          -73.60946,5.66906,0
          -73.60946,5.66904,0
          -73.60947,5.66902,0
          -73.60947,5.66895,0
          -73.60946,5.6689,0
          -73.60946,5.6688,0
          -73.60948,5.66871,0
          -73.60951,5.66846,0
          -73.60952,5.66842,0
          -73.6095,5.66763,0
          -73.60951,5.6676,0
          -73.60953,5.66746,0
          -73.60953,5.66716,0
          -73.60955,5.66709,0
          -73.60956,5.66702,0
          -73.60959,5.66692,0
          -73.60965,5.6668,0
          -73.60968,5.66677,0
          -73.6097,5.66674,0
          -73.60974,5.6667,0
          -73.6099,5.6665,0
          -73.6099,5.66649,0
          -73.60996,5.66644,0
          -73.61005,5.6664,0
          -73.61012,5.66639,0
          -73.61018,5.66639,0
          -73.61026,5.6664,0
          -73.61048,5.66646,0
          -73.6106,5.66646,0
          -73.61063,5.66645,0
          -73.61067,5.66645,0
          -73.61076,5.6664,0
          -73.61077,5.6664,0
          -73.61081,5.66638,0
          -73.61106,5.6663,0
          -73.61117,5.66624,0
          -73.61123,5.66616,0
          -73.61131,5.666,0
          -73.61133,5.66594,0
          -73.61134,5.66587,0
          -73.61134,5.6658,0
          -73.61133,5.66572,0
          -73.61133,5.66564,0
          -73.61136,5.66548,0
          -73.61137,5.66547,0
          -73.61146,5.66531,0
          -73.61147,5.6653,0
          -73.61157,5.66512,0
          -73.6117,5.66472,0
          -73.61177,5.66461,0
          -73.61179,5.6646,0
          -73.61185,5.66455,0
          -73.61187,5.66454,0
          -73.61189,5.66454,0
          -73.61192,5.66451,0
          -73.61192,5.66449,0
          -73.61193,5.66448,0
          -73.61193,5.66446,0
          -73.61194,5.66443,0
          -73.61201,5.66431,0
          -73.61209,5.66426,0
          -73.61223,5.66415,0
          -73.61229,5.66408,0
          -73.61232,5.66402,0
          -73.61232,5.66401,0
          -73.61249,5.66335,0
          -73.61252,5.66327,0
          -73.61252,5.66325,0
          -73.61258,5.663,0
          -73.61262,5.66272,0
          -73.61262,5.66264,0
          -73.61261,5.66262,0
          -73.61261,5.66242,0
          -73.6126,5.6624,0
          -73.6126,5.66239,0
          -73.61259,5.66237,0
          -73.61259,5.66236,0
          -73.61258,5.66235,0
          -73.61258,5.66232,0
          -73.61257,5.66229,0
          -73.61257,5.66227,0
          -73.61256,5.66225,0
          -73.61256,5.66218,0
          -73.61251,5.66189,0
          -73.61251,5.66186,0
          -73.61252,5.66184,0
          -73.61252,5.66183,0
          -73.61255,5.66177,0
          -73.61259,5.66173,0
          -73.61261,5.6617,0
          -73.61263,5.66165,0
          -73.61263,5.66162,0
          -73.61264,5.66158,0
          -73.61264,5.66135,0
          -73.61263,5.66119,0
          -73.61262,5.66114,0
          -73.61263,5.66105,0
          -73.61264,5.66103,0
          -73.61264,5.66099,0
          -73.61265,5.66095,0
          -73.61265,5.66093,0
          -73.61267,5.66089,0
          -73.6127,5.66076,0
          -73.6127,5.66069,0
          -73.61269,5.66066,0
          -73.61269,5.66063,0
          -73.61268,5.66061,0
          -73.6127,5.66007,0
          -73.61275,5.65979,0
          -73.61275,5.65972,0
          -73.61276,5.65969,0
          -73.61276,5.65965,0
          -73.61275,5.65961,0
          -73.61275,5.65953,0
          -73.61276,5.65945,0
          -73.61283,5.65918,0
          -73.61286,5.65911,0
          -73.61287,5.65907,0
          -73.61287,5.65903,0
          -73.61288,5.65898,0
          -73.61288,5.65889,0
          -73.61289,5.6588,0
          -73.61292,5.65867,0
          -73.61295,5.65859,0
          -73.61306,5.65837,0
          -73.61315,5.65822,0
          -73.61319,5.65809,0
          -73.61316,5.65777,0
          -73.61319,5.65764,0
          -73.61319,5.65748,0
          -73.61315,5.65728,0
          -73.61315,5.65721,0
          -73.61318,5.65706,0
          -73.61318,5.65703,0
          -73.61319,5.657,0
          -73.61319,5.65683,0
          -73.6132,5.65679,0
          -73.6132,5.65677,0
          -73.61322,5.65674,0
          -73.61324,5.65669,0
          -73.61339,5.65644,0
          -73.61345,5.65636,0
          -73.61391,5.6559,0
          -73.61401,5.65576,0
          -73.61404,5.6557,0
          -73.61404,5.65569,0
          -73.61405,5.65567,0
          -73.61406,5.65563,0
          -73.61406,5.65558,0
          -73.61407,5.65553,0
          -73.61407,5.6555,0
          -73.61413,5.65536,0
          -73.61414,5.65535,0
          -73.61429,5.65512,0
          -73.61434,5.65502,0
          -73.61436,5.65494,0
          -73.61437,5.65482,0
          -73.61434,5.65476,0
          -73.6143,5.65472,0
          -73.61427,5.65471,0
          -73.61417,5.65465,0
          -73.61415,5.65463,0
          -73.61411,5.65456,0
          -73.61407,5.6544,0
          -73.61402,5.65392,0
          -73.61401,5.65367,0
          -73.61404,5.65356,0
          -73.61404,5.65353,0
          -73.61407,5.65341,0
          -73.61407,5.65302,0
          -73.61404,5.65266,0
          -73.61401,5.65251,0
          -73.614,5.65249,0
          -73.614,5.65246,0
          -73.6139,5.65227,0
          -73.61385,5.65221,0
          -73.61381,5.65219,0
          -73.61368,5.6521,0
          -73.61367,5.65208,0
          -73.61358,5.65202,0
          -73.61344,5.65196,0
          -73.61329,5.6518,0
          -73.61326,5.65175,0
          -73.61319,5.65166,0
          -73.61315,5.65154,0
          -73.61314,5.65142,0
          -73.61305,5.65084,0
          -73.61302,5.65071,0
          -73.61299,5.65063,0
          -73.61298,5.65058,0
          -73.61295,5.65054,0
          -73.61288,5.65039,0
          -73.61288,5.65038,0
          -73.61283,5.65027,0
          -73.6128,5.65022,0
          -73.6127,5.65013,0
          -73.61267,5.65009,0
          -73.61221,5.64964,0
          -73.61217,5.64958,0
          -73.61214,5.6495,0
          -73.61191,5.64905,0
          -73.61179,5.64889,0
          -73.61165,5.64874,0
          -73.61144,5.64857,0
          -73.61134,5.64842,0
          -73.61134,5.64841,0
          -73.61128,5.64832,0
          -73.61113,5.64792,0
          -73.61113,5.6479,0
          -73.61107,5.64773,0
          -73.61107,5.64754,0
          -73.6111,5.64739,0
          -73.61116,5.64723,0
          -73.61119,5.64719,0
          -73.61139,5.64705,0
          -73.61152,5.64694,0
          -73.61157,5.64687,0
          -73.61173,5.6466,0
          -73.61174,5.64654,0
          -73.61174,5.6463,0
          -73.61172,5.64617,0
          -73.61168,5.64602,0
          -73.61168,5.64593,0
          -73.61172,5.64587,0
          -73.61174,5.64586,0
          -73.61187,5.64574,0
          -73.61195,5.64569,0
          -73.61206,5.64564,0
          -73.61209,5.64562,0
          -73.61213,5.64555,0
          -73.61214,5.64552,0
          -73.61216,5.64538,0
          -73.61216,5.64514,0
          -73.61215,5.64503,0
          -73.61213,5.64499,0
          -73.61206,5.64474,0
          -73.61205,5.64465,0
          -73.61208,5.64366,0
          -73.61224,5.64307,0
          -73.61224,5.64304,0
          -73.61215,5.64286,0
          -73.61212,5.64277,0
          -73.61212,5.64264,0
          -73.61213,5.64257,0
          -73.61217,5.64241,0
          -73.61224,5.64226,0
          -73.61254,5.64177,0
          -73.61266,5.64162,0
          -73.61304,5.64124,0
          -73.61305,5.64122,0
          -73.61342,5.64082,0
          -73.6137,5.64046,0
          -73.61372,5.64042,0
          -73.61385,5.64025,0
          -73.6139,5.64021,0
          -73.61398,5.64012,0
          -73.61398,5.64011,0
          -73.61428,5.63975,0
          -73.61431,5.6397,0
          -73.61432,5.63969,0
          -73.61442,5.63954,0
          -73.61454,5.63941,0
          -73.61456,5.6394,0
          -73.61465,5.6393,0
          -73.61466,5.63928,0
          -73.61469,5.63925,0
          -73.6148,5.63901,0
          -73.61483,5.63896,0
          -73.61501,5.63875,0
          -73.61526,5.63842,0
          -73.61548,5.63807,0
          -73.61574,5.63743,0
          -73.61592,5.63719,0
          -73.61601,5.63696,0
          -73.61615,5.63666,0
          -73.6163,5.6364,0
          -73.6163,5.63639,0
          -73.61651,5.63607,0
          -73.61653,5.63605,0
          -73.61654,5.63605,0
          -73.61657,5.63602,0
          -73.6167,5.63597,0
          -73.61677,5.63592,0
          -73.6168,5.63589,0
          -73.6169,5.63576,0
          -73.61696,5.63566,0
          -73.61696,5.63565,0
          -73.61703,5.63557,0
          -73.61753,5.6351,0
          -73.61773,5.63488,0
          -73.61781,5.63482,0
          -73.61787,5.63479,0
          -73.61791,5.63476,0
          -73.61796,5.63471,0
          -73.61799,5.63467,0
          -73.61802,5.63459,0
          -73.61804,5.63425,0
          -73.61812,5.63378,0
          -73.61841,5.63314,0
          -73.61866,5.6327,0
          -73.61876,5.63255,0
          -73.61878,5.63253,0
          -73.61887,5.63236,0
          -73.61889,5.63228,0
          -73.6189,5.63218,0
          -73.61888,5.63173,0
          -73.61882,5.63138,0
          -73.61883,5.63133,0
          -73.61883,5.63129,0
          -73.61885,5.63126,0
          -73.61888,5.63116,0
          -73.61899,5.63102,0
          -73.61899,5.63101,0
          -73.619,5.631,0
          -73.61903,5.63088,0
          -73.61905,5.6306,0
          -73.61904,5.63034,0
          -73.619,5.63015,0
          -73.61899,5.63013,0
          -73.61896,5.63,0
          -73.61887,5.62929,0
          -73.61888,5.6289,0
          -73.61891,5.6287,0
          -73.61912,5.62801,0
          -73.61914,5.62797,0
          -73.61914,5.62794,0
          -73.61916,5.62783,0
          -73.61913,5.6276,0
          -73.61903,5.62733,0
          -73.61902,5.62726,0
          -73.619,5.62721,0
          -73.61899,5.62677,0
          -73.619,5.62675,0
          -73.61902,5.62662,0
          -73.61904,5.62656,0
          -73.61908,5.62649,0
          -73.61917,5.62638,0
          -73.61929,5.62628,0
          -73.61973,5.62597,0
          -73.62005,5.62566,0
          -73.6204,5.62512,0
          -73.62043,5.62506,0
          -73.62045,5.62497,0
          -73.62045,5.62492,0
          -73.62046,5.62488,0
          -73.62045,5.62483,0
          -73.62045,5.62478,0
          -73.62044,5.62473,0
          -73.62001,5.62368,0
          -73.6199,5.62334,0
          -73.61983,5.62278,0
          -73.61981,5.62198,0
          -73.61988,5.62196,0
          -73.61994,5.62193,0
          -73.61998,5.62189,0
          -73.62016,5.62162,0
          -73.62021,5.62156,0
          -73.62055,5.621,0
          -73.621,5.62032,0
          -73.62251,5.61843,0
          -73.62333,5.61733,0
          -73.62354,5.61697,0
          -73.62359,5.61675,0
          -73.6236,5.61651,0
          -73.62359,5.61645,0
          -73.62359,5.61636,0
          -73.62358,5.6163,0
          -73.62358,5.61626,0
          -73.62356,5.6162,0
          -73.62353,5.61617,0
          -73.6236,5.6159,0
          -73.62381,5.61537,0
          -73.62443,5.61398,0
          -73.62471,5.61346,0
          -73.62472,5.61346,0
          -73.62485,5.61328,0
          -73.62495,5.61319,0
          -73.62512,5.61306,0
          -73.62527,5.61297,0
          -73.62541,5.6129,0
          -73.62545,5.61289,0
          -73.62554,5.61285,0
          -73.62657,5.61251,0
          -73.62706,5.61232,0
          -73.62832,5.61166,0
          -73.62833,5.61166,0
          -73.6286,5.61152,0
          -73.62894,5.61129,0
          -73.63483,5.6054,0
          -73.63487,5.60535,0
          -73.63541,5.60485,0
          -73.63558,5.60465,0
          -73.63584,5.60419,0
          -73.63684,5.60212,0
          -73.63693,5.6019,0
          -73.63695,5.60182,0
          -73.63696,5.60162,0
          -73.63697,5.60157,0
          -73.63697,5.60144,0
          -73.63694,5.60103,0
          -73.63694,5.60076,0
          -73.63704,5.60053,0
          -73.63737,5.60006,0
          -73.638,5.59925,0
          -73.63818,5.59897,0
          -73.63828,5.59871,0
          -73.63836,5.59817,0
          -73.63836,5.59814,0
          -73.63855,5.59673,0
          -73.63874,5.59578,0
          -73.63875,5.59576,0
          -73.63983,5.59055,0
          -73.63997,5.59011,0
          -73.64051,5.5889,0
          -73.64075,5.58841,0
          -73.64261,5.58428,0
          -73.64274,5.58406,0
          -73.64289,5.58385,0
          -73.64313,5.58357,0
          -73.64368,5.58284,0
          -73.64458,5.58157,0
          -73.6446,5.58155,0
          -73.64513,5.58076,0
          -73.64522,5.58056,0
          -73.64533,5.58024,0
          -73.64564,5.57917,0
          -73.64653,5.57919,0
          -73.64681,5.57921,0
          -73.64713,5.57926,0
          -73.64719,5.57869,0
        </coordinates>
      </LineString>
    </Placemark>
    <Placemark>
      <name>Monasterio de Santo Eccehomo, Santo Ecce Homo, Santa Sofía, Boyaca</name>
      <styleUrl>#icon-1899-DB4436-nodesc</styleUrl>
      <Point>
        <coordinates>
          -73.5950431,5.678364,0
        </coordinates>
      </Point>
    </Placemark>
    <Placemark>
      <name>Virgen De La Piedra De Suta, Hacienda Numalia, Sutamarchán, Boyaca</name>
      <styleUrl>#icon-1899-DB4436-nodesc</styleUrl>
      <Point>
        <coordinates>
          -73.6138965,5.6522679,0
        </coordinates>
      </Point>
    </Placemark>
    <Placemark>
      <name>Tinjacá, Boyaca</name>
      <styleUrl>#icon-1899-DB4436-nodesc</styleUrl>
      <Point>
        <coordinates>
          -73.6471909,5.5786881,0
        </coordinates>
      </Point>
    </Placemark>
  </Document>
</kml>
