<?xml version="1.0" encoding="UTF-8"?>
<kml xmlns="http://www.opengis.net/kml/2.2">
  <Document>
    <name>Directions from Monasterio de Santo Eccehomo, Santo Ecce Homo, Santa Sofía, Boyaca to Cl. 18 #11-80, Chiquinquirá, Boyacá, Colombia</name>
    <Style id="icon-1899-DB4436-nodesc-normal">
      <IconStyle>
        <color>ff3644db</color>
        <scale>1</scale>
        <Icon>
          <href>https://www.gstatic.com/mapspro/images/stock/503-wht-blank_maps.png</href>
        </Icon>
        <hotSpot x="32" xunits="pixels" y="64" yunits="insetPixels"/>
      </IconStyle>
      <LabelStyle>
        <scale>0</scale>
      </LabelStyle>
      <BalloonStyle>
        <text><![CDATA[<h3>$[name]</h3>]]></text>
      </BalloonStyle>
    </Style>
    <Style id="icon-1899-DB4436-nodesc-highlight">
      <IconStyle>
        <color>ff3644db</color>
        <scale>1</scale>
        <Icon>
          <href>https://www.gstatic.com/mapspro/images/stock/503-wht-blank_maps.png</href>
        </Icon>
        <hotSpot x="32" xunits="pixels" y="64" yunits="insetPixels"/>
      </IconStyle>
      <LabelStyle>
        <scale>1</scale>
      </LabelStyle>
      <BalloonStyle>
        <text><![CDATA[<h3>$[name]</h3>]]></text>
      </BalloonStyle>
    </Style>
    <StyleMap id="icon-1899-DB4436-nodesc">
      <Pair>
        <key>normal</key>
        <styleUrl>#icon-1899-DB4436-nodesc-normal</styleUrl>
      </Pair>
      <Pair>
        <key>highlight</key>
        <styleUrl>#icon-1899-DB4436-nodesc-highlight</styleUrl>
      </Pair>
    </StyleMap>
    <Style id="line-1267FF-5000-nodesc-normal">
      <LineStyle>
        <color>ffff6712</color>
        <width>5</width>
      </LineStyle>
      <BalloonStyle>
        <text><![CDATA[<h3>$[name]</h3>]]></text>
      </BalloonStyle>
    </Style>
    <Style id="line-1267FF-5000-nodesc-highlight">
      <LineStyle>
        <color>ffff6712</color>
        <width>7.5</width>
      </LineStyle>
      <BalloonStyle>
        <text><![CDATA[<h3>$[name]</h3>]]></text>
      </BalloonStyle>
    </Style>
    <StyleMap id="line-1267FF-5000-nodesc">
      <Pair>
        <key>normal</key>
        <styleUrl>#line-1267FF-5000-nodesc-normal</styleUrl>
      </Pair>
      <Pair>
        <key>highlight</key>
        <styleUrl>#line-1267FF-5000-nodesc-highlight</styleUrl>
      </Pair>
    </StyleMap>
    <Placemark>
      <name>Directions from Monasterio de Santo Eccehomo, Santo Ecce Homo, Santa Sofía, Boyaca to Cl. 18 #11-80, Chiquinquirá, Boyacá, Colombia</name>
      <styleUrl>#line-1267FF-5000-nodesc</styleUrl>
      <LineString>
        <tessellate>1</tessellate>
        <coordinates>
          -73.59504,5.67836,0
          -73.59507,5.67854,0
          -73.59508,5.67856,0
          -73.59508,5.67885,0
          -73.59507,5.67897,0
          -73.59503,5.67912,0
          -73.59491,5.67941,0
          -73.59479,5.6796,0
          -73.59491,5.67953,0
          -73.59505,5.67947,0
          -73.59512,5.67945,0
          -73.5953,5.67945,0
          -73.59717,5.67972,0
          -73.59721,5.67974,0
          -73.59723,5.6797,0
          -73.59732,5.67957,0
          -73.59733,5.67953,0
          -73.59735,5.6795,0
          -73.59739,5.67932,0
          -73.59743,5.67921,0
          -73.59744,5.67914,0
          -73.59738,5.67849,0
          -73.59738,5.6783,0
          -73.5974,5.67814,0
          -73.59742,5.67809,0
          -73.59745,5.67806,0
          -73.59748,5.67804,0
          -73.59812,5.67787,0
          -73.59814,5.67786,0
          -73.59815,5.67785,0
          -73.59817,5.67784,0
          -73.59817,5.67783,0
          -73.59819,5.67781,0
          -73.59829,5.67765,0
          -73.59836,5.67757,0
          -73.59839,5.67755,0
          -73.59848,5.67746,0
          -73.59859,5.67738,0
          -73.59861,5.67736,0
          -73.59864,5.67729,0
          -73.59864,5.67721,0
          -73.59868,5.67709,0
          -73.59871,5.67706,0
          -73.59873,5.67703,0
          -73.5989,5.67691,0
          -73.59906,5.67684,0
          -73.59908,5.67684,0
          -73.59911,5.67683,0
          -73.59916,5.67683,0
          -73.59918,5.67682,0
          -73.59919,5.67682,0
          -73.59921,5.67681,0
          -73.59937,5.67677,0
          -73.5994,5.67677,0
          -73.59943,5.67676,0
          -73.59948,5.67676,0
          -73.59951,5.67675,0
          -73.59955,5.67675,0
          -73.59957,5.67674,0
          -73.59959,5.67674,0
          -73.59961,5.67673,0
          -73.59963,5.67673,0
          -73.59966,5.67674,0
          -73.5997,5.67674,0
          -73.59972,5.67675,0
          -73.59974,5.67675,0
          -73.59978,5.67677,0
          -73.59982,5.67677,0
          -73.59983,5.67678,0
          -73.59991,5.67678,0
          -73.6,5.6768,0
          -73.60013,5.6768,0
          -73.60017,5.67681,0
          -73.60023,5.67681,0
          -73.60035,5.67683,0
          -73.60044,5.67683,0
          -73.60047,5.67682,0
          -73.60052,5.67683,0
          -73.60065,5.67683,0
          -73.60079,5.67688,0
          -73.60089,5.67688,0
          -73.60091,5.67687,0
          -73.60105,5.67687,0
          -73.60107,5.67688,0
          -73.60112,5.67688,0
          -73.60125,5.6769,0
          -73.60136,5.6769,0
          -73.60141,5.67688,0
          -73.60142,5.67688,0
          -73.60152,5.67683,0
          -73.60169,5.67671,0
          -73.60182,5.67665,0
          -73.60214,5.67644,0
          -73.60223,5.67641,0
          -73.60232,5.67641,0
          -73.60234,5.67642,0
          -73.60246,5.67644,0
          -73.60263,5.67653,0
          -73.6027,5.67658,0
          -73.60276,5.67661,0
          -73.60282,5.67662,0
          -73.60284,5.67663,0
          -73.60289,5.67663,0
          -73.60291,5.67662,0
          -73.60293,5.6766,0
          -73.60295,5.67659,0
          -73.60298,5.67652,0
          -73.60298,5.6765,0
          -73.603,5.67644,0
          -73.60302,5.67618,0
          -73.60304,5.67609,0
          -73.60313,5.67581,0
          -73.60313,5.67577,0
          -73.60314,5.67573,0
          -73.60314,5.67569,0
          -73.60315,5.67563,0
          -73.60317,5.67558,0
          -73.60319,5.67555,0
          -73.6032,5.67552,0
          -73.60325,5.67547,0
          -73.60327,5.67546,0
          -73.6033,5.67543,0
          -73.60333,5.67542,0
          -73.60355,5.67528,0
          -73.6036,5.67523,0
          -73.60362,5.67522,0
          -73.60365,5.67517,0
          -73.60366,5.67514,0
          -73.6037,5.67507,0
          -73.60377,5.675,0
          -73.60422,5.67463,0
          -73.60434,5.67456,0
          -73.60451,5.67443,0
          -73.60458,5.67434,0
          -73.60486,5.6739,0
          -73.60497,5.67377,0
          -73.60503,5.67375,0
          -73.60509,5.67372,0
          -73.60518,5.67372,0
          -73.60545,5.67378,0
          -73.6055,5.67378,0
          -73.60559,5.67376,0
          -73.6057,5.67367,0
          -73.60579,5.67357,0
          -73.60581,5.67353,0
          -73.60581,5.67348,0
          -73.60579,5.67344,0
          -73.60575,5.67339,0
          -73.60573,5.67335,0
          -73.60568,5.6732,0
          -73.60568,5.67313,0
          -73.6057,5.67308,0
          -73.60582,5.67297,0
          -73.60596,5.67281,0
          -73.60598,5.67276,0
          -73.60598,5.67271,0
          -73.60597,5.67265,0
          -73.60597,5.67255,0
          -73.60599,5.67247,0
          -73.60601,5.67244,0
          -73.60602,5.67239,0
          -73.60603,5.67237,0
          -73.60603,5.67231,0
          -73.60604,5.67229,0
          -73.60604,5.67227,0
          -73.60603,5.67223,0
          -73.60603,5.6722,0
          -73.60605,5.67213,0
          -73.60608,5.6721,0
          -73.60609,5.67207,0
          -73.60643,5.67163,0
          -73.60662,5.67134,0
          -73.60668,5.67118,0
          -73.60672,5.67098,0
          -73.60684,5.67058,0
          -73.60688,5.67049,0
          -73.60689,5.67049,0
          -73.60692,5.67042,0
          -73.60697,5.67034,0
          -73.60698,5.67033,0
          -73.60701,5.67028,0
          -73.60734,5.66997,0
          -73.60737,5.66996,0
          -73.60739,5.66994,0
          -73.60741,5.66993,0
          -73.60742,5.66992,0
          -73.60744,5.66991,0
          -73.60745,5.6699,0
          -73.60752,5.66987,0
          -73.60754,5.66987,0
          -73.60756,5.66986,0
          -73.6076,5.66985,0
          -73.60771,5.6698,0
          -73.60773,5.66978,0
          -73.60775,5.66977,0
          -73.60784,5.66968,0
          -73.60812,5.66947,0
          -73.60851,5.66922,0
          -73.60863,5.66916,0
          -73.60884,5.66911,0
          -73.60889,5.66911,0
          -73.60893,5.66912,0
          -73.60896,5.66912,0
          -73.60911,5.66916,0
          -73.6092,5.66916,0
          -73.60923,5.66915,0
          -73.60932,5.66915,0
          -73.60933,5.66914,0
          -73.60935,5.66914,0
          -73.60942,5.66911,0
          -73.60945,5.66908,0
          -73.60946,5.66906,0
          -73.60946,5.66904,0
          -73.60947,5.66902,0
          -73.60947,5.66895,0
          -73.60946,5.6689,0
          -73.60946,5.6688,0
          -73.60952,5.66842,0
          -73.6095,5.66763,0
          -73.60951,5.6676,0
          -73.60953,5.66746,0
          -73.60953,5.66716,0
          -73.60955,5.66709,0
          -73.60956,5.66702,0
          -73.60959,5.66692,0
          -73.60965,5.6668,0
          -73.60968,5.66677,0
          -73.6097,5.66674,0
          -73.60974,5.6667,0
          -73.6099,5.6665,0
          -73.6099,5.66649,0
          -73.60996,5.66644,0
          -73.61005,5.6664,0
          -73.61012,5.66639,0
          -73.61026,5.6664,0
          -73.61048,5.66646,0
          -73.6106,5.66646,0
          -73.61063,5.66645,0
          -73.61067,5.66645,0
          -73.61076,5.6664,0
          -73.61077,5.6664,0
          -73.61081,5.66638,0
          -73.61106,5.6663,0
          -73.61117,5.66624,0
          -73.61123,5.66616,0
          -73.61131,5.666,0
          -73.61133,5.66594,0
          -73.61134,5.66587,0
          -73.61134,5.6658,0
          -73.61133,5.66572,0
          -73.61133,5.66564,0
          -73.61136,5.66548,0
          -73.61137,5.66547,0
          -73.61146,5.66531,0
          -73.61147,5.6653,0
          -73.61157,5.66512,0
          -73.6117,5.66472,0
          -73.61177,5.66461,0
          -73.61179,5.6646,0
          -73.61185,5.66455,0
          -73.61187,5.66454,0
          -73.61189,5.66454,0
          -73.61192,5.66451,0
          -73.61192,5.66449,0
          -73.61193,5.66448,0
          -73.61193,5.66446,0
          -73.61194,5.66443,0
          -73.61201,5.66431,0
          -73.61209,5.66426,0
          -73.61223,5.66415,0
          -73.61229,5.66408,0
          -73.61232,5.66402,0
          -73.61232,5.66401,0
          -73.61249,5.66335,0
          -73.61252,5.66327,0
          -73.61252,5.66325,0
          -73.61258,5.663,0
          -73.61262,5.66272,0
          -73.61262,5.66264,0
          -73.61261,5.66262,0
          -73.61261,5.66242,0
          -73.6126,5.6624,0
          -73.6126,5.66239,0
          -73.61259,5.66237,0
          -73.61259,5.66236,0
          -73.61258,5.66235,0
          -73.61258,5.66232,0
          -73.61257,5.66229,0
          -73.61257,5.66227,0
          -73.61256,5.66225,0
          -73.61256,5.66218,0
          -73.61251,5.66189,0
          -73.61251,5.66186,0
          -73.61252,5.66184,0
          -73.61252,5.66183,0
          -73.61255,5.66177,0
          -73.61259,5.66173,0
          -73.61261,5.6617,0
          -73.61263,5.66165,0
          -73.61263,5.66162,0
          -73.61264,5.66158,0
          -73.61263,5.66119,0
          -73.61262,5.66114,0
          -73.61263,5.66105,0
          -73.61264,5.66103,0
          -73.61264,5.66099,0
          -73.61265,5.66095,0
          -73.61265,5.66093,0
          -73.61267,5.66089,0
          -73.6127,5.66076,0
          -73.6127,5.66069,0
          -73.61269,5.66066,0
          -73.61269,5.66063,0
          -73.61268,5.66061,0
          -73.6127,5.66007,0
          -73.61275,5.65979,0
          -73.61275,5.65972,0
          -73.61276,5.65969,0
          -73.61276,5.65965,0
          -73.61275,5.65961,0
          -73.61275,5.65953,0
          -73.61276,5.65945,0
          -73.61283,5.65918,0
          -73.61286,5.65911,0
          -73.61287,5.65907,0
          -73.61287,5.65903,0
          -73.61288,5.65898,0
          -73.61289,5.6588,0
          -73.61292,5.65867,0
          -73.61295,5.65859,0
          -73.61306,5.65837,0
          -73.61315,5.65822,0
          -73.61319,5.65809,0
          -73.61316,5.65777,0
          -73.61319,5.65764,0
          -73.61319,5.65748,0
          -73.61315,5.65728,0
          -73.61315,5.65721,0
          -73.61318,5.65706,0
          -73.61318,5.65703,0
          -73.61319,5.657,0
          -73.61319,5.65683,0
          -73.6132,5.65679,0
          -73.6132,5.65677,0
          -73.61322,5.65674,0
          -73.61324,5.65669,0
          -73.61339,5.65644,0
          -73.61345,5.65636,0
          -73.61391,5.6559,0
          -73.61401,5.65576,0
          -73.61404,5.6557,0
          -73.61404,5.65569,0
          -73.61405,5.65567,0
          -73.61406,5.65563,0
          -73.61406,5.65558,0
          -73.61407,5.65553,0
          -73.61407,5.6555,0
          -73.61413,5.65536,0
          -73.61414,5.65535,0
          -73.61429,5.65512,0
          -73.61434,5.65502,0
          -73.61436,5.65494,0
          -73.61437,5.65482,0
          -73.61434,5.65476,0
          -73.6143,5.65472,0
          -73.61427,5.65471,0
          -73.61417,5.65465,0
          -73.61415,5.65463,0
          -73.61411,5.65456,0
          -73.61407,5.6544,0
          -73.61402,5.65392,0
          -73.61401,5.65367,0
          -73.61404,5.65356,0
          -73.61404,5.65353,0
          -73.61407,5.65341,0
          -73.61407,5.65302,0
          -73.61404,5.65266,0
          -73.61401,5.65251,0
          -73.614,5.65249,0
          -73.614,5.65246,0
          -73.6139,5.65227,0
          -73.614,5.65246,0
          -73.614,5.65249,0
          -73.61401,5.65251,0
          -73.61404,5.65266,0
          -73.61407,5.65302,0
          -73.61407,5.65341,0
          -73.61404,5.65353,0
          -73.61404,5.65356,0
          -73.61401,5.65367,0
          -73.61402,5.65392,0
          -73.61407,5.6544,0
          -73.61411,5.65456,0
          -73.61415,5.65463,0
          -73.61417,5.65465,0
          -73.61429,5.65472,0
          -73.61457,5.65463,0
          -73.6147,5.65461,0
          -73.61477,5.65461,0
          -73.61488,5.65458,0
          -73.61526,5.65454,0
          -73.616,5.65455,0
          -73.61625,5.65459,0
          -73.61651,5.65458,0
          -73.61691,5.65451,0
          -73.61701,5.65451,0
          -73.61706,5.65453,0
          -73.61707,5.65453,0
          -73.61723,5.65458,0
          -73.61726,5.6546,0
          -73.61739,5.65466,0
          -73.6174,5.65466,0
          -73.61747,5.65469,0
          -73.61764,5.65479,0
          -73.61772,5.65485,0
          -73.61793,5.65497,0
          -73.61834,5.65512,0
          -73.61868,5.65536,0
          -73.61873,5.65538,0
          -73.61881,5.65543,0
          -73.61882,5.65543,0
          -73.61901,5.65548,0
          -73.61906,5.6555,0
          -73.61953,5.65578,0
          -73.61955,5.6558,0
          -73.61994,5.65599,0
          -73.61995,5.65599,0
          -73.62002,5.65601,0
          -73.62003,5.65602,0
          -73.62043,5.65606,0
          -73.62056,5.65606,0
          -73.62063,5.65607,0
          -73.62072,5.65607,0
          -73.62074,5.65606,0
          -73.62095,5.65603,0
          -73.62128,5.65591,0
          -73.62134,5.65587,0
          -73.62142,5.65583,0
          -73.62142,5.65577,0
          -73.62121,5.65512,0
          -73.62103,5.65473,0
          -73.62103,5.65472,0
          -73.62101,5.65465,0
          -73.62101,5.65453,0
          -73.62096,5.65432,0
          -73.62086,5.65405,0
          -73.62081,5.65395,0
          -73.6207,5.65378,0
          -73.62069,5.65375,0
          -73.62069,5.65369,0
          -73.62084,5.6535,0
          -73.62087,5.65343,0
          -73.62087,5.65322,0
          -73.62088,5.65318,0
          -73.62125,5.65249,0
          -73.6215,5.65216,0
          -73.62158,5.65221,0
          -73.62164,5.65221,0
          -73.62192,5.65214,0
          -73.62211,5.65214,0
          -73.62226,5.65211,0
          -73.62258,5.65194,0
          -73.62269,5.65194,0
          -73.6227,5.65195,0
          -73.62275,5.65197,0
          -73.62275,5.65198,0
          -73.62277,5.65199,0
          -73.62278,5.65201,0
          -73.62279,5.65205,0
          -73.62281,5.65209,0
          -73.62287,5.65231,0
          -73.62293,5.65246,0
          -73.62323,5.6529,0
          -73.62343,5.65312,0
          -73.62356,5.65322,0
          -73.62378,5.65334,0
          -73.6242,5.65368,0
          -73.62433,5.65377,0
          -73.62454,5.65388,0
          -73.62469,5.65392,0
          -73.62485,5.65392,0
          -73.62504,5.6539,0
          -73.62507,5.65388,0
          -73.62508,5.65388,0
          -73.62527,5.6538,0
          -73.6254,5.65373,0
          -73.62544,5.6537,0
          -73.62559,5.65363,0
          -73.62621,5.65342,0
          -73.62624,5.6534,0
          -73.62626,5.65338,0
          -73.62639,5.6533,0
          -73.62642,5.65327,0
          -73.62646,5.65325,0
          -73.62654,5.65323,0
          -73.62665,5.65326,0
          -73.62674,5.6533,0
          -73.6268,5.65334,0
          -73.62686,5.6534,0
          -73.62689,5.65348,0
          -73.6269,5.65354,0
          -73.62691,5.65376,0
          -73.62692,5.65382,0
          -73.6269,5.65409,0
          -73.62672,5.65476,0
          -73.62628,5.65592,0
          -73.62623,5.65609,0
          -73.62623,5.65612,0
          -73.6261,5.65663,0
          -73.6261,5.65666,0
          -73.62612,5.65673,0
          -73.62615,5.65678,0
          -73.62615,5.65679,0
          -73.62621,5.65686,0
          -73.62627,5.6569,0
          -73.62629,5.6569,0
          -73.62639,5.65694,0
          -73.6265,5.65697,0
          -73.62659,5.65701,0
          -73.62676,5.65713,0
          -73.62689,5.65724,0
          -73.62691,5.65725,0
          -73.62696,5.65731,0
          -73.62709,5.65743,0
          -73.62719,5.6575,0
          -73.6272,5.6575,0
          -73.62755,5.65768,0
          -73.62765,5.65775,0
          -73.6277,5.6578,0
          -73.6277,5.65781,0
          -73.62771,5.65782,0
          -73.62771,5.65784,0
          -73.6277,5.65785,0
          -73.6277,5.65786,0
          -73.62767,5.65791,0
          -73.62745,5.65811,0
          -73.62744,5.65815,0
          -73.62743,5.65816,0
          -73.62735,5.65851,0
          -73.62734,5.65859,0
          -73.62718,5.65898,0
          -73.62716,5.65905,0
          -73.62712,5.65931,0
          -73.62712,5.65974,0
          -73.62713,5.65978,0
          -73.62713,5.66025,0
          -73.62714,5.66035,0
          -73.62717,5.66047,0
          -73.62726,5.66072,0
          -73.62729,5.66078,0
          -73.62729,5.66079,0
          -73.62731,5.66082,0
          -73.6274,5.66092,0
          -73.62757,5.66103,0
          -73.62794,5.66121,0
          -73.62804,5.66129,0
          -73.62813,5.66142,0
          -73.62821,5.66156,0
          -73.62822,5.66157,0
          -73.62826,5.66172,0
          -73.62826,5.66178,0
          -73.62825,5.66185,0
          -73.62817,5.66209,0
          -73.62809,5.66225,0
          -73.62808,5.66226,0
          -73.62802,5.66247,0
          -73.62802,5.66251,0
          -73.62813,5.66299,0
          -73.62814,5.66313,0
          -73.62812,5.66328,0
          -73.62809,5.66336,0
          -73.62803,5.66347,0
          -73.62772,5.66378,0
          -73.6277,5.66385,0
          -73.6277,5.6639,0
          -73.62773,5.66396,0
          -73.62775,5.66398,0
          -73.62787,5.66402,0
          -73.62856,5.66405,0
          -73.62863,5.66406,0
          -73.62868,5.66408,0
          -73.62871,5.66411,0
          -73.62873,5.66414,0
          -73.62874,5.66419,0
          -73.62874,5.66422,0
          -73.62871,5.66429,0
          -73.62866,5.66435,0
          -73.62848,5.66452,0
          -73.62848,5.66453,0
          -73.62827,5.66473,0
          -73.62823,5.66479,0
          -73.62808,5.66497,0
          -73.62806,5.66503,0
          -73.62806,5.66512,0
          -73.62809,5.66518,0
          -73.62815,5.66524,0
          -73.62832,5.66531,0
          -73.62894,5.66545,0
          -73.62938,5.66552,0
          -73.62948,5.66552,0
          -73.62956,5.66551,0
          -73.62963,5.66551,0
          -73.63033,5.66543,0
          -73.63064,5.66544,0
          -73.63081,5.66548,0
          -73.63091,5.66551,0
          -73.63095,5.66555,0
          -73.63097,5.66558,0
          -73.63097,5.6656,0
          -73.63098,5.66562,0
          -73.63096,5.66568,0
          -73.63094,5.66571,0
          -73.63078,5.66584,0
          -73.63077,5.66584,0
          -73.63062,5.66594,0
          -73.63061,5.66594,0
          -73.63025,5.66616,0
          -73.62966,5.66664,0
          -73.62961,5.66669,0
          -73.62927,5.66686,0
          -73.62922,5.66691,0
          -73.62913,5.6671,0
          -73.62911,5.66716,0
          -73.62908,5.66721,0
          -73.62905,5.6673,0
          -73.629,5.66738,0
          -73.62891,5.66746,0
          -73.62876,5.6675,0
          -73.62874,5.6675,0
          -73.62862,5.66754,0
          -73.62858,5.66757,0
          -73.62854,5.66759,0
          -73.62848,5.66766,0
          -73.62846,5.66772,0
          -73.62845,5.66779,0
          -73.62853,5.66826,0
          -73.62856,5.66833,0
          -73.6286,5.66839,0
          -73.62827,5.66869,0
          -73.62823,5.66874,0
          -73.62823,5.66876,0
          -73.628,5.66932,0
          -73.628,5.66936,0
          -73.62801,5.66942,0
          -73.62805,5.66944,0
          -73.62809,5.66945,0
          -73.62816,5.66945,0
          -73.62825,5.66943,0
          -73.62836,5.66944,0
          -73.6284,5.66946,0
          -73.62848,5.66952,0
          -73.62893,5.66997,0
          -73.62901,5.67008,0
          -73.62904,5.67015,0
          -73.62906,5.67022,0
          -73.62908,5.67036,0
          -73.62903,5.67064,0
          -73.6291,5.67092,0
          -73.62916,5.67126,0
          -73.62922,5.67149,0
          -73.62932,5.67169,0
          -73.62933,5.67175,0
          -73.62934,5.67177,0
          -73.62939,5.67183,0
          -73.62942,5.67189,0
          -73.62947,5.67203,0
          -73.62948,5.67215,0
          -73.62949,5.67216,0
          -73.62948,5.67243,0
          -73.62949,5.67247,0
          -73.62954,5.67255,0
          -73.62956,5.67257,0
          -73.62979,5.67263,0
          -73.62988,5.67268,0
          -73.62993,5.67273,0
          -73.62997,5.67281,0
          -73.62999,5.67293,0
          -73.63001,5.67325,0
          -73.62999,5.67354,0
          -73.63002,5.67363,0
          -73.63004,5.67367,0
          -73.63006,5.67369,0
          -73.6301,5.67375,0
          -73.63014,5.67383,0
          -73.6302,5.674,0
          -73.6303,5.67455,0
          -73.63035,5.67464,0
          -73.63041,5.67468,0
          -73.63045,5.67469,0
          -73.63052,5.67472,0
          -73.63065,5.67485,0
          -73.63077,5.67493,0
          -73.63081,5.67497,0
          -73.6309,5.67503,0
          -73.63093,5.67506,0
          -73.63103,5.67521,0
          -73.63115,5.67536,0
          -73.63121,5.67541,0
          -73.63131,5.67547,0
          -73.63136,5.67547,0
          -73.6314,5.67546,0
          -73.63147,5.67546,0
          -73.63152,5.67548,0
          -73.63172,5.6756,0
          -73.63187,5.67573,0
          -73.63192,5.67576,0
          -73.63243,5.67597,0
          -73.63247,5.676,0
          -73.6325,5.67601,0
          -73.63261,5.67608,0
          -73.63273,5.67611,0
          -73.63276,5.67613,0
          -73.63277,5.67613,0
          -73.6328,5.67614,0
          -73.63283,5.67616,0
          -73.63289,5.67623,0
          -73.63301,5.67632,0
          -73.63304,5.67633,0
          -73.63306,5.67633,0
          -73.63309,5.67634,0
          -73.63326,5.67634,0
          -73.63329,5.67633,0
          -73.63332,5.67633,0
          -73.6334,5.6763,0
          -73.63345,5.6763,0
          -73.63358,5.67635,0
          -73.63364,5.67639,0
          -73.63366,5.67641,0
          -73.63371,5.67643,0
          -73.63392,5.67648,0
          -73.63394,5.67648,0
          -73.63426,5.6766,0
          -73.63427,5.67661,0
          -73.63436,5.67666,0
          -73.63446,5.67673,0
          -73.6345,5.67675,0
          -73.63467,5.67688,0
          -73.63472,5.67693,0
          -73.63476,5.67694,0
          -73.63479,5.67696,0
          -73.63492,5.67699,0
          -73.63505,5.67705,0
          -73.63511,5.6771,0
          -73.63516,5.67716,0
          -73.63529,5.67727,0
          -73.63546,5.67731,0
          -73.63551,5.67731,0
          -73.63573,5.67728,0
          -73.63577,5.67728,0
          -73.63578,5.67729,0
          -73.6358,5.67729,0
          -73.63581,5.6773,0
          -73.63583,5.67731,0
          -73.63584,5.67731,0
          -73.63584,5.67732,0
          -73.63586,5.67734,0
          -73.63589,5.67741,0
          -73.63589,5.67744,0
          -73.6359,5.67748,0
          -73.6359,5.67754,0
          -73.63591,5.67756,0
          -73.63591,5.67758,0
          -73.63592,5.67759,0
          -73.63593,5.67762,0
          -73.63595,5.67764,0
          -73.63601,5.67774,0
          -73.63603,5.67776,0
          -73.6361,5.67781,0
          -73.63617,5.67784,0
          -73.6362,5.67784,0
          -73.63622,5.67785,0
          -73.63624,5.67784,0
          -73.63626,5.67784,0
          -73.63629,5.67783,0
          -73.63631,5.67783,0
          -73.6364,5.67779,0
          -73.63645,5.67779,0
          -73.63658,5.67777,0
          -73.63668,5.67777,0
          -73.63677,5.67778,0
          -73.63679,5.67777,0
          -73.63683,5.67777,0
          -73.63693,5.67774,0
          -73.63697,5.6777,0
          -73.63701,5.67764,0
          -73.63703,5.67759,0
          -73.63704,5.67752,0
          -73.63705,5.67751,0
          -73.63705,5.67747,0
          -73.63707,5.67742,0
          -73.63707,5.67741,0
          -73.63708,5.6774,0
          -73.63713,5.67732,0
          -73.63714,5.67728,0
          -73.63714,5.6772,0
          -73.63707,5.67703,0
          -73.63705,5.67691,0
          -73.63706,5.67672,0
          -73.63707,5.67669,0
          -73.63707,5.67667,0
          -73.6371,5.67664,0
          -73.63736,5.67664,0
          -73.63737,5.67663,0
          -73.63739,5.67663,0
          -73.63741,5.67662,0
          -73.63743,5.67662,0
          -73.63745,5.67661,0
          -73.63746,5.6766,0
          -73.6375,5.67658,0
          -73.63754,5.67658,0
          -73.63757,5.67657,0
          -73.63776,5.67656,0
          -73.63787,5.67654,0
          -73.63789,5.67653,0
          -73.63791,5.67653,0
          -73.63793,5.67651,0
          -73.63796,5.6765,0
          -73.63799,5.67648,0
          -73.63804,5.67647,0
          -73.63806,5.67646,0
          -73.63811,5.67646,0
          -73.63816,5.67648,0
          -73.63817,5.6765,0
          -73.63823,5.67656,0
          -73.63824,5.67658,0
          -73.63826,5.6766,0
          -73.63827,5.67663,0
          -73.63829,5.67665,0
          -73.6383,5.67667,0
          -73.63834,5.67669,0
          -73.63842,5.67669,0
          -73.63849,5.67666,0
          -73.63851,5.67668,0
          -73.63852,5.6767,0
          -73.63854,5.67672,0
          -73.63856,5.67673,0
          -73.63915,5.6769,0
          -73.6392,5.67693,0
          -73.63951,5.67721,0
          -73.63962,5.67736,0
          -73.63966,5.67746,0
          -73.6397,5.67773,0
          -73.63973,5.67779,0
          -73.63974,5.6778,0
          -73.63975,5.6778,0
          -73.63977,5.67781,0
          -73.63978,5.6778,0
          -73.6398,5.6778,0
          -73.63984,5.67778,0
          -73.63985,5.67777,0
          -73.63989,5.67768,0
          -73.63995,5.67734,0
          -73.63994,5.67705,0
          -73.63995,5.67699,0
          -73.63997,5.67696,0
          -73.64,5.67693,0
          -73.64008,5.67688,0
          -73.64009,5.67688,0
          -73.64014,5.67686,0
          -73.6402,5.67685,0
          -73.64026,5.67685,0
          -73.64049,5.6769,0
          -73.64061,5.6769,0
          -73.64081,5.67685,0
          -73.64094,5.67683,0
          -73.64126,5.67684,0
          -73.6415,5.6769,0
          -73.64158,5.67691,0
          -73.64168,5.6769,0
          -73.6418,5.67686,0
          -73.64187,5.67686,0
          -73.64197,5.67688,0
          -73.64202,5.6769,0
          -73.64209,5.67697,0
          -73.64218,5.67712,0
          -73.64221,5.67715,0
          -73.64226,5.67718,0
          -73.6423,5.67719,0
          -73.64249,5.67727,0
          -73.64258,5.67733,0
          -73.64276,5.67749,0
          -73.64276,5.6775,0
          -73.64281,5.67758,0
          -73.64281,5.67761,0
          -73.64282,5.67764,0
          -73.64282,5.67767,0
          -73.64278,5.67783,0
          -73.64278,5.67785,0
          -73.64277,5.67786,0
          -73.64273,5.67797,0
          -73.64269,5.67813,0
          -73.64266,5.6782,0
          -73.64263,5.67824,0
          -73.64248,5.67835,0
          -73.64246,5.67839,0
          -73.64246,5.67847,0
          -73.64247,5.67853,0
          -73.64249,5.67858,0
          -73.64256,5.67866,0
          -73.64261,5.67869,0
          -73.64282,5.67875,0
          -73.64301,5.67878,0
          -73.64318,5.67878,0
          -73.64326,5.67879,0
          -73.64333,5.67883,0
          -73.64335,5.67885,0
          -73.64347,5.67922,0
          -73.64348,5.67927,0
          -73.64352,5.67937,0
          -73.64355,5.6794,0
          -73.64357,5.67941,0
          -73.64365,5.67941,0
          -73.64369,5.67939,0
          -73.64373,5.67936,0
          -73.64382,5.67925,0
          -73.64386,5.67922,0
          -73.64393,5.6792,0
          -73.64397,5.6792,0
          -73.64402,5.67921,0
          -73.64413,5.67927,0
          -73.64417,5.67931,0
          -73.64419,5.67935,0
          -73.64419,5.67938,0
          -73.64416,5.67949,0
          -73.64414,5.67952,0
          -73.64407,5.67968,0
          -73.64407,5.67974,0
          -73.64408,5.67976,0
          -73.64409,5.67977,0
          -73.64409,5.67978,0
          -73.6441,5.67978,0
          -73.64412,5.67979,0
          -73.64413,5.6798,0
          -73.64415,5.67981,0
          -73.64418,5.67981,0
          -73.64425,5.67978,0
          -73.64427,5.67978,0
          -73.64431,5.67976,0
          -73.64436,5.67972,0
          -73.64443,5.67968,0
          -73.64456,5.67965,0
          -73.64458,5.67965,0
          -73.64472,5.67969,0
          -73.64475,5.67971,0
          -73.64488,5.67976,0
          -73.64504,5.67979,0
          -73.6453,5.67976,0
          -73.64559,5.67958,0
          -73.64563,5.67954,0
          -73.64574,5.67949,0
          -73.64606,5.67931,0
          -73.64633,5.67909,0
          -73.64655,5.67888,0
          -73.64691,5.67866,0
          -73.64693,5.67864,0
          -73.64699,5.67861,0
          -73.6471,5.67861,0
          -73.64715,5.67863,0
          -73.64724,5.67869,0
          -73.64729,5.67878,0
          -73.6473,5.67884,0
          -73.64731,5.67886,0
          -73.64732,5.67894,0
          -73.64738,5.67911,0
          -73.64741,5.67915,0
          -73.64746,5.6792,0
          -73.64759,5.67929,0
          -73.64769,5.67938,0
          -73.64773,5.67944,0
          -73.64773,5.6795,0
          -73.64771,5.67957,0
          -73.6477,5.67959,0
          -73.64769,5.67959,0
          -73.64765,5.67963,0
          -73.6476,5.67965,0
          -73.64753,5.67965,0
          -73.64747,5.67963,0
          -73.64722,5.67948,0
          -73.64712,5.6794,0
          -73.64707,5.67937,0
          -73.64706,5.67937,0
          -73.64701,5.67935,0
          -73.64697,5.67935,0
          -73.64693,5.67936,0
          -73.64691,5.67938,0
          -73.64688,5.67943,0
          -73.64688,5.6795,0
          -73.64689,5.67954,0
          -73.6469,5.67955,0
          -73.64691,5.67958,0
          -73.64693,5.67961,0
          -73.64704,5.67971,0
          -73.64722,5.6798,0
          -73.64734,5.67984,0
          -73.64735,5.67985,0
          -73.6477,5.67992,0
          -73.64772,5.67993,0
          -73.64777,5.67998,0
          -73.64779,5.68002,0
          -73.6478,5.68007,0
          -73.64779,5.68012,0
          -73.64778,5.68014,0
          -73.64776,5.68016,0
          -73.64772,5.68018,0
          -73.64734,5.68024,0
          -73.64724,5.68027,0
          -73.64716,5.68031,0
          -73.64705,5.68038,0
          -73.64702,5.68039,0
          -73.64693,5.68044,0
          -73.64683,5.68048,0
          -73.64668,5.68051,0
          -73.64663,5.68051,0
          -73.64656,5.68052,0
          -73.64648,5.68055,0
          -73.64645,5.68057,0
          -73.64643,5.68059,0
          -73.64642,5.68062,0
          -73.64613,5.68115,0
          -73.64612,5.68119,0
          -73.64613,5.68123,0
          -73.64613,5.68127,0
          -73.64615,5.68132,0
          -73.64625,5.68144,0
          -73.64629,5.68147,0
          -73.6463,5.68147,0
          -73.64635,5.68149,0
          -73.64645,5.68149,0
          -73.64651,5.68148,0
          -73.64699,5.68149,0
          -73.64719,5.68146,0
          -73.64746,5.68138,0
          -73.6475,5.68136,0
          -73.6476,5.68136,0
          -73.64762,5.68137,0
          -73.64764,5.68139,0
          -73.64766,5.6814,0
          -73.64773,5.68147,0
          -73.64775,5.6815,0
          -73.6478,5.68155,0
          -73.64786,5.68159,0
          -73.64799,5.68164,0
          -73.64826,5.68179,0
          -73.64831,5.68184,0
          -73.64833,5.68187,0
          -73.64835,5.68193,0
          -73.64843,5.68208,0
          -73.64848,5.68213,0
          -73.64862,5.68222,0
          -73.64867,5.68224,0
          -73.64872,5.68227,0
          -73.64881,5.68229,0
          -73.64885,5.68231,0
          -73.6489,5.68232,0
          -73.64899,5.68236,0
          -73.64903,5.68237,0
          -73.64909,5.68241,0
          -73.64913,5.68245,0
          -73.64915,5.68249,0
          -73.6492,5.68255,0
          -73.64935,5.6828,0
          -73.64946,5.68291,0
          -73.64951,5.68294,0
          -73.64955,5.68295,0
          -73.64956,5.68296,0
          -73.64972,5.68302,0
          -73.64979,5.68303,0
          -73.64992,5.68308,0
          -73.64998,5.68312,0
          -73.65004,5.68318,0
          -73.65011,5.68327,0
          -73.65014,5.68329,0
          -73.65017,5.68332,0
          -73.65024,5.68334,0
          -73.65026,5.68334,0
          -73.65029,5.68332,0
          -73.65032,5.68331,0
          -73.65033,5.6833,0
          -73.65035,5.6833,0
          -73.65035,5.68329,0
          -73.65044,5.68326,0
          -73.65067,5.68327,0
          -73.65068,5.68328,0
          -73.65099,5.68328,0
          -73.65112,5.6833,0
          -73.65119,5.68334,0
          -73.65122,5.6834,0
          -73.65131,5.68381,0
          -73.65133,5.68386,0
          -73.65133,5.68388,0
          -73.65134,5.68391,0
          -73.65138,5.68397,0
          -73.65143,5.68399,0
          -73.65146,5.68399,0
          -73.65151,5.68398,0
          -73.65156,5.68396,0
          -73.65162,5.68392,0
          -73.65171,5.68384,0
          -73.6518,5.68374,0
          -73.65194,5.68354,0
          -73.65196,5.68346,0
          -73.65197,5.68328,0
          -73.65196,5.68324,0
          -73.65196,5.68313,0
          -73.65197,5.68309,0
          -73.65198,5.68307,0
          -73.65204,5.68301,0
          -73.65216,5.683,0
          -73.65233,5.68303,0
          -73.65241,5.68301,0
          -73.6525,5.68296,0
          -73.65265,5.68285,0
          -73.65279,5.68279,0
          -73.65314,5.68285,0
          -73.65331,5.68293,0
          -73.65345,5.68298,0
          -73.6537,5.68303,0
          -73.6539,5.68302,0
          -73.6541,5.68297,0
          -73.65428,5.68288,0
          -73.65452,5.6828,0
          -73.65476,5.68276,0
          -73.65578,5.68246,0
          -73.65586,5.68242,0
          -73.65623,5.68214,0
          -73.65711,5.68154,0
          -73.65718,5.68152,0
          -73.65728,5.68153,0
          -73.6577,5.68174,0
          -73.65771,5.68178,0
          -73.6577,5.68183,0
          -73.65768,5.68186,0
          -73.65765,5.68189,0
          -73.65739,5.68206,0
          -73.65721,5.68215,0
          -73.65719,5.68218,0
          -73.65717,5.68219,0
          -73.65716,5.6822,0
          -73.65715,5.68222,0
          -73.65715,5.68229,0
          -73.65716,5.68234,0
          -73.65729,5.6826,0
          -73.65732,5.6827,0
          -73.65735,5.68286,0
          -73.65742,5.68305,0
          -73.65745,5.68309,0
          -73.65767,5.6833,0
          -73.65775,5.68335,0
          -73.6578,5.68336,0
          -73.65783,5.68338,0
          -73.6579,5.68339,0
          -73.65804,5.68339,0
          -73.65815,5.68337,0
          -73.65825,5.68337,0
          -73.65834,5.68338,0
          -73.65837,5.68339,0
          -73.65934,5.68354,0
          -73.65954,5.68354,0
          -73.65973,5.68352,0
          -73.6598,5.68349,0
          -73.65996,5.68345,0
          -73.66011,5.68337,0
          -73.66063,5.68318,0
          -73.66076,5.68316,0
          -73.66085,5.68316,0
          -73.66096,5.6832,0
          -73.66111,5.68333,0
          -73.66112,5.68335,0
          -73.66116,5.6834,0
          -73.6612,5.68347,0
          -73.66132,5.68382,0
          -73.66134,5.68384,0
          -73.66136,5.68388,0
          -73.66138,5.68389,0
          -73.66139,5.6839,0
          -73.66143,5.6839,0
          -73.66151,5.68388,0
          -73.66179,5.68369,0
          -73.66186,5.68366,0
          -73.66192,5.68366,0
          -73.66194,5.68367,0
          -73.66196,5.68369,0
          -73.66199,5.68375,0
          -73.66199,5.68389,0
          -73.66186,5.68438,0
          -73.66177,5.68456,0
          -73.66173,5.68462,0
          -73.66167,5.68474,0
          -73.66163,5.68479,0
          -73.66162,5.68482,0
          -73.6616,5.68484,0
          -73.66157,5.68486,0
          -73.66155,5.68488,0
          -73.66147,5.68493,0
          -73.66135,5.68503,0
          -73.66121,5.68518,0
          -73.66114,5.68524,0
          -73.66108,5.68528,0
          -73.66081,5.68557,0
          -73.66072,5.68564,0
          -73.66054,5.68586,0
          -73.66044,5.68602,0
          -73.66038,5.68614,0
          -73.66036,5.68622,0
          -73.66034,5.68625,0
          -73.66032,5.6863,0
          -73.6603,5.68632,0
          -73.66029,5.68634,0
          -73.66027,5.68635,0
          -73.66024,5.68638,0
          -73.66023,5.68638,0
          -73.66012,5.6865,0
          -73.66008,5.68656,0
          -73.65991,5.68674,0
          -73.65988,5.68676,0
          -73.65974,5.68681,0
          -73.65973,5.68682,0
          -73.6597,5.68683,0
          -73.65963,5.6869,0
          -73.6595,5.68712,0
          -73.65949,5.68713,0
          -73.65942,5.68724,0
          -73.65922,5.68745,0
          -73.65915,5.68754,0
          -73.65902,5.68767,0
          -73.659,5.6877,0
          -73.65897,5.68772,0
          -73.65893,5.68781,0
          -73.6588,5.688,0
          -73.65836,5.68851,0
          -73.65833,5.68853,0
          -73.65812,5.6888,0
          -73.65808,5.68887,0
          -73.65801,5.68903,0
          -73.65796,5.6891,0
          -73.65784,5.68922,0
          -73.65782,5.68925,0
          -73.6578,5.68927,0
          -73.65775,5.68937,0
          -73.65773,5.68944,0
          -73.65768,5.68953,0
          -73.65751,5.6897,0
          -73.65742,5.68982,0
          -73.65742,5.68983,0
          -73.65722,5.6901,0
          -73.65722,5.69012,0
          -73.65721,5.69013,0
          -73.6572,5.69016,0
          -73.6572,5.69019,0
          -73.65719,5.69023,0
          -73.65719,5.69039,0
          -73.65718,5.69043,0
          -73.65718,5.69045,0
          -73.65717,5.69049,0
          -73.65705,5.6907,0
          -73.65694,5.69098,0
          -73.65693,5.69103,0
          -73.65693,5.69123,0
          -73.65692,5.69125,0
          -73.65692,5.69127,0
          -73.65687,5.69132,0
          -73.65682,5.69135,0
          -73.65679,5.69136,0
          -73.65678,5.69136,0
          -73.65673,5.69138,0
          -73.65671,5.6914,0
          -73.65669,5.69143,0
          -73.65667,5.69145,0
          -73.65667,5.69147,0
          -73.65666,5.69148,0
          -73.65666,5.69159,0
          -73.65668,5.69166,0
          -73.65675,5.69175,0
          -73.65705,5.69204,0
          -73.65719,5.69215,0
          -73.6572,5.69215,0
          -73.65724,5.69218,0
          -73.6577,5.69235,0
          -73.65786,5.69243,0
          -73.65802,5.6924,0
          -73.65812,5.69236,0
          -73.65858,5.69209,0
          -73.65866,5.69202,0
          -73.65867,5.69202,0
          -73.65891,5.69176,0
          -73.65894,5.69174,0
          -73.65927,5.69135,0
          -73.65989,5.69074,0
          -73.66024,5.69049,0
          -73.66032,5.69045,0
          -73.66043,5.69042,0
          -73.66045,5.69042,0
          -73.6605,5.69039,0
          -73.66053,5.69036,0
          -73.66054,5.69034,0
          -73.66057,5.69022,0
          -73.66057,5.69015,0
          -73.66056,5.69011,0
          -73.66056,5.69007,0
          -73.66054,5.69001,0
          -73.66053,5.68993,0
          -73.66053,5.68984,0
          -73.66055,5.68975,0
          -73.66057,5.68971,0
          -73.66059,5.68963,0
          -73.66078,5.68922,0
          -73.66083,5.68914,0
          -73.66085,5.68913,0
          -73.6609,5.68908,0
          -73.6612,5.68886,0
          -73.66127,5.68877,0
          -73.66144,5.68832,0
          -73.66205,5.68719,0
          -73.66223,5.68692,0
          -73.66331,5.6856,0
          -73.66338,5.68546,0
          -73.66341,5.68526,0
          -73.6634,5.68519,0
          -73.66338,5.68512,0
          -73.66329,5.68492,0
          -73.66326,5.68482,0
          -73.66326,5.68476,0
          -73.66327,5.6847,0
          -73.6633,5.68464,0
          -73.66333,5.68461,0
          -73.66346,5.68452,0
          -73.66359,5.68445,0
          -73.66386,5.68435,0
          -73.66399,5.68424,0
          -73.66404,5.68421,0
          -73.66414,5.68404,0
          -73.66441,5.68328,0
          -73.66442,5.68328,0
          -73.66451,5.68307,0
          -73.66459,5.68294,0
          -73.66466,5.68285,0
          -73.66486,5.68266,0
          -73.66501,5.68242,0
          -73.66505,5.68238,0
          -73.66514,5.68226,0
          -73.6652,5.68221,0
          -73.66543,5.68197,0
          -73.66562,5.68174,0
          -73.66573,5.68163,0
          -73.6658,5.68158,0
          -73.66592,5.68153,0
          -73.66654,5.68109,0
          -73.66684,5.68081,0
          -73.66686,5.68076,0
          -73.66688,5.68073,0
          -73.66688,5.68072,0
          -73.66691,5.68061,0
          -73.66698,5.68044,0
          -73.66707,5.68032,0
          -73.66753,5.6798,0
          -73.66762,5.67972,0
          -73.66835,5.6792,0
          -73.66841,5.67914,0
          -73.66849,5.67904,0
          -73.66854,5.67896,0
          -73.66862,5.67878,0
          -73.66862,5.67877,0
          -73.66868,5.67855,0
          -73.6687,5.6785,0
          -73.66879,5.67838,0
          -73.66882,5.67837,0
          -73.66903,5.67823,0
          -73.66938,5.67789,0
          -73.66942,5.67784,0
          -73.66947,5.67775,0
          -73.66953,5.67752,0
          -73.66955,5.67748,0
          -73.66957,5.67746,0
          -73.66963,5.67743,0
          -73.66973,5.67743,0
          -73.66974,5.67744,0
          -73.66977,5.67744,0
          -73.66997,5.67749,0
          -73.67006,5.67749,0
          -73.67012,5.67748,0
          -73.6702,5.67745,0
          -73.67021,5.67745,0
          -73.67038,5.67738,0
          -73.67069,5.6772,0
          -73.67073,5.67719,0
          -73.67075,5.67717,0
          -73.67113,5.67692,0
          -73.67122,5.67685,0
          -73.67128,5.67679,0
          -73.6713,5.67676,0
          -73.67133,5.67673,0
          -73.67135,5.67668,0
          -73.67136,5.67662,0
          -73.67136,5.67638,0
          -73.67139,5.6762,0
          -73.67143,5.6761,0
          -73.67155,5.67597,0
          -73.67181,5.67579,0
          -73.6719,5.67571,0
          -73.672,5.67564,0
          -73.67204,5.67562,0
          -73.67205,5.67562,0
          -73.67208,5.6756,0
          -73.67212,5.67559,0
          -73.67215,5.67559,0
          -73.67218,5.67558,0
          -73.67221,5.67558,0
          -73.67224,5.67559,0
          -73.67228,5.67559,0
          -73.67239,5.67565,0
          -73.67247,5.67572,0
          -73.67251,5.67577,0
          -73.67256,5.67581,0
          -73.67258,5.67584,0
          -73.6726,5.67585,0
          -73.67265,5.67586,0
          -73.67271,5.67586,0
          -73.6729,5.6758,0
          -73.67296,5.67577,0
          -73.67307,5.67569,0
          -73.67314,5.67562,0
          -73.67329,5.67551,0
          -73.6735,5.67538,0
          -73.67363,5.67526,0
          -73.67381,5.67504,0
          -73.67381,5.67503,0
          -73.67408,5.67476,0
          -73.67421,5.67467,0
          -73.6745,5.67453,0
          -73.67454,5.67452,0
          -73.6746,5.67449,0
          -73.6747,5.67446,0
          -73.67471,5.67446,0
          -73.67484,5.67442,0
          -73.67487,5.67439,0
          -73.67488,5.67439,0
          -73.6749,5.67437,0
          -73.67544,5.67351,0
          -73.67546,5.6735,0
          -73.67547,5.6735,0
          -73.67548,5.67349,0
          -73.67551,5.67349,0
          -73.67553,5.6735,0
          -73.67556,5.6735,0
          -73.67581,5.6736,0
          -73.67586,5.67363,0
          -73.67629,5.67381,0
          -73.67648,5.67387,0
          -73.67649,5.67388,0
          -73.67701,5.6741,0
          -73.67731,5.67419,0
          -73.67732,5.67419,0
          -73.67757,5.67435,0
          -73.67759,5.67437,0
          -73.67761,5.67441,0
          -73.67761,5.67444,0
          -73.67748,5.67478,0
          -73.67748,5.67482,0
          -73.67747,5.67486,0
          -73.67747,5.67493,0
          -73.6775,5.67518,0
          -73.67758,5.67545,0
          -73.67766,5.67563,0
          -73.67769,5.67566,0
          -73.67771,5.67569,0
          -73.67775,5.67573,0
          -73.67803,5.67591,0
          -73.67815,5.67602,0
          -73.67828,5.67611,0
          -73.67898,5.6764,0
          -73.6791,5.67647,0
          -73.67919,5.67651,0
          -73.67924,5.67655,0
          -73.67932,5.67664,0
          -73.67936,5.67671,0
          -73.67946,5.67696,0
          -73.6795,5.67703,0
          -73.67952,5.67705,0
          -73.67954,5.67708,0
          -73.67957,5.67711,0
          -73.67959,5.67712,0
          -73.6797,5.67722,0
          -73.6797,5.67723,0
          -73.67981,5.67734,0
          -73.67984,5.6774,0
          -73.67987,5.67744,0
          -73.67996,5.67762,0
          -73.67997,5.67767,0
          -73.68009,5.67798,0
          -73.68018,5.67816,0
          -73.6802,5.67824,0
          -73.68024,5.67834,0
          -73.68048,5.67863,0
          -73.68067,5.67883,0
          -73.68102,5.67926,0
          -73.68129,5.67965,0
          -73.68136,5.67972,0
          -73.6814,5.67973,0
          -73.68143,5.67975,0
          -73.68148,5.67975,0
          -73.68151,5.67973,0
          -73.68155,5.67968,0
          -73.68171,5.67937,0
          -73.68181,5.67921,0
          -73.68233,5.67863,0
          -73.68242,5.67848,0
          -73.68243,5.67844,0
          -73.68245,5.6784,0
          -73.68259,5.67788,0
          -73.68286,5.67723,0
          -73.68293,5.67716,0
          -73.68296,5.67714,0
          -73.68298,5.67714,0
          -73.68301,5.67713,0
          -73.68307,5.67714,0
          -73.68309,5.67715,0
          -73.68311,5.67717,0
          -73.68313,5.6772,0
          -73.68313,5.67721,0
          -73.68316,5.67724,0
          -73.68372,5.67865,0
          -73.68375,5.67867,0
          -73.68377,5.67869,0
          -73.68381,5.67871,0
          -73.68385,5.67871,0
          -73.68391,5.67872,0
          -73.68428,5.67865,0
          -73.68434,5.67863,0
          -73.68484,5.67834,0
          -73.68492,5.67832,0
          -73.68494,5.67833,0
          -73.68497,5.67833,0
          -73.68506,5.67836,0
          -73.68515,5.67845,0
          -73.68523,5.67859,0
          -73.68553,5.67924,0
          -73.6856,5.67935,0
          -73.6856,5.67921,0
          -73.68561,5.67912,0
          -73.68561,5.67902,0
          -73.68551,5.67833,0
          -73.68543,5.67806,0
          -73.68531,5.67778,0
          -73.6852,5.67758,0
          -73.68515,5.67751,0
          -73.68512,5.67745,0
          -73.6851,5.67738,0
          -73.68508,5.67734,0
          -73.68506,5.67727,0
          -73.68506,5.67722,0
          -73.68505,5.67718,0
          -73.68505,5.67706,0
          -73.68507,5.67689,0
          -73.68507,5.67673,0
          -73.68505,5.67666,0
          -73.68502,5.67659,0
          -73.68479,5.67621,0
          -73.68476,5.6761,0
          -73.68476,5.67571,0
          -73.68475,5.67566,0
          -73.68475,5.67561,0
          -73.68474,5.67558,0
          -73.68526,5.67508,0
          -73.68551,5.6748,0
          -73.68556,5.67476,0
          -73.6856,5.6747,0
          -73.68563,5.67467,0
          -73.6857,5.67455,0
          -73.68571,5.67452,0
          -73.68574,5.67448,0
          -73.68576,5.67444,0
          -73.68578,5.67443,0
          -73.6858,5.67441,0
          -73.68583,5.6744,0
          -73.68584,5.6744,0
          -73.68588,5.67438,0
          -73.68595,5.67436,0
          -73.68609,5.6743,0
          -73.68622,5.67422,0
          -73.68625,5.67419,0
          -73.68627,5.67416,0
          -73.68638,5.67405,0
          -73.68648,5.67398,0
          -73.68653,5.67397,0
          -73.68664,5.67398,0
          -73.68708,5.6741,0
          -73.68712,5.67412,0
          -73.68713,5.67412,0
          -73.68721,5.67415,0
          -73.68733,5.67416,0
          -73.68736,5.67417,0
          -73.68752,5.67417,0
          -73.68767,5.6742,0
          -73.6882,5.67419,0
          -73.6882,5.67418,0
          -73.68827,5.67418,0
          -73.68888,5.67407,0
          -73.68902,5.67407,0
          -73.68922,5.67411,0
          -73.68949,5.67412,0
          -73.68978,5.67411,0
          -73.6898,5.67414,0
          -73.68988,5.67398,0
          -73.6899,5.67392,0
          -73.69003,5.6737,0
          -73.69033,5.67312,0
          -73.69035,5.6731,0
          -73.69037,5.67306,0
          -73.69037,5.67299,0
          -73.69038,5.67298,0
          -73.69038,5.67296,0
          -73.6904,5.67294,0
          -73.69043,5.67288,0
          -73.69044,5.67287,0
          -73.69045,5.67283,0
          -73.69047,5.6728,0
          -73.69047,5.67277,0
          -73.69048,5.67275,0
          -73.69048,5.67269,0
          -73.69051,5.67245,0
          -73.69053,5.6724,0
          -73.69053,5.67238,0
          -73.69055,5.67236,0
          -73.69056,5.67232,0
          -73.69057,5.67231,0
          -73.69057,5.67203,0
          -73.69056,5.67201,0
          -73.69056,5.67198,0
          -73.69053,5.67192,0
          -73.69042,5.67154,0
          -73.69042,5.67148,0
          -73.69041,5.67146,0
          -73.69041,5.67141,0
          -73.69044,5.67127,0
          -73.69046,5.67123,0
          -73.69047,5.67119,0
          -73.69049,5.67115,0
          -73.69049,5.67114,0
          -73.69051,5.6711,0
          -73.69063,5.67069,0
          -73.69066,5.67062,0
          -73.69078,5.67045,0
          -73.69093,5.67016,0
          -73.6912,5.67016,0
          -73.69129,5.67019,0
          -73.69132,5.67019,0
          -73.69157,5.67031,0
          -73.69163,5.67035,0
          -73.69177,5.67047,0
          -73.69186,5.67036,0
          -73.69199,5.66997,0
          -73.69207,5.66984,0
          -73.69231,5.66929,0
          -73.69237,5.66919,0
          -73.69237,5.66918,0
          -73.69262,5.66869,0
          -73.69268,5.66849,0
          -73.69279,5.66829,0
          -73.69285,5.66823,0
          -73.69286,5.66823,0
          -73.69289,5.66819,0
          -73.69303,5.6681,0
          -73.69369,5.66758,0
          -73.69424,5.66689,0
          -73.69429,5.66684,0
          -73.69444,5.66673,0
          -73.69457,5.66668,0
          -73.69469,5.66668,0
          -73.69472,5.66669,0
          -73.69476,5.66669,0
          -73.69487,5.66672,0
          -73.69497,5.66672,0
          -73.695,5.66673,0
          -73.69505,5.66676,0
          -73.69508,5.66677,0
          -73.6951,5.66679,0
          -73.69514,5.66675,0
          -73.69518,5.66673,0
          -73.69519,5.66671,0
          -73.6952,5.6667,0
          -73.6952,5.66669,0
          -73.69521,5.66667,0
          -73.69521,5.66663,0
          -73.69515,5.6665,0
          -73.69515,5.6664,0
          -73.69517,5.66622,0
          -73.69516,5.66613,0
          -73.69516,5.66601,0
          -73.69525,5.66607,0
          -73.69532,5.66609,0
          -73.69568,5.66612,0
          -73.69579,5.66612,0
          -73.69596,5.66609,0
          -73.69599,5.66609,0
          -73.69602,5.66608,0
          -73.69608,5.66608,0
          -73.69612,5.66609,0
          -73.69616,5.66609,0
          -73.69625,5.66612,0
          -73.69644,5.66616,0
          -73.69652,5.66616,0
          -73.69662,5.66618,0
          -73.69665,5.66618,0
          -73.69674,5.6662,0
          -73.6968,5.66623,0
          -73.69684,5.66624,0
          -73.69706,5.66635,0
          -73.69712,5.66635,0
          -73.69713,5.66634,0
          -73.69714,5.66634,0
          -73.69715,5.66633,0
          -73.69718,5.66632,0
          -73.69722,5.66629,0
          -73.69733,5.66624,0
          -73.69736,5.66622,0
          -73.69743,5.66614,0
          -73.69744,5.66612,0
          -73.69746,5.6661,0
          -73.69749,5.66604,0
          -73.69752,5.666,0
          -73.69848,5.66517,0
          -73.69873,5.66566,0
          -73.69887,5.66584,0
          -73.69926,5.66642,0
          -73.69954,5.66692,0
          -73.69994,5.66666,0
          -73.70007,5.66656,0
          -73.70052,5.66626,0
          -73.70063,5.66614,0
          -73.7007,5.66601,0
          -73.70077,5.66579,0
          -73.70078,5.66578,0
          -73.7008,5.66574,0
          -73.70082,5.66572,0
          -73.70083,5.6657,0
          -73.70086,5.66569,0
          -73.70116,5.66552,0
          -73.70121,5.6655,0
          -73.70189,5.66509,0
          -73.70192,5.66508,0
          -73.70193,5.66508,0
          -73.70196,5.66507,0
          -73.70201,5.66507,0
          -73.70229,5.66516,0
          -73.70236,5.66517,0
          -73.70246,5.6652,0
          -73.70257,5.6652,0
          -73.70267,5.66516,0
          -73.7027,5.66514,0
          -73.70275,5.66509,0
          -73.70279,5.66503,0
          -73.7028,5.665,0
          -73.70299,5.66467,0
          -73.70303,5.66456,0
          -73.70307,5.66439,0
          -73.70307,5.66427,0
          -73.70305,5.66423,0
          -73.70299,5.66416,0
          -73.70298,5.66413,0
          -73.70298,5.6641,0
          -73.70297,5.66407,0
          -73.70297,5.66401,0
          -73.70298,5.66399,0
          -73.70298,5.66397,0
          -73.70299,5.66393,0
          -73.703,5.66391,0
          -73.70302,5.66389,0
          -73.70304,5.66385,0
          -73.70304,5.66384,0
          -73.70318,5.66358,0
          -73.70397,5.6619,0
          -73.7041,5.66158,0
          -73.70453,5.66071,0
          -73.70461,5.66052,0
          -73.70462,5.66048,0
          -73.70469,5.66036,0
          -73.7047,5.66036,0
          -73.70472,5.66035,0
          -73.70482,5.66034,0
          -73.70508,5.66034,0
          -73.70513,5.66033,0
          -73.70516,5.6603,0
          -73.70518,5.66029,0
          -73.70522,5.66015,0
          -73.70525,5.65997,0
          -73.70526,5.65994,0
          -73.70529,5.65903,0
          -73.70524,5.6587,0
          -73.70523,5.65851,0
          -73.70527,5.65836,0
          -73.70528,5.65822,0
          -73.70527,5.65818,0
          -73.7052,5.65755,0
          -73.70522,5.65729,0
          -73.70524,5.6572,0
          -73.70548,5.65676,0
          -73.70558,5.65647,0
          -73.70581,5.65606,0
          -73.70599,5.65579,0
          -73.70614,5.65583,0
          -73.70646,5.65601,0
          -73.70656,5.65604,0
          -73.70672,5.65606,0
          -73.70731,5.65606,0
          -73.70738,5.65607,0
          -73.70746,5.6561,0
          -73.70753,5.65615,0
          -73.70763,5.65624,0
          -73.7077,5.65628,0
          -73.7078,5.65632,0
          -73.70797,5.65632,0
          -73.70807,5.65634,0
          -73.70813,5.65637,0
          -73.70825,5.65646,0
          -73.70843,5.65669,0
          -73.70855,5.6568,0
          -73.70876,5.65694,0
          -73.70889,5.65701,0
          -73.70947,5.65716,0
          -73.71,5.65726,0
          -73.71051,5.65746,0
          -73.7108,5.65767,0
          -73.7111,5.65786,0
          -73.71111,5.65787,0
          -73.71118,5.65791,0
          -73.71163,5.65861,0
          -73.71183,5.6588,0
          -73.71205,5.65906,0
          -73.71215,5.65924,0
          -73.71223,5.65933,0
          -73.71262,5.65969,0
          -73.71279,5.65978,0
          -73.71287,5.65985,0
          -73.71328,5.66037,0
          -73.71387,5.66119,0
          -73.71429,5.66183,0
          -73.71438,5.66194,0
          -73.71443,5.66204,0
          -73.71447,5.66215,0
          -73.71447,5.66217,0
          -73.71471,5.66269,0
          -73.71477,5.66278,0
          -73.71485,5.66287,0
          -73.71549,5.66319,0
          -73.71568,5.66332,0
          -73.71601,5.6637,0
          -73.71604,5.66371,0
          -73.71605,5.66372,0
          -73.71622,5.66375,0
          -73.71632,5.66379,0
          -73.71643,5.66385,0
          -73.71711,5.66432,0
          -73.71739,5.66455,0
          -73.71743,5.66457,0
          -73.71755,5.66461,0
          -73.71794,5.66467,0
          -73.71799,5.66469,0
          -73.71816,5.6648,0
          -73.71829,5.66483,0
          -73.71838,5.66484,0
          -73.71848,5.66484,0
          -73.71863,5.66488,0
          -73.7188,5.665,0
          -73.71898,5.66509,0
          -73.71922,5.66518,0
          -73.71923,5.66518,0
          -73.71957,5.66531,0
          -73.71958,5.66531,0
          -73.71966,5.66535,0
          -73.71972,5.66539,0
          -73.71982,5.66544,0
          -73.71989,5.66549,0
          -73.71992,5.66553,0
          -73.71997,5.66558,0
          -73.72001,5.66561,0
          -73.72004,5.66565,0
          -73.72019,5.66596,0
          -73.72038,5.66623,0
          -73.72054,5.66641,0
          -73.72061,5.66645,0
          -73.72182,5.66694,0
          -73.72198,5.66702,0
          -73.72205,5.66704,0
          -73.7226,5.66734,0
          -73.72272,5.66746,0
          -73.72274,5.66749,0
          -73.72278,5.66753,0
          -73.72283,5.66756,0
          -73.72292,5.66759,0
          -73.72328,5.66766,0
          -73.72333,5.66766,0
          -73.72336,5.66767,0
          -73.72338,5.66762,0
          -73.72341,5.66758,0
          -73.7236,5.66747,0
          -73.72376,5.66741,0
          -73.72386,5.66734,0
          -73.72388,5.66731,0
          -73.72391,5.66729,0
          -73.72401,5.66716,0
          -73.72404,5.66714,0
          -73.72407,5.66713,0
          -73.7241,5.66711,0
          -73.72414,5.6671,0
          -73.72417,5.6671,0
          -73.72422,5.66709,0
          -73.72456,5.66708,0
          -73.72458,5.66709,0
          -73.72489,5.66711,0
          -73.72509,5.66716,0
          -73.72522,5.66718,0
          -73.72547,5.66718,0
          -73.7259,5.66715,0
          -73.72663,5.66719,0
          -73.72669,5.6672,0
          -73.72674,5.6672,0
          -73.72675,5.66721,0
          -73.72687,5.66723,0
          -73.72694,5.66725,0
          -73.72714,5.66736,0
          -73.72722,5.66739,0
          -73.72737,5.66742,0
          -73.72756,5.66742,0
          -73.72776,5.66739,0
          -73.72779,5.66738,0
          -73.72789,5.66738,0
          -73.72812,5.66744,0
          -73.72844,5.66759,0
          -73.72846,5.66759,0
          -73.72859,5.66766,0
          -73.72875,5.6677,0
          -73.72891,5.6677,0
          -73.72893,5.66769,0
          -73.72908,5.66769,0
          -73.7291,5.6677,0
          -73.72914,5.6677,0
          -73.72916,5.66771,0
          -73.72917,5.66771,0
          -73.72922,5.66773,0
          -73.72923,5.66774,0
          -73.72926,5.66774,0
          -73.72928,5.66775,0
          -73.72944,5.66775,0
          -73.72947,5.66774,0
          -73.72956,5.66773,0
          -73.73001,5.66763,0
          -73.73009,5.66762,0
          -73.7302,5.66759,0
          -73.73034,5.66752,0
          -73.73038,5.66749,0
          -73.7305,5.66744,0
          -73.73051,5.66743,0
          -73.73058,5.66741,0
          -73.73063,5.66741,0
          -73.7307,5.6674,0
          -73.73077,5.6674,0
          -73.73084,5.66741,0
          -73.73098,5.66741,0
          -73.73104,5.66742,0
          -73.73118,5.66742,0
          -73.73124,5.66741,0
          -73.73149,5.66733,0
          -73.73164,5.66723,0
          -73.73171,5.66715,0
          -73.73188,5.6669,0
          -73.732,5.66675,0
          -73.73217,5.66658,0
          -73.73245,5.66635,0
          -73.7326,5.66625,0
          -73.73287,5.6661,0
          -73.7331,5.666,0
          -73.73343,5.66589,0
          -73.73356,5.66583,0
          -73.73359,5.66583,0
          -73.73361,5.66582,0
          -73.73379,5.66582,0
          -73.73399,5.66579,0
          -73.73403,5.66577,0
          -73.7341,5.66579,0
          -73.73442,5.66577,0
          -73.7345,5.66575,0
          -73.73454,5.66575,0
          -73.73458,5.66573,0
          -73.73469,5.6657,0
          -73.73471,5.6657,0
          -73.73474,5.66569,0
          -73.73479,5.66569,0
          -73.73481,5.6657,0
          -73.73485,5.6657,0
          -73.7349,5.66571,0
          -73.73495,5.66573,0
          -73.73516,5.66576,0
          -73.73521,5.66578,0
          -73.73526,5.66579,0
          -73.73567,5.66598,0
          -73.73578,5.66601,0
          -73.73607,5.66601,0
          -73.73625,5.66599,0
          -73.73636,5.66599,0
          -73.73696,5.66609,0
          -73.73719,5.66609,0
          -73.73739,5.66607,0
          -73.7375,5.66604,0
          -73.73767,5.66604,0
          -73.73774,5.66606,0
          -73.7381,5.66625,0
          -73.73817,5.66627,0
          -73.73831,5.66637,0
          -73.7384,5.66646,0
          -73.73848,5.66652,0
          -73.7387,5.66664,0
          -73.73902,5.66677,0
          -73.73905,5.66677,0
          -73.73911,5.66679,0
          -73.73916,5.66683,0
          -73.7392,5.66685,0
          -73.73922,5.66687,0
          -73.73923,5.66687,0
          -73.73925,5.66688,0
          -73.73926,5.66688,0
          -73.73928,5.66689,0
          -73.73932,5.66689,0
          -73.73933,5.66688,0
          -73.73936,5.66688,0
          -73.73945,5.66685,0
          -73.73951,5.66684,0
          -73.73955,5.66684,0
          -73.73956,5.66683,0
          -73.73961,5.66682,0
          -73.73974,5.66682,0
          -73.7404,5.66695,0
          -73.7405,5.66698,0
          -73.74067,5.66701,0
          -73.7407,5.66701,0
          -73.74075,5.66702,0
          -73.74082,5.66702,0
          -73.74093,5.66699,0
          -73.7413,5.66674,0
          -73.74164,5.66658,0
          -73.74175,5.66655,0
          -73.74193,5.66652,0
          -73.74199,5.66652,0
          -73.74238,5.66647,0
          -73.74248,5.66647,0
          -73.74286,5.6664,0
          -73.74334,5.66623,0
          -73.7435,5.66619,0
          -73.74351,5.66618,0
          -73.74374,5.66612,0
          -73.74392,5.66604,0
          -73.74407,5.66599,0
          -73.74422,5.66596,0
          -73.7444,5.6659,0
          -73.74455,5.66587,0
          -73.74457,5.66587,0
          -73.74473,5.66583,0
          -73.74477,5.66581,0
          -73.74486,5.66579,0
          -73.74496,5.66575,0
          -73.74497,5.66574,0
          -73.74503,5.66571,0
          -73.74512,5.66564,0
          -73.74515,5.6656,0
          -73.74523,5.66552,0
          -73.74532,5.66538,0
          -73.74543,5.66526,0
          -73.74561,5.66511,0
          -73.74568,5.66502,0
          -73.74572,5.66495,0
          -73.74584,5.66466,0
          -73.74585,5.66466,0
          -73.74586,5.66465,0
          -73.74588,5.66464,0
          -73.74589,5.66463,0
          -73.74591,5.66463,0
          -73.74593,5.66462,0
          -73.74605,5.66462,0
          -73.7462,5.66468,0
          -73.74648,5.66476,0
          -73.74676,5.66479,0
          -73.74696,5.66479,0
          -73.74747,5.66492,0
          -73.74754,5.66495,0
          -73.74782,5.66514,0
          -73.74784,5.66514,0
          -73.74786,5.66515,0
          -73.74793,5.66515,0
          -73.74795,5.66514,0
          -73.74797,5.66514,0
          -73.74799,5.66513,0
          -73.74801,5.66513,0
          -73.74815,5.66507,0
          -73.74877,5.66508,0
          -73.74888,5.6651,0
          -73.74895,5.66513,0
          -73.74899,5.66514,0
          -73.74902,5.66516,0
          -73.74908,5.66517,0
          -73.74913,5.66519,0
          -73.74924,5.66521,0
          -73.7495,5.66521,0
          -73.74967,5.66518,0
          -73.74978,5.66513,0
          -73.74979,5.66513,0
          -73.74982,5.6651,0
          -73.75003,5.66495,0
          -73.75068,5.66466,0
          -73.75077,5.6646,0
          -73.75078,5.66458,0
          -73.75085,5.66469,0
          -73.75086,5.66472,0
          -73.75087,5.66479,0
          -73.75087,5.66484,0
          -73.75088,5.66486,0
          -73.75088,5.66488,0
          -73.75089,5.6649,0
          -73.75092,5.66493,0
          -73.75097,5.66493,0
          -73.75106,5.6649,0
          -73.7512,5.6648,0
          -73.75126,5.66474,0
          -73.75152,5.66442,0
          -73.75155,5.6644,0
          -73.7516,5.66433,0
          -73.75167,5.66426,0
          -73.75174,5.66423,0
          -73.75191,5.66418,0
          -73.75195,5.66418,0
          -73.75223,5.66407,0
          -73.75225,5.66405,0
          -73.75227,5.66404,0
          -73.75229,5.664,0
          -73.75229,5.66398,0
          -73.75231,5.66396,0
          -73.75231,5.66394,0
          -73.75232,5.66392,0
          -73.75233,5.66391,0
          -73.75234,5.66388,0
          -73.75236,5.66387,0
          -73.75236,5.66386,0
          -73.75237,5.66385,0
          -73.75241,5.66383,0
          -73.75244,5.66383,0
          -73.75281,5.66393,0
          -73.75314,5.66397,0
          -73.75325,5.66396,0
          -73.75329,5.66394,0
          -73.75332,5.66391,0
          -73.75335,5.66385,0
          -73.75336,5.66384,0
          -73.75342,5.66371,0
          -73.75344,5.66368,0
          -73.75345,5.66364,0
          -73.75351,5.66355,0
          -73.75368,5.66339,0
          -73.75378,5.66332,0
          -73.75379,5.66332,0
          -73.75383,5.66329,0
          -73.75388,5.66327,0
          -73.75396,5.66322,0
          -73.7544,5.66264,0
          -73.75445,5.6625,0
          -73.75446,5.66239,0
          -73.75446,5.66219,0
          -73.75449,5.66212,0
          -73.7545,5.66208,0
          -73.75452,5.66205,0
          -73.75489,5.66165,0
          -73.75498,5.66159,0
          -73.75528,5.66147,0
          -73.75532,5.66146,0
          -73.75545,5.6614,0
          -73.75549,5.66139,0
          -73.75608,5.66111,0
          -73.75624,5.66095,0
          -73.75628,5.66089,0
          -73.75635,5.66084,0
          -73.75639,5.66082,0
          -73.75661,5.66077,0
          -73.75691,5.66073,0
          -73.75706,5.66075,0
          -73.7571,5.66074,0
          -73.75739,5.66073,0
          -73.75742,5.66072,0
          -73.75747,5.66072,0
          -73.75759,5.66067,0
          -73.7576,5.66066,0
          -73.75769,5.66062,0
          -73.75775,5.66058,0
          -73.75776,5.66058,0
          -73.75781,5.66053,0
          -73.75805,5.66036,0
          -73.7581,5.66034,0
          -73.75816,5.6603,0
          -73.75819,5.66029,0
          -73.7582,5.66029,0
          -73.75821,5.66028,0
          -73.75823,5.66028,0
          -73.75837,5.66025,0
          -73.75841,5.66025,0
          -73.75846,5.66024,0
          -73.75856,5.66026,0
          -73.75858,5.66028,0
          -73.75862,5.6603,0
          -73.75864,5.66032,0
          -73.7587,5.66036,0
          -73.75872,5.66036,0
          -73.75875,5.66037,0
          -73.7589,5.66045,0
          -73.75896,5.66047,0
          -73.75922,5.66051,0
          -73.7594,5.66052,0
          -73.75941,5.66053,0
          -73.76019,5.66054,0
          -73.76023,5.66055,0
          -73.76034,5.6606,0
          -73.76037,5.66062,0
          -73.76044,5.66069,0
          -73.76045,5.66069,0
          -73.76047,5.66071,0
          -73.76056,5.66076,0
          -73.76065,5.66078,0
          -73.7612,5.66074,0
          -73.76133,5.66072,0
          -73.76141,5.66069,0
          -73.76148,5.66065,0
          -73.76149,5.66065,0
          -73.76157,5.66061,0
          -73.76229,5.66035,0
          -73.76356,5.65996,0
          -73.76373,5.65995,0
          -73.76381,5.65997,0
          -73.764,5.66005,0
          -73.76403,5.66007,0
          -73.76406,5.66008,0
          -73.76434,5.6601,0
          -73.76477,5.6601,0
          -73.76493,5.66015,0
          -73.76505,5.66017,0
          -73.76508,5.66018,0
          -73.7652,5.66018,0
          -73.76529,5.66016,0
          -73.76595,5.65986,0
          -73.76599,5.65983,0
          -73.76602,5.65982,0
          -73.76605,5.6598,0
          -73.76607,5.6598,0
          -73.76609,5.65979,0
          -73.7661,5.65979,0
          -73.76613,5.6598,0
          -73.76616,5.6598,0
          -73.7663,5.65984,0
          -73.76665,5.65949,0
          -73.76673,5.65943,0
          -73.76681,5.6594,0
          -73.76688,5.65936,0
          -73.76691,5.65933,0
          -73.76694,5.65931,0
          -73.76697,5.6593,0
          -73.76699,5.65928,0
          -73.76701,5.65927,0
          -73.76711,5.65916,0
          -73.76716,5.65908,0
          -73.76742,5.65828,0
          -73.76742,5.65825,0
          -73.76751,5.65806,0
          -73.76755,5.658,0
          -73.76759,5.65796,0
          -73.76761,5.65795,0
          -73.76764,5.65792,0
          -73.76766,5.65791,0
          -73.76768,5.65789,0
          -73.7678,5.65784,0
          -73.76798,5.6578,0
          -73.76882,5.65772,0
          -73.76895,5.65769,0
          -73.76904,5.65763,0
          -73.76908,5.65756,0
          -73.7691,5.65755,0
          -73.76915,5.65748,0
          -73.7692,5.65743,0
          -73.76921,5.65741,0
          -73.76934,5.65725,0
          -73.7695,5.65702,0
          -73.76962,5.65682,0
          -73.76983,5.65612,0
          -73.76986,5.65609,0
          -73.76987,5.65607,0
          -73.76989,5.65605,0
          -73.76991,5.65604,0
          -73.76993,5.65601,0
          -73.77017,5.65585,0
          -73.7713,5.65494,0
          -73.77228,5.6541,0
          -73.77237,5.65398,0
          -73.77241,5.65394,0
          -73.7726,5.65361,0
          -73.77266,5.65355,0
          -73.77271,5.65352,0
          -73.77276,5.65351,0
          -73.77279,5.65351,0
          -73.77282,5.65352,0
          -73.77375,5.65412,0
          -73.77376,5.65413,0
          -73.77653,5.65588,0
          -73.77779,5.65679,0
          -73.77802,5.65701,0
          -73.77807,5.65707,0
          -73.77825,5.65742,0
          -73.77831,5.65751,0
          -73.77839,5.65759,0
          -73.77848,5.65764,0
          -73.77849,5.65764,0
          -73.77852,5.65766,0
          -73.77866,5.65769,0
          -73.77889,5.65769,0
          -73.78405,5.65708,0
          -73.78542,5.65695,0
          -73.78551,5.65695,0
          -73.78562,5.65697,0
          -73.78577,5.65706,0
          -73.78578,5.65708,0
          -73.78676,5.65808,0
          -73.78776,5.65763,0
          -73.78877,5.65705,0
          -73.7894,5.65674,0
          -73.79,5.65637,0
          -73.79022,5.6562,0
          -73.79118,5.65721,0
          -73.79022,5.6562,0
          -73.79217,5.6547,0
          -73.79255,5.65434,0
          -73.79279,5.65402,0
          -73.79434,5.65154,0
          -73.79529,5.64957,0
          -73.79561,5.64904,0
          -73.79601,5.64865,0
          -73.79897,5.64602,0
          -73.79931,5.64561,0
          -73.8006,5.64374,0
          -73.80086,5.64326,0
          -73.80123,5.64146,0
          -73.80126,5.64116,0
          -73.80124,5.64078,0
          -73.80103,5.63872,0
          -73.80104,5.63868,0
          -73.80104,5.63857,0
          -73.80106,5.63842,0
          -73.80106,5.63836,0
          -73.80107,5.63829,0
          -73.80114,5.63804,0
          -73.80135,5.63754,0
          -73.80158,5.63713,0
          -73.80269,5.6355,0
          -73.80293,5.63518,0
          -73.80531,5.63269,0
          -73.80603,5.63198,0
          -73.80678,5.63119,0
          -73.80678,5.63116,0
          -73.80682,5.63105,0
          -73.80815,5.62868,0
          -73.80826,5.62843,0
          -73.80837,5.62811,0
          -73.80856,5.6272,0
          -73.80906,5.62514,0
          -73.80911,5.62499,0
          -73.80936,5.62395,0
          -73.80936,5.62385,0
          -73.80939,5.62384,0
          -73.8094,5.62383,0
          -73.80941,5.62383,0
          -73.80941,5.62382,0
          -73.80942,5.62382,0
          -73.80942,5.62381,0
          -73.80943,5.62381,0
          -73.80943,5.6238,0
          -73.80944,5.62379,0
          -73.80944,5.62378,0
          -73.80945,5.62377,0
          -73.80945,5.62372,0
          -73.80953,5.62363,0
          -73.80967,5.6235,0
          -73.81027,5.62287,0
          -73.81112,5.62205,0
          -73.81253,5.62061,0
          -73.81259,5.62048,0
          -73.81285,5.62023,0
          -73.81386,5.61939,0
          -73.81441,5.61905,0
          -73.81455,5.61898,0
          -73.81496,5.61863,0
          -73.81556,5.61785,0
          -73.81612,5.61828,0
          -73.81616,5.61824,0
          -73.81668,5.61863,0
          -73.81682,5.61879,0
          -73.81701,5.61861,0
        </coordinates>
      </LineString>
    </Placemark>
    <Placemark>
      <name>Monasterio de Santo Eccehomo, Santo Ecce Homo, Santa Sofía, Boyaca</name>
      <styleUrl>#icon-1899-DB4436-nodesc</styleUrl>
      <Point>
        <coordinates>
          -73.5950431,5.678364,0
        </coordinates>
      </Point>
    </Placemark>
    <Placemark>
      <name>Virgen De La Piedra De Suta, Hacienda Numalia, Sutamarchán, Boyaca</name>
      <styleUrl>#icon-1899-DB4436-nodesc</styleUrl>
      <Point>
        <coordinates>
          -73.6138965,5.6522679,0
        </coordinates>
      </Point>
    </Placemark>
    <Placemark>
      <name>M655+2M Saboyá, Boyaca, Colombia</name>
      <styleUrl>#icon-1899-DB4436-nodesc</styleUrl>
      <Point>
        <coordinates>
          -73.791182,5.6572124,0
        </coordinates>
      </Point>
    </Placemark>
    <Placemark>
      <name>Cl. 18 #11-80, Chiquinquirá, Boyacá, Colombia</name>
      <styleUrl>#icon-1899-DB4436-nodesc</styleUrl>
      <Point>
        <coordinates>
          -73.8170078,5.6186129,0
        </coordinates>
      </Point>
    </Placemark>
  </Document>
</kml>
