<?xml version="1.0" encoding="UTF-8"?>
<kml xmlns="http://www.opengis.net/kml/2.2">
  <Document>
    <name>Directions from Tinjacá, Boyaca to Chiquinquirá, Boyaca</name>
    <Style id="icon-1899-DB4436-nodesc-normal">
      <IconStyle>
        <color>ff3644db</color>
        <scale>1</scale>
        <Icon>
          <href>https://www.gstatic.com/mapspro/images/stock/503-wht-blank_maps.png</href>
        </Icon>
        <hotSpot x="32" xunits="pixels" y="64" yunits="insetPixels"/>
      </IconStyle>
      <LabelStyle>
        <scale>0</scale>
      </LabelStyle>
      <BalloonStyle>
        <text><![CDATA[<h3>$[name]</h3>]]></text>
      </BalloonStyle>
    </Style>
    <Style id="icon-1899-DB4436-nodesc-highlight">
      <IconStyle>
        <color>ff3644db</color>
        <scale>1</scale>
        <Icon>
          <href>https://www.gstatic.com/mapspro/images/stock/503-wht-blank_maps.png</href>
        </Icon>
        <hotSpot x="32" xunits="pixels" y="64" yunits="insetPixels"/>
      </IconStyle>
      <LabelStyle>
        <scale>1</scale>
      </LabelStyle>
      <BalloonStyle>
        <text><![CDATA[<h3>$[name]</h3>]]></text>
      </BalloonStyle>
    </Style>
    <StyleMap id="icon-1899-DB4436-nodesc">
      <Pair>
        <key>normal</key>
        <styleUrl>#icon-1899-DB4436-nodesc-normal</styleUrl>
      </Pair>
      <Pair>
        <key>highlight</key>
        <styleUrl>#icon-1899-DB4436-nodesc-highlight</styleUrl>
      </Pair>
    </StyleMap>
    <Style id="line-1267FF-5000-nodesc-normal">
      <LineStyle>
        <color>ffff6712</color>
        <width>5</width>
      </LineStyle>
      <BalloonStyle>
        <text><![CDATA[<h3>$[name]</h3>]]></text>
      </BalloonStyle>
    </Style>
    <Style id="line-1267FF-5000-nodesc-highlight">
      <LineStyle>
        <color>ffff6712</color>
        <width>7.5</width>
      </LineStyle>
      <BalloonStyle>
        <text><![CDATA[<h3>$[name]</h3>]]></text>
      </BalloonStyle>
    </Style>
    <StyleMap id="line-1267FF-5000-nodesc">
      <Pair>
        <key>normal</key>
        <styleUrl>#line-1267FF-5000-nodesc-normal</styleUrl>
      </Pair>
      <Pair>
        <key>highlight</key>
        <styleUrl>#line-1267FF-5000-nodesc-highlight</styleUrl>
      </Pair>
    </StyleMap>
    <Placemark>
      <name>Directions from Tinjacá, Boyaca to Chiquinquirá, Boyaca</name>
      <styleUrl>#line-1267FF-5000-nodesc</styleUrl>
      <LineString>
        <tessellate>1</tessellate>
        <coordinates>
          -73.64719,5.57869,0
          -73.6472,5.5786,0
          -73.6472,5.57848,0
          -73.6471,5.57814,0
          -73.64709,5.57812,0
          -73.64705,5.57782,0
          -73.64704,5.57761,0
          -73.64693,5.57703,0
          -73.64688,5.57685,0
          -73.64686,5.57673,0
          -73.64686,5.57648,0
          -73.64688,5.57641,0
          -73.64691,5.57635,0
          -73.6472,5.57598,0
          -73.64727,5.57587,0
          -73.64731,5.57577,0
          -73.64732,5.57573,0
          -73.64732,5.57562,0
          -73.64755,5.5755,0
          -73.6482,5.57527,0
          -73.64821,5.57527,0
          -73.64833,5.57519,0
          -73.64839,5.57513,0
          -73.64844,5.57505,0
          -73.64865,5.57457,0
          -73.64866,5.57453,0
          -73.64875,5.57439,0
          -73.6488,5.57433,0
          -73.64895,5.5742,0
          -73.65027,5.57344,0
          -73.65053,5.57322,0
          -73.6513,5.57241,0
          -73.65143,5.5723,0
          -73.65162,5.57219,0
          -73.65195,5.57206,0
          -73.65196,5.57206,0
          -73.65372,5.5716,0
          -73.65405,5.57149,0
          -73.65433,5.57136,0
          -73.65466,5.57117,0
          -73.65467,5.57116,0
          -73.65512,5.57086,0
          -73.65548,5.57065,0
          -73.65593,5.57044,0
          -73.65599,5.5704,0
          -73.65644,5.57019,0
          -73.65663,5.57012,0
          -73.65676,5.57004,0
          -73.6569,5.56997,0
          -73.65726,5.56968,0
          -73.65738,5.56956,0
          -73.65747,5.56945,0
          -73.65758,5.56934,0
          -73.65777,5.56912,0
          -73.65915,5.56768,0
          -73.65949,5.56735,0
          -73.6596,5.56727,0
          -73.65985,5.56713,0
          -73.661,5.56676,0
          -73.66107,5.56675,0
          -73.66123,5.56675,0
          -73.66136,5.56678,0
          -73.66156,5.56686,0
          -73.6621,5.5673,0
          -73.66222,5.56738,0
          -73.66231,5.56746,0
          -73.66256,5.56765,0
          -73.66264,5.5677,0
          -73.66314,5.56794,0
          -73.66355,5.56809,0
          -73.66375,5.56815,0
          -73.66447,5.5683,0
          -73.66449,5.5683,0
          -73.66542,5.5685,0
          -73.66591,5.56856,0
          -73.66632,5.56857,0
          -73.66683,5.5685,0
          -73.66735,5.56837,0
          -73.66765,5.56826,0
          -73.66833,5.56796,0
          -73.66851,5.56785,0
          -73.66856,5.56779,0
          -73.66856,5.56778,0
          -73.66859,5.56773,0
          -73.66861,5.5676,0
          -73.6686,5.5675,0
          -73.66814,5.56632,0
          -73.66813,5.56625,0
          -73.66813,5.56614,0
          -73.66816,5.56604,0
          -73.66821,5.56597,0
          -73.66826,5.56593,0
          -73.66832,5.5659,0
          -73.66841,5.56588,0
          -73.66853,5.56588,0
          -73.66864,5.56591,0
          -73.66939,5.56619,0
          -73.66969,5.56624,0
          -73.66986,5.56623,0
          -73.67006,5.56617,0
          -73.67028,5.56607,0
          -73.67042,5.56603,0
          -73.67045,5.56603,0
          -73.67049,5.56602,0
          -73.67055,5.56603,0
          -73.6706,5.56605,0
          -73.67064,5.5661,0
          -73.67065,5.5661,0
          -73.67071,5.56619,0
          -73.67075,5.56631,0
          -73.67081,5.56673,0
          -73.67085,5.56686,0
          -73.67092,5.56697,0
          -73.67099,5.56705,0
          -73.67106,5.5671,0
          -73.67113,5.56713,0
          -73.67115,5.56713,0
          -73.6712,5.56714,0
          -73.67133,5.56715,0
          -73.67156,5.56714,0
          -73.67183,5.56715,0
          -73.67203,5.56719,0
          -73.67215,5.56726,0
          -73.67219,5.5673,0
          -73.67222,5.56734,0
          -73.67228,5.56751,0
          -73.67241,5.56822,0
          -73.67244,5.5687,0
          -73.67244,5.56897,0
          -73.67232,5.56956,0
          -73.67231,5.5698,0
          -73.67232,5.56985,0
          -73.67234,5.56989,0
          -73.67237,5.56993,0
          -73.67239,5.56994,0
          -73.67242,5.56997,0
          -73.67249,5.57001,0
          -73.67253,5.57002,0
          -73.6726,5.57001,0
          -73.67273,5.56997,0
          -73.67424,5.56929,0
          -73.67442,5.56918,0
          -73.67452,5.5691,0
          -73.67465,5.56902,0
          -73.67466,5.56902,0
          -73.67481,5.56894,0
          -73.67492,5.56892,0
          -73.67498,5.56892,0
          -73.67506,5.56893,0
          -73.67536,5.56906,0
          -73.67545,5.56909,0
          -73.67579,5.56911,0
          -73.67639,5.56906,0
          -73.67676,5.569,0
          -73.6772,5.56895,0
          -73.67727,5.56895,0
          -73.6777,5.5689,0
          -73.6779,5.5689,0
          -73.67832,5.569,0
          -73.67847,5.56902,0
          -73.6786,5.569,0
          -73.67869,5.56896,0
          -73.67932,5.56862,0
          -73.67972,5.56847,0
          -73.68109,5.56808,0
          -73.68147,5.56799,0
          -73.68158,5.56798,0
          -73.68166,5.568,0
          -73.68174,5.56805,0
          -73.68181,5.56814,0
          -73.68183,5.56826,0
          -73.68183,5.56914,0
          -73.68178,5.56932,0
          -73.68173,5.56942,0
          -73.68165,5.56953,0
          -73.68156,5.56963,0
          -73.68129,5.56987,0
          -73.68122,5.56996,0
          -73.68117,5.57008,0
          -73.68114,5.5702,0
          -73.68115,5.57031,0
          -73.68119,5.57045,0
          -73.68137,5.57078,0
          -73.68169,5.57114,0
          -73.68191,5.57144,0
          -73.68195,5.57154,0
          -73.68199,5.57186,0
          -73.68202,5.57201,0
          -73.68208,5.57214,0
          -73.68212,5.5722,0
          -73.6822,5.57229,0
          -73.68234,5.57241,0
          -73.68235,5.57241,0
          -73.68249,5.57254,0
          -73.6828,5.57303,0
          -73.68291,5.57326,0
          -73.68305,5.57363,0
          -73.68323,5.57419,0
          -73.68324,5.5742,0
          -73.68332,5.57435,0
          -73.68338,5.5744,0
          -73.68375,5.57464,0
          -73.68447,5.57503,0
          -73.68461,5.57514,0
          -73.68471,5.57524,0
          -73.68477,5.57532,0
          -73.68481,5.57543,0
          -73.68483,5.57573,0
          -73.68481,5.57622,0
          -73.68483,5.57657,0
          -73.68486,5.5768,0
          -73.68492,5.57704,0
          -73.68496,5.57716,0
          -73.685,5.57723,0
          -73.68509,5.57735,0
          -73.68569,5.57789,0
          -73.6858,5.57797,0
          -73.68599,5.57806,0
          -73.68607,5.57808,0
          -73.68621,5.57808,0
          -73.68654,5.57791,0
          -73.68655,5.5779,0
          -73.68663,5.57787,0
          -73.6867,5.57787,0
          -73.68676,5.57788,0
          -73.68683,5.57791,0
          -73.68689,5.57797,0
          -73.68693,5.57803,0
          -73.68696,5.57819,0
          -73.68694,5.57828,0
          -73.6869,5.57837,0
          -73.68681,5.57852,0
          -73.68646,5.57895,0
          -73.68642,5.57902,0
          -73.68638,5.57921,0
          -73.6864,5.5793,0
          -73.68646,5.57945,0
          -73.68653,5.57953,0
          -73.68681,5.57972,0
          -73.6869,5.5798,0
          -73.68695,5.57988,0
          -73.68698,5.57995,0
          -73.68698,5.58004,0
          -73.68696,5.58011,0
          -73.68688,5.58029,0
          -73.68684,5.58035,0
          -73.68672,5.58048,0
          -73.68661,5.58054,0
          -73.68579,5.5808,0
          -73.68562,5.58083,0
          -73.68544,5.5808,0
          -73.68502,5.58059,0
          -73.6849,5.58055,0
          -73.68484,5.58054,0
          -73.6848,5.58055,0
          -73.68476,5.58057,0
          -73.68468,5.58063,0
          -73.68465,5.58068,0
          -73.68459,5.58084,0
          -73.68457,5.58094,0
          -73.68457,5.58096,0
          -73.68455,5.58106,0
          -73.68455,5.58118,0
          -73.68457,5.58124,0
          -73.6846,5.58128,0
          -73.68461,5.5813,0
          -73.68471,5.58141,0
          -73.68534,5.582,0
          -73.68542,5.5821,0
          -73.68561,5.58242,0
          -73.68567,5.58275,0
          -73.68567,5.58291,0
          -73.68562,5.58315,0
          -73.68501,5.5847,0
          -73.685,5.58475,0
          -73.685,5.58495,0
          -73.68502,5.585,0
          -73.68506,5.58506,0
          -73.68508,5.58508,0
          -73.68509,5.5851,0
          -73.68515,5.58518,0
          -73.68563,5.58553,0
          -73.68653,5.58608,0
          -73.68665,5.58624,0
          -73.6867,5.58633,0
          -73.68696,5.58719,0
          -73.68705,5.58737,0
          -73.68718,5.58755,0
          -73.68782,5.58822,0
          -73.68786,5.58827,0
          -73.68812,5.58853,0
          -73.68828,5.58878,0
          -73.68833,5.58892,0
          -73.68838,5.58914,0
          -73.68838,5.58933,0
          -73.68837,5.5894,0
          -73.68831,5.58957,0
          -73.68823,5.58971,0
          -73.68817,5.58977,0
          -73.68813,5.58983,0
          -73.6879,5.59011,0
          -73.68781,5.59026,0
          -73.6878,5.59027,0
          -73.68778,5.59031,0
          -73.68776,5.59043,0
          -73.68777,5.59049,0
          -73.68777,5.59054,0
          -73.68783,5.59069,0
          -73.68788,5.59076,0
          -73.68797,5.59083,0
          -73.68878,5.59136,0
          -73.68883,5.59138,0
          -73.68893,5.5914,0
          -73.68898,5.5914,0
          -73.68911,5.59133,0
          -73.68916,5.59128,0
          -73.68924,5.59118,0
          -73.68927,5.59113,0
          -73.68927,5.59111,0
          -73.68939,5.59052,0
          -73.68947,5.59037,0
          -73.68954,5.59028,0
          -73.68966,5.59019,0
          -73.68979,5.59013,0
          -73.68994,5.59009,0
          -73.68996,5.59008,0
          -73.69049,5.58996,0
          -73.69186,5.5896,0
          -73.69231,5.58954,0
          -73.69275,5.58955,0
          -73.69325,5.58965,0
          -73.69499,5.59026,0
          -73.6952,5.59035,0
          -73.69553,5.59045,0
          -73.69555,5.59045,0
          -73.69564,5.59047,0
          -73.69569,5.59047,0
          -73.69573,5.59046,0
          -73.69574,5.59046,0
          -73.69581,5.59044,0
          -73.69595,5.59035,0
          -73.69601,5.59029,0
          -73.69602,5.59026,0
          -73.69605,5.59022,0
          -73.69645,5.58949,0
          -73.69663,5.58923,0
          -73.6968,5.58906,0
          -73.69701,5.5889,0
          -73.69709,5.58885,0
          -73.69728,5.58878,0
          -73.69812,5.58855,0
          -73.69834,5.58851,0
          -73.69852,5.5885,0
          -73.69885,5.58851,0
          -73.69913,5.58854,0
          -73.69946,5.58854,0
          -73.69977,5.58856,0
          -73.7,5.58859,0
          -73.70015,5.58858,0
          -73.70027,5.58856,0
          -73.70029,5.58855,0
          -73.70057,5.58847,0
          -73.70063,5.58844,0
          -73.70142,5.58813,0
          -73.70156,5.58804,0
          -73.70166,5.58793,0
          -73.70175,5.58777,0
          -73.70189,5.58741,0
          -73.70193,5.58735,0
          -73.70199,5.58723,0
          -73.70215,5.58702,0
          -73.70302,5.58619,0
          -73.70311,5.58612,0
          -73.70318,5.58609,0
          -73.70331,5.58607,0
          -73.70337,5.58607,0
          -73.70346,5.5861,0
          -73.70349,5.58613,0
          -73.70352,5.58617,0
          -73.70354,5.58618,0
          -73.70358,5.58625,0
          -73.70361,5.58632,0
          -73.70363,5.58643,0
          -73.70362,5.58709,0
          -73.70364,5.58722,0
          -73.70364,5.58725,0
          -73.70368,5.58739,0
          -73.70371,5.58743,0
          -73.70374,5.58746,0
          -73.70377,5.58748,0
          -73.70382,5.5875,0
          -73.7039,5.58751,0
          -73.70399,5.58749,0
          -73.70405,5.58746,0
          -73.70415,5.58739,0
          -73.7044,5.58725,0
          -73.70449,5.58722,0
          -73.70459,5.5872,0
          -73.70465,5.5872,0
          -73.70471,5.58722,0
          -73.70486,5.5873,0
          -73.70489,5.58733,0
          -73.70492,5.58737,0
          -73.70498,5.58748,0
          -73.70502,5.58764,0
          -73.70511,5.5882,0
          -73.70515,5.58826,0
          -73.70523,5.58832,0
          -73.70602,5.58839,0
          -73.70627,5.58839,0
          -73.7063,5.58838,0
          -73.70703,5.588,0
          -73.70829,5.58727,0
          -73.70845,5.5872,0
          -73.70859,5.58716,0
          -73.70872,5.58714,0
          -73.70886,5.58714,0
          -73.70899,5.58716,0
          -73.70906,5.58718,0
          -73.70924,5.58726,0
          -73.70948,5.58739,0
          -73.71004,5.58776,0
          -73.71051,5.58813,0
          -73.71075,5.58839,0
          -73.71266,5.59065,0
          -73.71288,5.59089,0
          -73.71309,5.59117,0
          -73.71333,5.59153,0
          -73.71362,5.59207,0
          -73.71364,5.59209,0
          -73.71387,5.59251,0
          -73.71404,5.59286,0
          -73.71425,5.59339,0
          -73.71441,5.59397,0
          -73.71454,5.5943,0
          -73.71503,5.5954,0
          -73.71564,5.59667,0
          -73.71565,5.5967,0
          -73.71586,5.59701,0
          -73.71597,5.59713,0
          -73.71597,5.59714,0
          -73.71637,5.5976,0
          -73.71649,5.59776,0
          -73.71657,5.59791,0
          -73.71675,5.59837,0
          -73.71681,5.59858,0
          -73.71691,5.59884,0
          -73.71695,5.5989,0
          -73.71699,5.59898,0
          -73.71703,5.59903,0
          -73.7172,5.59919,0
          -73.71727,5.59923,0
          -73.71773,5.59956,0
          -73.71795,5.59975,0
          -73.7181,5.59991,0
          -73.71824,5.6001,0
          -73.71832,5.60019,0
          -73.71843,5.60034,0
          -73.71843,5.60035,0
          -73.71891,5.60101,0
          -73.71898,5.60108,0
          -73.71906,5.60119,0
          -73.71913,5.60127,0
          -73.71951,5.60157,0
          -73.71967,5.60166,0
          -73.71968,5.60167,0
          -73.71976,5.60172,0
          -73.71979,5.60175,0
          -73.71998,5.60188,0
          -73.72019,5.60208,0
          -73.72046,5.60242,0
          -73.72061,5.60264,0
          -73.72064,5.60273,0
          -73.72066,5.60276,0
          -73.7207,5.60287,0
          -73.72073,5.60302,0
          -73.72073,5.60307,0
          -73.72074,5.60312,0
          -73.72075,5.60346,0
          -73.72079,5.60357,0
          -73.72082,5.60362,0
          -73.72093,5.60373,0
          -73.72101,5.60379,0
          -73.72114,5.60386,0
          -73.72171,5.60406,0
          -73.7219,5.60415,0
          -73.72222,5.60435,0
          -73.72223,5.60435,0
          -73.72294,5.60478,0
          -73.72335,5.60511,0
          -73.72406,5.6058,0
          -73.72438,5.60616,0
          -73.72463,5.60648,0
          -73.72472,5.60656,0
          -73.72485,5.60662,0
          -73.72491,5.60664,0
          -73.72511,5.60668,0
          -73.72527,5.6067,0
          -73.7254,5.6067,0
          -73.72562,5.60673,0
          -73.72581,5.60674,0
          -73.72612,5.60679,0
          -73.72621,5.60683,0
          -73.72634,5.60687,0
          -73.72662,5.60702,0
          -73.72691,5.60722,0
          -73.72713,5.60744,0
          -73.72844,5.6089,0
          -73.72846,5.60891,0
          -73.72864,5.60908,0
          -73.72871,5.60913,0
          -73.72881,5.60917,0
          -73.72899,5.60921,0
          -73.7291,5.60921,0
          -73.72933,5.60919,0
          -73.73219,5.60867,0
          -73.73247,5.60865,0
          -73.73259,5.60867,0
          -73.73279,5.60874,0
          -73.73336,5.60899,0
          -73.73355,5.60906,0
          -73.7337,5.6091,0
          -73.73389,5.60912,0
          -73.73405,5.60912,0
          -73.7352,5.60897,0
          -73.73523,5.60896,0
          -73.73644,5.60879,0
          -73.73663,5.60875,0
          -73.73691,5.60872,0
          -73.73717,5.60875,0
          -73.73722,5.60877,0
          -73.73737,5.60889,0
          -73.73744,5.60899,0
          -73.73755,5.60931,0
          -73.73767,5.60986,0
          -73.73786,5.61036,0
          -73.73802,5.6107,0
          -73.73809,5.61082,0
          -73.73819,5.61096,0
          -73.73848,5.61122,0
          -73.73861,5.61131,0
          -73.73862,5.61131,0
          -73.7391,5.61156,0
          -73.73928,5.61163,0
          -73.73984,5.61193,0
          -73.74006,5.61208,0
          -73.74046,5.6124,0
          -73.7406,5.61253,0
          -73.7413,5.61339,0
          -73.74147,5.6135,0
          -73.74162,5.61356,0
          -73.74163,5.61357,0
          -73.74181,5.61364,0
          -73.74262,5.61382,0
          -73.74289,5.61392,0
          -73.74315,5.61405,0
          -73.74351,5.61433,0
          -73.74351,5.61434,0
          -73.74398,5.61466,0
          -73.74412,5.61474,0
          -73.74428,5.61481,0
          -73.74452,5.61488,0
          -73.74471,5.61495,0
          -73.74486,5.61499,0
          -73.74511,5.61508,0
          -73.74553,5.61529,0
          -73.7456,5.61535,0
          -73.74575,5.61554,0
          -73.74603,5.61595,0
          -73.74605,5.616,0
          -73.74645,5.61662,0
          -73.7474,5.61854,0
          -73.74752,5.61872,0
          -73.74765,5.61887,0
          -73.74817,5.61926,0
          -73.74819,5.61927,0
          -73.74906,5.61999,0
          -73.74978,5.62075,0
          -73.7501,5.62118,0
          -73.75011,5.62118,0
          -73.75054,5.62177,0
          -73.75074,5.62196,0
          -73.75109,5.62222,0
          -73.75114,5.62225,0
          -73.75119,5.6223,0
          -73.75132,5.62236,0
          -73.75149,5.62238,0
          -73.75202,5.62239,0
          -73.75258,5.62249,0
          -73.75392,5.62293,0
          -73.75419,5.623,0
          -73.75428,5.62299,0
          -73.75436,5.62297,0
          -73.75453,5.62288,0
          -73.7547,5.62276,0
          -73.75509,5.62244,0
          -73.75519,5.62237,0
          -73.75536,5.62228,0
          -73.75546,5.62224,0
          -73.75593,5.62215,0
          -73.75612,5.62215,0
          -73.75617,5.62216,0
          -73.75632,5.62217,0
          -73.75668,5.62233,0
          -73.75687,5.62244,0
          -73.75695,5.6225,0
          -73.75704,5.62255,0
          -73.75716,5.62258,0
          -73.75727,5.62259,0
          -73.7582,5.62259,0
          -73.75874,5.62261,0
          -73.75902,5.62266,0
          -73.7599,5.62308,0
          -73.76015,5.62317,0
          -73.76045,5.62325,0
          -73.76094,5.62333,0
          -73.76426,5.62371,0
          -73.76458,5.62371,0
          -73.767,5.6235,0
          -73.77047,5.62303,0
          -73.77062,5.62302,0
          -73.77076,5.62299,0
          -73.77084,5.62296,0
          -73.77096,5.62289,0
          -73.77192,5.62209,0
          -73.77198,5.62203,0
          -73.7725,5.62167,0
          -73.77318,5.62115,0
          -73.77349,5.62087,0
          -73.77362,5.62077,0
          -73.77381,5.62068,0
          -73.77419,5.62062,0
          -73.77481,5.62058,0
          -73.77566,5.62049,0
          -73.77604,5.6204,0
          -73.77606,5.6204,0
          -73.77752,5.61999,0
          -73.77813,5.61985,0
          -73.77815,5.61984,0
          -73.77825,5.61984,0
          -73.7783,5.61985,0
          -73.77833,5.61985,0
          -73.77842,5.61988,0
          -73.7785,5.61995,0
          -73.77852,5.61999,0
          -73.77856,5.62004,0
          -73.77861,5.62013,0
          -73.77881,5.62067,0
          -73.77887,5.62088,0
          -73.77891,5.62096,0
          -73.77896,5.62103,0
          -73.77908,5.62113,0
          -73.77917,5.62117,0
          -73.77927,5.62119,0
          -73.77934,5.62119,0
          -73.77942,5.62118,0
          -73.77987,5.62117,0
          -73.78139,5.62103,0
          -73.78184,5.62101,0
          -73.78195,5.62104,0
          -73.78214,5.62113,0
          -73.78349,5.62219,0
          -73.78351,5.6222,0
          -73.78363,5.6223,0
          -73.78378,5.6224,0
          -73.78451,5.62296,0
          -73.78528,5.62341,0
          -73.78529,5.62342,0
          -73.78543,5.6235,0
          -73.78559,5.62362,0
          -73.78565,5.62365,0
          -73.78604,5.62395,0
          -73.78661,5.62433,0
          -73.78858,5.6263,0
          -73.78914,5.62693,0
          -73.78916,5.62696,0
          -73.78924,5.62705,0
          -73.78926,5.62706,0
          -73.78948,5.62732,0
          -73.78951,5.62734,0
          -73.78998,5.62786,0
          -73.79017,5.62799,0
          -73.79028,5.62804,0
          -73.79044,5.62807,0
          -73.79177,5.6281,0
          -73.79202,5.62815,0
          -73.79233,5.62826,0
          -73.79272,5.62849,0
          -73.79292,5.62859,0
          -73.79295,5.6286,0
          -73.79304,5.62861,0
          -73.79321,5.6286,0
          -73.79371,5.62852,0
          -73.79501,5.62836,0
          -73.79628,5.62825,0
          -73.7963,5.62824,0
          -73.79661,5.62821,0
          -73.79695,5.62815,0
          -73.79723,5.62805,0
          -73.7976,5.62789,0
          -73.79867,5.62719,0
          -73.79993,5.62644,0
          -73.80075,5.62592,0
          -73.80118,5.62567,0
          -73.8015,5.62554,0
          -73.80156,5.62553,0
          -73.80208,5.62539,0
          -73.80211,5.62539,0
          -73.8026,5.62524,0
          -73.80432,5.62458,0
          -73.80462,5.62449,0
          -73.80481,5.62445,0
          -73.80602,5.62432,0
          -73.80637,5.62424,0
          -73.80641,5.62424,0
          -73.80713,5.6241,0
          -73.80754,5.62406,0
          -73.80807,5.62395,0
          -73.80896,5.6238,0
          -73.80914,5.62378,0
          -73.80924,5.62379,0
          -73.80923,5.62377,0
          -73.80923,5.62371,0
          -73.80924,5.6237,0
          -73.80924,5.62369,0
          -73.80925,5.62368,0
          -73.80925,5.62367,0
          -73.80926,5.62367,0
          -73.80926,5.62366,0
          -73.80927,5.62366,0
          -73.80927,5.62365,0
          -73.80928,5.62365,0
          -73.80929,5.62364,0
          -73.80931,5.62364,0
          -73.80931,5.62363,0
          -73.80937,5.62363,0
          -73.80937,5.62364,0
          -73.80938,5.62364,0
          -73.8094,5.62365,0
          -73.80957,5.62345,0
          -73.81136,5.62167,0
          -73.81169,5.62131,0
          -73.81249,5.62051,0
          -73.81259,5.62048,0
          -73.81285,5.62023,0
          -73.81386,5.61939,0
          -73.81441,5.61905,0
          -73.81455,5.61898,0
          -73.81463,5.61892,0
          -73.81496,5.61863,0
          -73.81531,5.61819,0
          -73.81623,5.61688,0
          -73.81683,5.61627,0
          -73.81693,5.6162,0
          -73.8173,5.61606,0
          -73.81801,5.6159,0
          -73.81842,5.61575,0
          -73.8185,5.61571,0
          -73.81934,5.61538,0
          -73.81991,5.61508,0
          -73.8197,5.6147,0
        </coordinates>
      </LineString>
    </Placemark>
    <Placemark>
      <name>Tinjacá, Boyaca</name>
      <styleUrl>#icon-1899-DB4436-nodesc</styleUrl>
      <Point>
        <coordinates>
          -73.6471909,5.5786881,0
        </coordinates>
      </Point>
    </Placemark>
    <Placemark>
      <name>Chiquinquirá, Boyaca</name>
      <styleUrl>#icon-1899-DB4436-nodesc</styleUrl>
      <Point>
        <coordinates>
          -73.8197036,5.6147032,0
        </coordinates>
      </Point>
    </Placemark>
  </Document>
</kml>
