<?xml version="1.0" encoding="UTF-8"?>
<kml xmlns="http://www.opengis.net/kml/2.2">
  <Document>
    <name>Bogotá - La Calera</name>
    <Style id="icon-1899-DB4436-nodesc-normal">
      <IconStyle>
        <color>ff3644db</color>
        <scale>1</scale>
        <Icon>
          <href>https://www.gstatic.com/mapspro/images/stock/503-wht-blank_maps.png</href>
        </Icon>
        <hotSpot x="32" xunits="pixels" y="64" yunits="insetPixels"/>
      </IconStyle>
      <LabelStyle>
        <scale>0</scale>
      </LabelStyle>
      <BalloonStyle>
        <text><![CDATA[<h3>$[name]</h3>]]></text>
      </BalloonStyle>
    </Style>
    <Style id="icon-1899-DB4436-nodesc-highlight">
      <IconStyle>
        <color>ff3644db</color>
        <scale>1</scale>
        <Icon>
          <href>https://www.gstatic.com/mapspro/images/stock/503-wht-blank_maps.png</href>
        </Icon>
        <hotSpot x="32" xunits="pixels" y="64" yunits="insetPixels"/>
      </IconStyle>
      <LabelStyle>
        <scale>1</scale>
      </LabelStyle>
      <BalloonStyle>
        <text><![CDATA[<h3>$[name]</h3>]]></text>
      </BalloonStyle>
    </Style>
    <StyleMap id="icon-1899-DB4436-nodesc">
      <Pair>
        <key>normal</key>
        <styleUrl>#icon-1899-DB4436-nodesc-normal</styleUrl>
      </Pair>
      <Pair>
        <key>highlight</key>
        <styleUrl>#icon-1899-DB4436-nodesc-highlight</styleUrl>
      </Pair>
    </StyleMap>
    <Style id="line-1267FF-5000-nodesc-normal">
      <LineStyle>
        <color>ffff6712</color>
        <width>5</width>
      </LineStyle>
      <BalloonStyle>
        <text><![CDATA[<h3>$[name]</h3>]]></text>
      </BalloonStyle>
    </Style>
    <Style id="line-1267FF-5000-nodesc-highlight">
      <LineStyle>
        <color>ffff6712</color>
        <width>7.5</width>
      </LineStyle>
      <BalloonStyle>
        <text><![CDATA[<h3>$[name]</h3>]]></text>
      </BalloonStyle>
    </Style>
    <StyleMap id="line-1267FF-5000-nodesc">
      <Pair>
        <key>normal</key>
        <styleUrl>#line-1267FF-5000-nodesc-normal</styleUrl>
      </Pair>
      <Pair>
        <key>highlight</key>
        <styleUrl>#line-1267FF-5000-nodesc-highlight</styleUrl>
      </Pair>
    </StyleMap>
    <Placemark>
      <name>Bogotá - La Calera</name>
      <styleUrl>#line-1267FF-5000-nodesc</styleUrl>
      <LineString>
        <tessellate>1</tessellate>
        <coordinates>
          -73.96907,4.7192,0
          -73.96905,4.71918,0
          -73.96895,4.71912,0
          -73.969,4.71892,0
          -73.96916,4.71682,0
          -73.96916,4.71648,0
          -73.96915,4.71639,0
          -73.969,4.71572,0
          -73.96888,4.71534,0
          -73.96888,4.71523,0
          -73.96884,4.71509,0
          -73.96879,4.715,0
          -73.96848,4.71427,0
          -73.96824,4.71362,0
          -73.96825,4.71344,0
          -73.96828,4.71338,0
          -73.9683,4.71327,0
          -73.96828,4.71319,0
          -73.96825,4.71315,0
          -73.96813,4.71304,0
          -73.96804,4.71299,0
          -73.96796,4.71296,0
          -73.96777,4.71294,0
          -73.96779,4.7129,0
          -73.9678,4.71286,0
          -73.9678,4.71281,0
          -73.96776,4.71253,0
          -73.96778,4.71246,0
          -73.96778,4.71243,0
          -73.96787,4.71222,0
          -73.9679,4.71204,0
          -73.9679,4.7117,0
          -73.96792,4.71164,0
          -73.96818,4.71129,0
          -73.9682,4.71122,0
          -73.96821,4.71113,0
          -73.96821,4.71096,0
          -73.96812,4.71048,0
          -73.96812,4.71031,0
          -73.96813,4.71028,0
          -73.96813,4.71024,0
          -73.96827,4.70975,0
          -73.96829,4.70924,0
          -73.96837,4.70896,0
          -73.96842,4.70871,0
          -73.96843,4.70869,0
          -73.96842,4.70844,0
          -73.96839,4.7083,0
          -73.96837,4.70802,0
          -73.96838,4.70795,0
          -73.96841,4.70785,0
          -73.96878,4.70718,0
          -73.96889,4.70706,0
          -73.96969,4.70639,0
          -73.96979,4.70632,0
          -73.96996,4.70625,0
          -73.97015,4.70626,0
          -73.97018,4.70627,0
          -73.97026,4.70627,0
          -73.97029,4.70626,0
          -73.97032,4.70624,0
          -73.97037,4.70618,0
          -73.97037,4.70612,0
          -73.97036,4.70611,0
          -73.97036,4.70608,0
          -73.97033,4.70605,0
          -73.9703,4.70603,0
          -73.96999,4.70592,0
          -73.9694,4.7058,0
          -73.96936,4.7058,0
          -73.96892,4.70571,0
          -73.96881,4.70566,0
          -73.96875,4.70562,0
          -73.96797,4.70491,0
          -73.96788,4.70486,0
          -73.96787,4.70485,0
          -73.96777,4.70481,0
          -73.96739,4.70474,0
          -73.96734,4.70471,0
          -73.96728,4.70466,0
          -73.96722,4.70459,0
          -73.96716,4.70444,0
          -73.9671,4.70421,0
          -73.96706,4.70397,0
          -73.96703,4.7039,0
          -73.96696,4.70378,0
          -73.96695,4.70377,0
          -73.96678,4.70371,0
          -73.96644,4.70369,0
          -73.96633,4.70366,0
          -73.96625,4.70361,0
          -73.96595,4.70335,0
          -73.96592,4.7033,0
          -73.96589,4.70318,0
          -73.9659,4.70292,0
          -73.96586,4.70283,0
          -73.96585,4.70282,0
          -73.96583,4.70278,0
          -73.96576,4.70274,0
          -73.96575,4.70273,0
          -73.96566,4.7027,0
          -73.96555,4.70269,0
          -73.96548,4.70267,0
          -73.96534,4.70258,0
          -73.96516,4.70251,0
          -73.96506,4.70251,0
          -73.96497,4.70253,0
          -73.96478,4.70254,0
          -73.96469,4.70256,0
          -73.96454,4.70257,0
          -73.96451,4.70258,0
          -73.96449,4.70258,0
          -73.96441,4.7026,0
          -73.96431,4.70264,0
          -73.96413,4.70276,0
          -73.96395,4.70305,0
          -73.96389,4.70319,0
          -73.96385,4.70325,0
          -73.96382,4.70328,0
          -73.96155,4.70473,0
          -73.9613,4.70472,0
          -73.96102,4.70468,0
          -73.96085,4.70462,0
          -73.96074,4.70455,0
          -73.96069,4.70449,0
          -73.96064,4.70441,0
          -73.96062,4.70435,0
          -73.96062,4.70428,0
          -73.96061,4.70425,0
          -73.96085,4.70297,0
          -73.96092,4.7027,0
          -73.96099,4.70258,0
          -73.96104,4.70253,0
          -73.96202,4.70188,0
          -73.96217,4.70181,0
          -73.96218,4.70196,0
          -73.96222,4.70207,0
          -73.96225,4.70212,0
          -73.96234,4.7022,0
          -73.96239,4.70222,0
          -73.96258,4.70221,0
          -73.96265,4.70219,0
          -73.96339,4.70179,0
          -73.96392,4.70146,0
          -73.96456,4.70094,0
          -73.96468,4.70086,0
          -73.9647,4.70084,0
          -73.96482,4.70078,0
          -73.96498,4.70073,0
          -73.96516,4.70072,0
          -73.96529,4.70073,0
          -73.96535,4.70077,0
          -73.96539,4.7007,0
          -73.96546,4.70067,0
          -73.96547,4.70067,0
          -73.96549,4.70068,0
          -73.96555,4.70069,0
          -73.96599,4.70088,0
          -73.96615,4.70097,0
          -73.96622,4.70103,0
          -73.9664,4.70127,0
          -73.9668,4.70146,0
          -73.96681,4.70147,0
          -73.96692,4.70151,0
          -73.9671,4.70154,0
          -73.96739,4.70155,0
          -73.96751,4.70153,0
          -73.96785,4.70144,0
          -73.96802,4.70136,0
          -73.96838,4.7011,0
          -73.96846,4.70101,0
          -73.96863,4.70077,0
          -73.9687,4.70064,0
          -73.96887,4.70038,0
          -73.96926,4.7001,0
          -73.96927,4.7001,0
          -73.96954,4.69986,0
          -73.96961,4.6997,0
          -73.96961,4.69969,0
          -73.96964,4.69959,0
          -73.96974,4.69936,0
          -73.96984,4.69922,0
          -73.96985,4.69922,0
          -73.97017,4.69878,0
          -73.97026,4.69869,0
          -73.97037,4.69851,0
          -73.97037,4.69849,0
          -73.97038,4.69846,0
          -73.97039,4.69839,0
          -73.97038,4.69834,0
          -73.97038,4.69831,0
          -73.97036,4.69826,0
          -73.97034,4.69815,0
          -73.97035,4.698,0
          -73.97034,4.69794,0
          -73.97034,4.69787,0
          -73.97032,4.69778,0
          -73.97032,4.69775,0
          -73.97033,4.69771,0
          -73.97038,4.69762,0
          -73.97049,4.69747,0
          -73.97051,4.69742,0
          -73.97053,4.69739,0
          -73.97056,4.69732,0
          -73.97058,4.6972,0
          -73.97058,4.69713,0
          -73.97062,4.6969,0
          -73.97061,4.69672,0
          -73.97062,4.69671,0
          -73.97069,4.69659,0
          -73.97078,4.6965,0
          -73.97079,4.69648,0
          -73.97083,4.69643,0
          -73.97087,4.6964,0
          -73.97117,4.69629,0
          -73.97122,4.69626,0
          -73.97126,4.69622,0
          -73.97143,4.69589,0
          -73.97154,4.69577,0
          -73.97159,4.6957,0
          -73.97163,4.69561,0
          -73.97165,4.69558,0
          -73.97168,4.69551,0
          -73.97169,4.69543,0
          -73.97169,4.69531,0
          -73.97168,4.69526,0
          -73.9717,4.6952,0
          -73.97172,4.69517,0
          -73.97178,4.69511,0
          -73.97182,4.69509,0
          -73.97182,4.69508,0
          -73.97188,4.69501,0
          -73.97189,4.69498,0
          -73.97198,4.69482,0
          -73.97198,4.69481,0
          -73.97208,4.69462,0
          -73.97213,4.69455,0
          -73.9722,4.69449,0
          -73.97262,4.69422,0
          -73.97275,4.69412,0
          -73.97276,4.69412,0
          -73.97307,4.69392,0
          -73.97311,4.69388,0
          -73.97339,4.69347,0
          -73.97347,4.69333,0
          -73.9737,4.69278,0
          -73.97397,4.69228,0
          -73.97407,4.69216,0
          -73.97404,4.69207,0
          -73.97404,4.69203,0
          -73.97411,4.69182,0
          -73.97412,4.69181,0
          -73.97412,4.6918,0
          -73.97416,4.69168,0
          -73.97416,4.69164,0
          -73.97417,4.69161,0
          -73.97417,4.6915,0
          -73.97416,4.69144,0
          -73.97412,4.69131,0
          -73.97407,4.69104,0
          -73.97407,4.69088,0
          -73.97412,4.69057,0
          -73.97435,4.68979,0
          -73.97441,4.68948,0
          -73.97442,4.68946,0
          -73.9744,4.68939,0
          -73.97438,4.68935,0
          -73.97433,4.68928,0
          -73.97418,4.68917,0
          -73.97408,4.68912,0
          -73.97396,4.68912,0
          -73.97389,4.68913,0
          -73.97375,4.68917,0
          -73.97362,4.68924,0
          -73.97354,4.6893,0
          -73.97344,4.68941,0
          -73.97341,4.68942,0
          -73.9734,4.68943,0
          -73.97338,4.68944,0
          -73.97335,4.68944,0
          -73.97331,4.68943,0
          -73.97329,4.68943,0
          -73.97326,4.68941,0
          -73.97321,4.68936,0
          -73.97311,4.68923,0
          -73.97308,4.68915,0
          -73.97308,4.68912,0
          -73.97309,4.68909,0
          -73.97324,4.68895,0
          -73.97325,4.68893,0
          -73.97327,4.68891,0
          -73.9733,4.68882,0
          -73.97331,4.68868,0
          -73.97333,4.68857,0
          -73.97336,4.68819,0
          -73.97332,4.68813,0
          -73.97328,4.68809,0
          -73.97322,4.68805,0
          -73.97315,4.68803,0
          -73.97304,4.68802,0
          -73.973,4.68801,0
          -73.97294,4.68798,0
          -73.97293,4.68795,0
          -73.97291,4.68793,0
          -73.9729,4.68786,0
          -73.97289,4.68784,0
          -73.97286,4.68748,0
          -73.97285,4.68745,0
          -73.97283,4.68731,0
          -73.97284,4.68709,0
          -73.97286,4.68695,0
          -73.97281,4.68553,0
          -73.97282,4.68529,0
          -73.97285,4.68507,0
          -73.97292,4.68491,0
          -73.97314,4.68458,0
          -73.97315,4.68455,0
          -73.9733,4.68435,0
          -73.97342,4.68415,0
          -73.9736,4.68391,0
          -73.97363,4.68388,0
          -73.97365,4.68387,0
          -73.9737,4.68387,0
          -73.97408,4.68392,0
          -73.97427,4.68396,0
          -73.97501,4.68404,0
          -73.97525,4.68269,0
          -73.97534,4.68257,0
          -73.97538,4.68254,0
          -73.97548,4.68243,0
          -73.97555,4.68229,0
          -73.97573,4.68108,0
          -73.97576,4.68059,0
          -73.97573,4.68022,0
          -73.97575,4.68005,0
          -73.97596,4.67922,0
          -73.97607,4.67904,0
          -73.97614,4.67895,0
          -73.97633,4.67862,0
          -73.97692,4.67777,0
          -73.97716,4.67737,0
          -73.97747,4.67677,0
          -73.97751,4.67672,0
          -73.97757,4.67662,0
          -73.97776,4.67638,0
          -73.97799,4.67603,0
          -73.97834,4.6753,0
          -73.97848,4.67494,0
          -73.97861,4.67444,0
          -73.97863,4.67421,0
          -73.97863,4.67383,0
          -73.9786,4.67335,0
          -73.97859,4.67331,0
          -73.97856,4.67325,0
          -73.97817,4.67265,0
          -73.97817,4.67263,0
          -73.97813,4.67254,0
          -73.97805,4.67229,0
          -73.97804,4.67222,0
          -73.97799,4.67212,0
          -73.97798,4.67208,0
          -73.9779,4.67193,0
          -73.97781,4.67181,0
          -73.97781,4.6718,0
          -73.97748,4.67138,0
          -73.97725,4.67098,0
          -73.97723,4.67096,0
          -73.97722,4.6709,0
          -73.97718,4.6697,0
          -73.97721,4.66914,0
          -73.97722,4.66909,0
          -73.97723,4.66887,0
          -73.97727,4.66857,0
          -73.97732,4.66838,0
          -73.97734,4.6682,0
          -73.97735,4.6682,0
          -73.97739,4.66786,0
          -73.97739,4.6676,0
          -73.97734,4.66738,0
          -73.97733,4.66727,0
          -73.97738,4.66705,0
          -73.97749,4.66688,0
          -73.97761,4.66674,0
          -73.9777,4.66669,0
          -73.97776,4.66667,0
          -73.97777,4.66666,0
          -73.97782,4.66665,0
          -73.9779,4.66665,0
          -73.97805,4.66663,0
          -73.97845,4.66673,0
          -73.97865,4.6668,0
          -73.979,4.66688,0
          -73.97926,4.6669,0
          -73.97974,4.66686,0
          -73.98004,4.66687,0
          -73.98008,4.66688,0
          -73.9801,4.66688,0
          -73.98042,4.66696,0
          -73.98052,4.66697,0
          -73.98065,4.66696,0
          -73.98086,4.66692,0
          -73.98106,4.66686,0
          -73.98119,4.66685,0
          -73.98128,4.66686,0
          -73.98134,4.66689,0
          -73.98135,4.66689,0
          -73.98138,4.66692,0
          -73.9814,4.66695,0
          -73.98155,4.66711,0
          -73.98163,4.66718,0
          -73.98172,4.66722,0
          -73.98174,4.66724,0
          -73.98197,4.66733,0
          -73.98218,4.66747,0
          -73.98234,4.6676,0
          -73.98289,4.66669,0
          -73.98307,4.66648,0
          -73.98319,4.66631,0
          -73.98331,4.66535,0
          -73.98332,4.66533,0
          -73.98337,4.66502,0
          -73.9833,4.66482,0
          -73.98317,4.66468,0
          -73.9831,4.66447,0
          -73.98304,4.66392,0
          -73.98302,4.66322,0
          -73.98306,4.66318,0
          -73.98319,4.66311,0
          -73.98323,4.6631,0
          -73.98329,4.6631,0
          -73.98385,4.6632,0
          -73.98425,4.66322,0
          -73.9843,4.66321,0
          -73.98442,4.66314,0
          -73.9846,4.66298,0
          -73.98467,4.66293,0
          -73.98468,4.66293,0
          -73.9857,4.66262,0
          -73.98571,4.66262,0
          -73.98643,4.66239,0
          -73.98649,4.66235,0
          -73.9865,4.66233,0
          -73.98651,4.66232,0
          -73.98652,4.6623,0
          -73.98652,4.66222,0
          -73.98643,4.66206,0
          -73.98614,4.66163,0
          -73.98608,4.66146,0
          -73.98607,4.66128,0
          -73.98608,4.66122,0
          -73.9861,4.66116,0
          -73.98613,4.66111,0
          -73.9862,4.66106,0
          -73.98623,4.66105,0
          -73.98625,4.66105,0
          -73.98627,4.66104,0
          -73.98631,4.66104,0
          -73.98639,4.66106,0
          -73.9866,4.66114,0
          -73.98661,4.66115,0
          -73.98669,4.66118,0
          -73.98674,4.66119,0
          -73.98679,4.66119,0
          -73.9869,4.66116,0
          -73.98693,4.66113,0
          -73.98706,4.66104,0
          -73.98707,4.66102,0
          -73.98708,4.66102,0
          -73.9872,4.66092,0
          -73.98737,4.66081,0
          -73.98787,4.66042,0
          -73.98791,4.6604,0
          -73.98809,4.66034,0
          -73.98814,4.66034,0
          -73.98817,4.66035,0
          -73.98821,4.66039,0
          -73.98822,4.66042,0
          -73.98822,4.66044,0
          -73.98823,4.66044,0
          -73.98823,4.66054,0
          -73.98824,4.66057,0
          -73.98824,4.6606,0
          -73.98825,4.66061,0
          -73.98825,4.66063,0
          -73.98827,4.66065,0
          -73.98828,4.66067,0
          -73.9883,4.66069,0
          -73.98837,4.66073,0
          -73.98838,4.66073,0
          -73.98842,4.66075,0
          -73.98873,4.66082,0
          -73.98884,4.66094,0
          -73.9889,4.66105,0
          -73.9889,4.66108,0
          -73.98891,4.66111,0
          -73.98892,4.66112,0
          -73.98892,4.66122,0
          -73.9889,4.66126,0
          -73.9889,4.66128,0
          -73.98886,4.66137,0
          -73.98875,4.66156,0
          -73.98875,4.66157,0
          -73.98873,4.66161,0
          -73.98872,4.66162,0
          -73.98866,4.66185,0
          -73.98866,4.66188,0
          -73.98867,4.66189,0
          -73.98867,4.66192,0
          -73.98868,4.66194,0
          -73.9887,4.66195,0
          -73.9887,4.66196,0
          -73.98875,4.66198,0
          -73.98883,4.66203,0
          -73.98887,4.66207,0
          -73.98891,4.66213,0
          -73.98893,4.66221,0
          -73.98896,4.66228,0
          -73.98902,4.66235,0
          -73.98928,4.66246,0
          -73.98929,4.66248,0
          -73.98936,4.66254,0
          -73.9894,4.66256,0
          -73.98946,4.66256,0
          -73.98948,4.66255,0
          -73.98961,4.66243,0
          -73.98963,4.66242,0
          -73.98964,4.66241,0
          -73.98971,4.66239,0
          -73.98981,4.66239,0
          -73.98984,4.6624,0
          -73.98997,4.66249,0
          -73.99007,4.66253,0
          -73.99015,4.66255,0
          -73.99028,4.6626,0
          -73.9903,4.66262,0
          -73.99031,4.66264,0
          -73.99034,4.66267,0
          -73.99041,4.66277,0
          -73.99043,4.66284,0
          -73.99043,4.66289,0
          -73.99044,4.66291,0
          -73.99043,4.66294,0
          -73.9904,4.66317,0
          -73.99039,4.66339,0
          -73.9904,4.66346,0
          -73.99041,4.66348,0
          -73.99043,4.6635,0
          -73.99045,4.6635,0
          -73.99047,4.66351,0
          -73.99048,4.66351,0
          -73.99049,4.6635,0
          -73.99055,4.66347,0
          -73.99055,4.66346,0
          -73.99057,4.66344,0
          -73.99059,4.66338,0
          -73.99059,4.66331,0
          -73.99058,4.66329,0
          -73.99058,4.66317,0
          -73.99059,4.66314,0
          -73.99062,4.66309,0
          -73.99073,4.66301,0
          -73.99078,4.66296,0
          -73.99083,4.66285,0
          -73.99084,4.66285,0
          -73.99086,4.66282,0
          -73.99092,4.66278,0
          -73.99107,4.66272,0
          -73.99114,4.66268,0
          -73.99115,4.66268,0
          -73.99133,4.66253,0
          -73.99135,4.6625,0
          -73.99152,4.66239,0
          -73.99165,4.66235,0
          -73.99175,4.66235,0
          -73.99179,4.66237,0
          -73.99186,4.66242,0
          -73.99195,4.66251,0
          -73.99196,4.66254,0
          -73.99196,4.66264,0
          -73.99195,4.66267,0
          -73.99195,4.66268,0
          -73.99188,4.6628,0
          -73.9918,4.66287,0
          -73.99179,4.6629,0
          -73.99174,4.66296,0
          -73.99173,4.66298,0
          -73.99173,4.66308,0
          -73.99175,4.6631,0
          -73.99176,4.66312,0
          -73.99185,4.66318,0
          -73.99187,4.66318,0
          -73.99201,4.66324,0
          -73.99203,4.66326,0
          -73.99217,4.66335,0
          -73.9922,4.66338,0
          -73.99254,4.6636,0
          -73.9926,4.66366,0
          -73.99265,4.66373,0
          -73.99284,4.66412,0
          -73.99284,4.66415,0
          -73.99285,4.66416,0
          -73.99285,4.66422,0
          -73.99284,4.66424,0
          -73.9928,4.66428,0
          -73.99276,4.6643,0
          -73.99272,4.66431,0
          -73.99245,4.66431,0
          -73.99237,4.66434,0
          -73.99233,4.66438,0
          -73.9923,4.6644,0
          -73.9921,4.66465,0
          -73.99202,4.6648,0
          -73.99201,4.66485,0
          -73.99202,4.66498,0
          -73.99222,4.66557,0
          -73.99224,4.66573,0
          -73.99224,4.66581,0
          -73.99219,4.66614,0
          -73.9922,4.6667,0
          -73.99216,4.66698,0
          -73.99216,4.66743,0
          -73.99221,4.66761,0
          -73.99223,4.66773,0
          -73.99243,4.66834,0
          -73.99245,4.66834,0
          -73.99246,4.66835,0
          -73.99247,4.66835,0
          -73.99249,4.66837,0
          -73.9925,4.6684,0
          -73.99253,4.66845,0
          -73.99256,4.66853,0
          -73.99269,4.66868,0
          -73.99277,4.66874,0
          -73.9928,4.66875,0
          -73.99286,4.66875,0
          -73.99293,4.66871,0
          -73.99298,4.66862,0
          -73.99302,4.66851,0
          -73.99304,4.66848,0
          -73.99309,4.66835,0
          -73.99314,4.66826,0
          -73.99316,4.668,0
          -73.99317,4.66797,0
          -73.99317,4.66796,0
          -73.9932,4.66789,0
          -73.99322,4.66788,0
          -73.99323,4.66788,0
          -73.99324,4.66787,0
          -73.99329,4.66786,0
          -73.99337,4.66786,0
          -73.99479,4.66822,0
          -73.99497,4.66831,0
          -73.99518,4.66854,0
          -73.99523,4.66861,0
          -73.99526,4.66868,0
          -73.99526,4.66873,0
          -73.99527,4.66877,0
          -73.99526,4.66883,0
          -73.99526,4.66889,0
          -73.99521,4.66927,0
          -73.99514,4.66949,0
          -73.99514,4.66952,0
          -73.99515,4.66957,0
          -73.99525,4.66978,0
          -73.99527,4.66984,0
          -73.99527,4.66997,0
          -73.99526,4.67,0
          -73.99526,4.67003,0
          -73.99524,4.67007,0
          -73.99521,4.67011,0
          -73.99508,4.67021,0
          -73.99506,4.67022,0
          -73.995,4.67028,0
          -73.99481,4.67083,0
          -73.99473,4.67091,0
          -73.99472,4.67091,0
          -73.99467,4.67095,0
          -73.9946,4.67098,0
          -73.99456,4.67098,0
          -73.99452,4.67099,0
          -73.99434,4.67099,0
          -73.9943,4.671,0
          -73.99426,4.67103,0
          -73.99422,4.67105,0
          -73.99422,4.67106,0
          -73.99419,4.67109,0
          -73.99419,4.6711,0
          -73.99418,4.67111,0
          -73.99418,4.67113,0
          -73.99419,4.67114,0
          -73.99419,4.67116,0
          -73.9942,4.67116,0
          -73.9942,4.67117,0
          -73.99422,4.67119,0
          -73.99427,4.67122,0
          -73.99439,4.67132,0
          -73.99475,4.67169,0
          -73.99483,4.67174,0
          -73.99491,4.67181,0
          -73.99496,4.67189,0
          -73.99501,4.67212,0
          -73.99505,4.67249,0
          -73.99505,4.67265,0
          -73.99503,4.67276,0
          -73.99503,4.67279,0
          -73.99502,4.67284,0
          -73.99502,4.67301,0
          -73.99505,4.67322,0
          -73.99502,4.67343,0
          -73.99505,4.67383,0
          -73.99527,4.67404,0
          -73.99529,4.67409,0
          -73.99534,4.67417,0
          -73.99535,4.6742,0
          -73.99537,4.67422,0
          -73.99544,4.67412,0
          -73.99546,4.67408,0
          -73.99578,4.67369,0
          -73.99579,4.67364,0
          -73.99581,4.67359,0
          -73.99585,4.67341,0
          -73.99586,4.67316,0
          -73.9959,4.67296,0
          -73.99594,4.67286,0
          -73.99611,4.6726,0
          -73.99626,4.67229,0
          -73.99642,4.67179,0
          -73.99647,4.67169,0
          -73.9969,4.67114,0
          -73.99694,4.67105,0
          -73.99696,4.67098,0
          -73.99699,4.67074,0
          -73.99703,4.67057,0
          -73.99706,4.67051,0
          -73.99715,4.67043,0
          -73.99761,4.67013,0
          -73.99764,4.6701,0
          -73.99765,4.6701,0
          -73.99772,4.67001,0
          -73.99774,4.66997,0
          -73.99777,4.66987,0
          -73.99779,4.66954,0
          -73.99783,4.66938,0
          -73.99789,4.66926,0
          -73.998,4.66913,0
          -73.99812,4.66904,0
          -73.99826,4.66898,0
          -73.99886,4.6689,0
          -73.99892,4.66888,0
          -73.99915,4.66873,0
          -73.99918,4.6687,0
          -74.00011,4.66799,0
          -74.00016,4.66794,0
          -74.00018,4.6679,0
          -74.0002,4.66788,0
          -74.00022,4.66781,0
          -74.00023,4.66773,0
          -74.00023,4.66746,0
          -74.00024,4.66742,0
          -74.00024,4.6674,0
          -74.0003,4.66726,0
          -74.00033,4.66722,0
          -74.00045,4.66714,0
          -74.00056,4.6671,0
          -74.00093,4.66701,0
          -74.00096,4.66701,0
          -74.00109,4.66696,0
          -74.00122,4.66688,0
          -74.00301,4.66413,0
          -74.00335,4.66365,0
          -74.00335,4.66364,0
          -74.00361,4.66327,0
          -74.00374,4.66305,0
          -74.00377,4.66295,0
          -74.00383,4.66247,0
          -74.00389,4.6623,0
          -74.004,4.66214,0
          -74.00407,4.66208,0
          -74.00431,4.66199,0
          -74.00478,4.66193,0
          -74.00485,4.6619,0
          -74.00499,4.6618,0
          -74.00527,4.66137,0
          -74.00529,4.6613,0
          -74.00529,4.66115,0
          -74.00524,4.66073,0
          -74.00524,4.66062,0
          -74.00529,4.66042,0
          -74.00536,4.6603,0
          -74.0054,4.66026,0
          -74.00548,4.6602,0
          -74.00559,4.66015,0
          -74.00585,4.66013,0
          -74.00639,4.66013,0
          -74.00639,4.66004,0
          -74.00649,4.65977,0
          -74.00667,4.65946,0
          -74.00677,4.659,0
          -74.00704,4.65851,0
          -74.00713,4.6584,0
          -74.0073,4.65815,0
          -74.00733,4.65809,0
          -74.00736,4.65793,0
          -74.00734,4.6575,0
          -74.00741,4.65723,0
          -74.00751,4.65698,0
          -74.0081,4.65579,0
          -74.00814,4.65564,0
          -74.00816,4.65539,0
          -74.00819,4.65525,0
          -74.00824,4.6551,0
          -74.00846,4.65476,0
          -74.00872,4.65445,0
          -74.00877,4.65442,0
          -74.00912,4.6541,0
          -74.00927,4.65394,0
          -74.00933,4.65385,0
          -74.00936,4.65375,0
          -74.00937,4.65364,0
          -74.00935,4.65346,0
          -74.00929,4.65317,0
          -74.00928,4.65284,0
          -74.00924,4.6527,0
          -74.0092,4.65265,0
          -74.00917,4.65258,0
          -74.00915,4.65255,0
          -74.00912,4.65241,0
          -74.00914,4.65203,0
          -74.00915,4.652,0
          -74.00915,4.65197,0
          -74.00916,4.65194,0
          -74.0092,4.65188,0
          -74.00921,4.65188,0
          -74.00925,4.65183,0
          -74.0094,4.65173,0
          -74.00941,4.65173,0
          -74.00942,4.65172,0
          -74.00942,4.65171,0
          -74.00944,4.65166,0
          -74.00944,4.65161,0
          -74.00943,4.6516,0
          -74.00942,4.65158,0
          -74.00935,4.65154,0
          -74.00931,4.65153,0
          -74.00911,4.65152,0
          -74.00906,4.65151,0
          -74.00902,4.65149,0
          -74.00901,4.65147,0
          -74.00898,4.65145,0
          -74.00897,4.65139,0
          -74.00898,4.65134,0
          -74.00899,4.65132,0
          -74.00905,4.65126,0
          -74.00914,4.65121,0
          -74.0092,4.65121,0
          -74.00931,4.65123,0
          -74.0095,4.65131,0
          -74.00956,4.65131,0
          -74.00958,4.6513,0
          -74.00964,4.65124,0
          -74.00971,4.65106,0
          -74.00976,4.65097,0
          -74.00986,4.65112,0
          -74.01009,4.6514,0
          -74.0101,4.6514,0
          -74.0102,4.65148,0
          -74.01028,4.65152,0
          -74.0104,4.65155,0
          -74.01046,4.65155,0
          -74.01055,4.65152,0
          -74.01066,4.65152,0
          -74.01076,4.65156,0
          -74.01092,4.65165,0
          -74.01093,4.65166,0
          -74.01096,4.65167,0
          -74.01102,4.65167,0
          -74.01102,4.65166,0
          -74.01103,4.65166,0
          -74.01104,4.65164,0
          -74.01105,4.65163,0
          -74.01105,4.65156,0
          -74.01103,4.65152,0
          -74.01096,4.65146,0
          -74.01083,4.65138,0
          -74.01081,4.65136,0
          -74.0108,4.65134,0
          -74.01078,4.65132,0
          -74.01078,4.65124,0
          -74.0108,4.65122,0
          -74.01087,4.65119,0
          -74.0109,4.65119,0
          -74.01093,4.6512,0
          -74.01105,4.65128,0
          -74.01124,4.65146,0
          -74.01129,4.65148,0
          -74.01133,4.65148,0
          -74.01135,4.65147,0
          -74.01138,4.65144,0
          -74.01138,4.65141,0
          -74.01137,4.6514,0
          -74.01137,4.65138,0
          -74.01097,4.65071,0
          -74.01096,4.65068,0
          -74.01096,4.65067,0
          -74.01095,4.65065,0
          -74.01095,4.65057,0
          -74.01103,4.65029,0
          -74.01105,4.65025,0
          -74.01111,4.65019,0
          -74.01113,4.65019,0
          -74.01114,4.65018,0
          -74.01117,4.65018,0
          -74.0112,4.65017,0
          -74.01123,4.65018,0
          -74.01127,4.65018,0
          -74.0113,4.65019,0
          -74.01148,4.65031,0
          -74.01156,4.65034,0
          -74.01162,4.65034,0
          -74.01174,4.65032,0
          -74.01185,4.65032,0
          -74.01192,4.65034,0
          -74.01195,4.65036,0
          -74.01202,4.65055,0
          -74.01204,4.65058,0
          -74.01207,4.65061,0
          -74.0124,4.65079,0
          -74.01251,4.65091,0
          -74.01255,4.65093,0
          -74.0126,4.65094,0
          -74.0127,4.65094,0
          -74.01275,4.65093,0
          -74.01345,4.65059,0
          -74.01356,4.65056,0
          -74.01364,4.65056,0
          -74.01373,4.65059,0
          -74.01374,4.65059,0
          -74.01395,4.65066,0
          -74.0143,4.6509,0
          -74.01435,4.65092,0
          -74.01487,4.65124,0
          -74.01503,4.65131,0
          -74.01506,4.65131,0
          -74.0152,4.65134,0
          -74.01536,4.65141,0
          -74.01563,4.65145,0
          -74.01569,4.65145,0
          -74.01584,4.65143,0
          -74.01603,4.65138,0
          -74.01697,4.65104,0
          -74.01714,4.65101,0
          -74.01721,4.65098,0
          -74.01728,4.65097,0
          -74.01736,4.65097,0
          -74.01784,4.65085,0
          -74.01793,4.65084,0
          -74.0185,4.6507,0
          -74.01927,4.65073,0
          -74.01945,4.65072,0
          -74.0195,4.65071,0
          -74.01986,4.65073,0
          -74.02015,4.65078,0
          -74.02018,4.65078,0
          -74.02023,4.65079,0
          -74.0203,4.65078,0
          -74.02053,4.65079,0
          -74.0206,4.65078,0
          -74.02083,4.65078,0
          -74.02088,4.65076,0
          -74.02096,4.65075,0
          -74.02108,4.65075,0
          -74.02115,4.65076,0
          -74.02118,4.65077,0
          -74.0212,4.65079,0
          -74.02121,4.65081,0
          -74.02122,4.65081,0
          -74.02122,4.65082,0
          -74.02121,4.65083,0
          -74.0212,4.65086,0
          -74.0213,4.65091,0
          -74.02165,4.65098,0
          -74.02167,4.65099,0
          -74.02168,4.651,0
          -74.02168,4.65101,0
          -74.0217,4.65103,0
          -74.0217,4.65105,0
          -74.02171,4.65106,0
          -74.02171,4.65109,0
          -74.02169,4.65111,0
          -74.02168,4.65111,0
          -74.02167,4.65112,0
          -74.02154,4.6511,0
          -74.0215,4.6511,0
          -74.02142,4.65114,0
          -74.02138,4.65118,0
          -74.02138,4.65122,0
          -74.02139,4.65123,0
          -74.02139,4.65124,0
          -74.0214,4.65125,0
          -74.02141,4.65125,0
          -74.02143,4.65126,0
          -74.02145,4.65126,0
          -74.02148,4.65125,0
          -74.02159,4.65125,0
          -74.02176,4.65129,0
          -74.02185,4.65134,0
          -74.0221,4.65154,0
          -74.02217,4.65162,0
          -74.0222,4.65164,0
          -74.02221,4.65164,0
          -74.02222,4.65165,0
          -74.02224,4.65166,0
          -74.02227,4.65166,0
          -74.0223,4.65165,0
          -74.02233,4.65163,0
          -74.02236,4.65162,0
          -74.02243,4.65155,0
          -74.02247,4.65149,0
          -74.02262,4.65132,0
          -74.02269,4.65126,0
          -74.02279,4.6512,0
          -74.02284,4.65119,0
          -74.02286,4.65118,0
          -74.02289,4.65118,0
          -74.0229,4.65119,0
          -74.02291,4.65119,0
          -74.02298,4.65123,0
          -74.02299,4.65123,0
          -74.02309,4.65127,0
          -74.02318,4.65127,0
          -74.02355,4.65121,0
          -74.02358,4.65121,0
          -74.0236,4.65119,0
          -74.02362,4.65119,0
          -74.02362,4.65118,0
          -74.02364,4.65116,0
          -74.02364,4.65114,0
          -74.02365,4.65112,0
          -74.02364,4.65102,0
          -74.02365,4.651,0
          -74.02365,4.65098,0
          -74.02367,4.65096,0
          -74.02368,4.65094,0
          -74.02369,4.65094,0
          -74.0237,4.65093,0
          -74.02374,4.65093,0
          -74.02383,4.65096,0
          -74.02421,4.65096,0
          -74.02424,4.65095,0
          -74.02427,4.65096,0
          -74.02429,4.65096,0
          -74.02431,4.65097,0
          -74.02432,4.65098,0
          -74.02432,4.651,0
          -74.02433,4.65101,0
          -74.02432,4.65103,0
          -74.02432,4.65104,0
          -74.0243,4.65107,0
          -74.02424,4.65111,0
          -74.02418,4.65117,0
          -74.02416,4.65122,0
          -74.02411,4.65143,0
          -74.02409,4.65147,0
          -74.02403,4.65153,0
          -74.02402,4.65153,0
          -74.02387,4.65161,0
          -74.02386,4.65167,0
          -74.02388,4.65172,0
          -74.02392,4.65176,0
          -74.02396,4.65176,0
          -74.02398,4.65177,0
          -74.02405,4.65176,0
          -74.02412,4.65177,0
          -74.02431,4.65194,0
          -74.02449,4.65201,0
          -74.0246,4.65201,0
          -74.02468,4.65199,0
          -74.02492,4.65156,0
          -74.02495,4.65153,0
          -74.02499,4.65153,0
          -74.02504,4.65157,0
          -74.02542,4.65198,0
          -74.02553,4.65201,0
          -74.02558,4.65201,0
          -74.02558,4.652,0
          -74.02562,4.65197,0
          -74.02567,4.65186,0
          -74.0257,4.65183,0
          -74.02573,4.65183,0
          -74.02576,4.65187,0
          -74.0258,4.65199,0
          -74.02589,4.65205,0
          -74.0259,4.65205,0
          -74.02597,4.65208,0
          -74.02605,4.65206,0
          -74.02631,4.65183,0
          -74.02652,4.65175,0
          -74.02659,4.65168,0
          -74.02671,4.65161,0
          -74.02685,4.65157,0
          -74.02708,4.65147,0
          -74.02711,4.65148,0
          -74.02712,4.65151,0
          -74.02709,4.65172,0
          -74.02714,4.65182,0
          -74.02706,4.65222,0
          -74.02702,4.65229,0
          -74.02705,4.65249,0
          -74.0271,4.65252,0
          -74.02715,4.6525,0
          -74.0272,4.65236,0
          -74.02721,4.65236,0
          -74.02724,4.65235,0
          -74.02727,4.65235,0
          -74.02729,4.65237,0
          -74.0273,4.65239,0
          -74.02731,4.65246,0
          -74.02731,4.65253,0
          -74.02736,4.65261,0
          -74.02736,4.65271,0
          -74.0273,4.65283,0
          -74.02723,4.65335,0
          -74.02736,4.65351,0
          -74.02738,4.65362,0
          -74.02739,4.65363,0
          -74.02741,4.65367,0
          -74.02745,4.65366,0
          -74.02748,4.65364,0
          -74.02762,4.65344,0
          -74.02795,4.65327,0
          -74.02822,4.65307,0
          -74.02827,4.65307,0
          -74.02829,4.6531,0
          -74.02832,4.65346,0
          -74.02835,4.65349,0
          -74.02838,4.65349,0
          -74.02884,4.65331,0
        </coordinates>
      </LineString>
    </Placemark>
    <Placemark>
      <name>La Calera, Cundinamarca</name>
      <styleUrl>#icon-1899-DB4436-nodesc</styleUrl>
      <Point>
        <coordinates>
          -73.969072,4.719203,0
        </coordinates>
      </Point>
    </Placemark>
    <Placemark>
      <name>La Casa de Paco - Cocina de Pueblo, La Calera, Cundinamarca</name>
      <styleUrl>#icon-1899-DB4436-nodesc</styleUrl>
      <Point>
        <coordinates>
          -73.968131,4.710242,0
        </coordinates>
      </Point>
    </Placemark>
    <Placemark>
      <name>M2MG+WV La Calera, Cundinamarca, Colombia</name>
      <styleUrl>#icon-1899-DB4436-nodesc</styleUrl>
      <Point>
        <coordinates>
          -73.972973,4.684835,0
        </coordinates>
      </Point>
    </Placemark>
    <Placemark>
      <name>M275+35 La Calera, Cundinamarca, Colombia</name>
      <styleUrl>#icon-1899-DB4436-nodesc</styleUrl>
      <Point>
        <coordinates>
          -73.991961,4.662619,0
        </coordinates>
      </Point>
    </Placemark>
    <Placemark>
      <name>Tv. 2 Este #78, Bogotá, Colombia</name>
      <styleUrl>#icon-1899-DB4436-nodesc</styleUrl>
      <Point>
        <coordinates>
          -74.02884,4.653314,0
        </coordinates>
      </Point>
    </Placemark>
  </Document>
</kml>
