<?xml version="1.0" encoding="UTF-8"?>
<kml xmlns="http://www.opengis.net/kml/2.2">
  <Document>
    <name>Cucunubá - Lenguazaque</name>
    <Style id="icon-1899-DB4436-nodesc-normal">
      <IconStyle>
        <color>ff3644db</color>
        <scale>1</scale>
        <Icon>
          <href>https://www.gstatic.com/mapspro/images/stock/503-wht-blank_maps.png</href>
        </Icon>
        <hotSpot x="32" xunits="pixels" y="64" yunits="insetPixels"/>
      </IconStyle>
      <LabelStyle>
        <scale>0</scale>
      </LabelStyle>
      <BalloonStyle>
        <text><![CDATA[<h3>$[name]</h3>]]></text>
      </BalloonStyle>
    </Style>
    <Style id="icon-1899-DB4436-nodesc-highlight">
      <IconStyle>
        <color>ff3644db</color>
        <scale>1</scale>
        <Icon>
          <href>https://www.gstatic.com/mapspro/images/stock/503-wht-blank_maps.png</href>
        </Icon>
        <hotSpot x="32" xunits="pixels" y="64" yunits="insetPixels"/>
      </IconStyle>
      <LabelStyle>
        <scale>1</scale>
      </LabelStyle>
      <BalloonStyle>
        <text><![CDATA[<h3>$[name]</h3>]]></text>
      </BalloonStyle>
    </Style>
    <StyleMap id="icon-1899-DB4436-nodesc">
      <Pair>
        <key>normal</key>
        <styleUrl>#icon-1899-DB4436-nodesc-normal</styleUrl>
      </Pair>
      <Pair>
        <key>highlight</key>
        <styleUrl>#icon-1899-DB4436-nodesc-highlight</styleUrl>
      </Pair>
    </StyleMap>
    <Style id="line-1267FF-5000-nodesc-normal">
      <LineStyle>
        <color>ffff6712</color>
        <width>5</width>
      </LineStyle>
      <BalloonStyle>
        <text><![CDATA[<h3>$[name]</h3>]]></text>
      </BalloonStyle>
    </Style>
    <Style id="line-1267FF-5000-nodesc-highlight">
      <LineStyle>
        <color>ffff6712</color>
        <width>7.5</width>
      </LineStyle>
      <BalloonStyle>
        <text><![CDATA[<h3>$[name]</h3>]]></text>
      </BalloonStyle>
    </Style>
    <StyleMap id="line-1267FF-5000-nodesc">
      <Pair>
        <key>normal</key>
        <styleUrl>#line-1267FF-5000-nodesc-normal</styleUrl>
      </Pair>
      <Pair>
        <key>highlight</key>
        <styleUrl>#line-1267FF-5000-nodesc-highlight</styleUrl>
      </Pair>
    </StyleMap>
    <Placemark>
      <name>Cucunubá - Lenguazaque</name>
      <styleUrl>#line-1267FF-5000-nodesc</styleUrl>
      <LineString>
        <tessellate>1</tessellate>
        <coordinates>
          -73.76609,5.2502,0
          -73.76599,5.25034,0
          -73.76664,5.2509,0
          -73.7666,5.25102,0
          -73.76655,5.25133,0
          -73.76655,5.2514,0
          -73.76656,5.25146,0
          -73.76662,5.2516,0
          -73.76663,5.25165,0
          -73.7666,5.25199,0
          -73.7666,5.25217,0
          -73.76665,5.25246,0
          -73.76662,5.25312,0
          -73.76661,5.25318,0
          -73.76665,5.25336,0
          -73.76665,5.25343,0
          -73.76645,5.25446,0
          -73.76645,5.25449,0
          -73.76618,5.25559,0
          -73.76613,5.25595,0
          -73.76614,5.25633,0
          -73.76616,5.25644,0
          -73.76616,5.2565,0
          -73.7662,5.25661,0
          -73.76623,5.25675,0
          -73.76623,5.25689,0
          -73.7662,5.25705,0
          -73.76616,5.25713,0
          -73.76601,5.25736,0
          -73.76601,5.25737,0
          -73.76597,5.25744,0
          -73.76596,5.25753,0
          -73.76598,5.25767,0
          -73.76593,5.25787,0
          -73.76592,5.25805,0
          -73.76594,5.25812,0
          -73.76596,5.25815,0
          -73.76597,5.25818,0
          -73.76615,5.25843,0
          -73.76616,5.25846,0
          -73.76617,5.25854,0
          -73.76616,5.25869,0
          -73.76618,5.25917,0
          -73.76615,5.25933,0
          -73.76615,5.25941,0
          -73.76625,5.25986,0
          -73.76625,5.25999,0
          -73.76623,5.26007,0
          -73.76591,5.26053,0
          -73.76565,5.26086,0
          -73.76553,5.26099,0
          -73.76539,5.2612,0
          -73.76464,5.26255,0
          -73.76453,5.26283,0
          -73.76403,5.26387,0
          -73.76381,5.2642,0
          -73.76359,5.26443,0
          -73.76359,5.26444,0
          -73.76355,5.26449,0
          -73.76337,5.26485,0
          -73.76333,5.26489,0
          -73.76333,5.2649,0
          -73.76332,5.2649,0
          -73.76322,5.26503,0
          -73.76321,5.26503,0
          -73.7632,5.26505,0
          -73.76307,5.26514,0
          -73.76306,5.26514,0
          -73.76305,5.26515,0
          -73.76303,5.26519,0
          -73.76302,5.26523,0
          -73.76302,5.2653,0
          -73.76299,5.26545,0
          -73.76273,5.26626,0
          -73.7627,5.26641,0
          -73.7627,5.26644,0
          -73.76272,5.26651,0
          -73.76227,5.26677,0
          -73.7621,5.2669,0
          -73.76159,5.26738,0
          -73.76122,5.26778,0
          -73.76042,5.26873,0
          -73.7604,5.26874,0
          -73.7593,5.26993,0
          -73.75841,5.27105,0
          -73.75827,5.27118,0
          -73.75812,5.27128,0
          -73.75775,5.27142,0
          -73.75765,5.27144,0
          -73.75761,5.27146,0
          -73.75746,5.2715,0
          -73.75744,5.27151,0
          -73.75726,5.27156,0
          -73.75723,5.27158,0
          -73.75715,5.27161,0
          -73.7571,5.27164,0
          -73.75704,5.27169,0
          -73.75698,5.27177,0
          -73.75697,5.27177,0
          -73.7569,5.27186,0
          -73.75686,5.27193,0
          -73.75669,5.27213,0
          -73.75663,5.27218,0
          -73.75663,5.27219,0
          -73.75657,5.27223,0
          -73.75642,5.27228,0
          -73.75574,5.27237,0
          -73.75567,5.27241,0
          -73.75562,5.27248,0
          -73.75559,5.27251,0
          -73.75553,5.27263,0
          -73.75553,5.27264,0
          -73.75542,5.27285,0
          -73.75533,5.27296,0
          -73.75522,5.27302,0
          -73.75518,5.27302,0
          -73.75509,5.27305,0
          -73.75502,5.27309,0
          -73.75499,5.2731,0
          -73.75496,5.27312,0
          -73.7549,5.27318,0
          -73.75468,5.2735,0
          -73.75455,5.27377,0
          -73.75454,5.27382,0
          -73.75453,5.27383,0
          -73.75452,5.27386,0
          -73.75445,5.27395,0
          -73.75442,5.27396,0
          -73.75441,5.27397,0
          -73.75435,5.274,0
          -73.75389,5.27407,0
          -73.75386,5.27408,0
          -73.75352,5.27408,0
          -73.75342,5.27409,0
          -73.75339,5.27411,0
          -73.75337,5.27415,0
          -73.75334,5.27418,0
          -73.75334,5.27421,0
          -73.75335,5.27424,0
          -73.75338,5.27427,0
          -73.75339,5.27429,0
          -73.75349,5.2744,0
          -73.75353,5.27451,0
          -73.75354,5.27457,0
          -73.75353,5.2746,0
          -73.75353,5.27462,0
          -73.75345,5.27481,0
          -73.75331,5.27501,0
          -73.75325,5.27514,0
          -73.75325,5.27516,0
          -73.75317,5.27538,0
          -73.75309,5.27552,0
          -73.75287,5.27581,0
          -73.7526,5.27608,0
          -73.75258,5.27611,0
          -73.75254,5.27615,0
          -73.75251,5.27622,0
          -73.75244,5.27649,0
          -73.75237,5.27665,0
          -73.75235,5.27668,0
          -73.7523,5.27672,0
          -73.7522,5.27676,0
          -73.75214,5.27677,0
          -73.75213,5.27678,0
          -73.75185,5.27682,0
          -73.75172,5.27686,0
          -73.75163,5.27694,0
          -73.75162,5.27696,0
          -73.7516,5.27705,0
          -73.75158,5.27725,0
          -73.75153,5.27735,0
          -73.75146,5.27739,0
          -73.7514,5.27739,0
          -73.75137,5.2774,0
          -73.75135,5.27739,0
          -73.75133,5.27739,0
          -73.75127,5.27734,0
          -73.75126,5.27734,0
          -73.75123,5.27731,0
          -73.7512,5.2773,0
          -73.75118,5.27728,0
          -73.75109,5.27728,0
          -73.75107,5.2773,0
          -73.75101,5.27734,0
          -73.75095,5.2774,0
          -73.75088,5.27749,0
          -73.75086,5.27754,0
          -73.75084,5.27763,0
          -73.75082,5.27785,0
          -73.7502,5.27861,0
          -73.75011,5.27866,0
          -73.75006,5.27867,0
          -73.75005,5.27868,0
          -73.74999,5.27868,0
          -73.74992,5.27871,0
          -73.74991,5.27871,0
          -73.7499,5.27872,0
          -73.74984,5.27884,0
          -73.74976,5.27905,0
          -73.74976,5.27906,0
          -73.74964,5.2793,0
          -73.74956,5.2795,0
          -73.74951,5.27971,0
          -73.74951,5.27973,0
          -73.7495,5.27974,0
          -73.74935,5.28003,0
          -73.74913,5.28032,0
          -73.74913,5.28033,0
          -73.74901,5.28049,0
          -73.7489,5.28072,0
          -73.74886,5.28078,0
          -73.74878,5.28086,0
          -73.74875,5.28088,0
          -73.74867,5.2809,0
          -73.74864,5.2809,0
          -73.74854,5.28087,0
          -73.74843,5.28086,0
          -73.74837,5.28087,0
          -73.74836,5.28088,0
          -73.74835,5.28088,0
          -73.74823,5.28099,0
          -73.74821,5.28102,0
          -73.74778,5.28149,0
          -73.74766,5.28159,0
          -73.74704,5.282,0
          -73.74701,5.28201,0
          -73.74694,5.28207,0
          -73.7469,5.28212,0
          -73.74686,5.2822,0
          -73.74684,5.28226,0
          -73.74681,5.2826,0
          -73.74678,5.28275,0
          -73.74674,5.28284,0
          -73.74671,5.28287,0
          -73.74667,5.28289,0
          -73.74645,5.28289,0
          -73.7464,5.28288,0
          -73.74637,5.28289,0
          -73.74634,5.28289,0
          -73.74628,5.28292,0
          -73.74621,5.28297,0
          -73.74618,5.283,0
          -73.74615,5.28302,0
          -73.74602,5.28305,0
          -73.74597,5.28305,0
          -73.7459,5.28303,0
          -73.74587,5.28303,0
          -73.74582,5.28301,0
          -73.74577,5.283,0
          -73.74565,5.28295,0
          -73.74555,5.28295,0
          -73.74546,5.28298,0
          -73.74532,5.28307,0
          -73.74526,5.28309,0
          -73.74481,5.28316,0
          -73.74464,5.28316,0
          -73.74426,5.28326,0
          -73.7441,5.28326,0
          -73.74403,5.28325,0
          -73.7439,5.28325,0
          -73.74376,5.28331,0
          -73.74375,5.28332,0
          -73.7434,5.28337,0
          -73.74324,5.28337,0
          -73.74304,5.28339,0
          -73.74269,5.28349,0
          -73.74267,5.28349,0
          -73.74227,5.28371,0
          -73.74212,5.28375,0
          -73.74194,5.28375,0
          -73.7419,5.28374,0
          -73.74186,5.28372,0
          -73.74185,5.28372,0
          -73.74169,5.28364,0
          -73.74162,5.28364,0
          -73.74152,5.28367,0
          -73.74148,5.28369,0
          -73.74126,5.28391,0
          -73.74119,5.28401,0
          -73.74115,5.28405,0
          -73.74114,5.28407,0
          -73.74104,5.28415,0
          -73.74058,5.28441,0
          -73.74049,5.2845,0
          -73.74036,5.28471,0
          -73.7403,5.28477,0
          -73.74022,5.28483,0
          -73.73954,5.28515,0
          -73.73923,5.28534,0
          -73.73914,5.28541,0
          -73.73888,5.28568,0
          -73.73881,5.28572,0
          -73.73857,5.28578,0
          -73.7385,5.28581,0
          -73.73826,5.28587,0
          -73.73814,5.28587,0
          -73.73791,5.2859,0
          -73.73779,5.28594,0
          -73.73764,5.28601,0
          -73.73763,5.28602,0
          -73.73742,5.28612,0
          -73.7373,5.28616,0
          -73.73724,5.28616,0
          -73.73702,5.28619,0
          -73.73639,5.28621,0
          -73.73628,5.28625,0
          -73.73623,5.28628,0
          -73.73606,5.28635,0
          -73.73603,5.28635,0
          -73.7357,5.28643,0
          -73.73554,5.2865,0
          -73.73544,5.28657,0
          -73.73541,5.28662,0
          -73.7354,5.28667,0
          -73.73535,5.28679,0
          -73.73528,5.28686,0
          -73.73522,5.2869,0
          -73.73522,5.28691,0
          -73.73516,5.28693,0
          -73.73506,5.28699,0
          -73.73482,5.28726,0
          -73.73474,5.28732,0
          -73.73451,5.28741,0
          -73.7345,5.28741,0
          -73.73446,5.28744,0
          -73.7344,5.28747,0
          -73.73437,5.2875,0
          -73.73436,5.28753,0
          -73.73429,5.28761,0
          -73.73419,5.28768,0
          -73.73407,5.28774,0
          -73.73404,5.28777,0
          -73.73395,5.2878,0
          -73.73386,5.2878,0
          -73.73383,5.28778,0
          -73.73373,5.28776,0
          -73.73373,5.28775,0
          -73.73366,5.28772,0
          -73.73364,5.28768,0
          -73.73365,5.28763,0
          -73.73365,5.28757,0
          -73.73366,5.28754,0
          -73.73366,5.2875,0
          -73.73365,5.28747,0
          -73.73365,5.28745,0
          -73.73364,5.28744,0
          -73.73362,5.2874,0
          -73.7336,5.28739,0
          -73.73359,5.28738,0
          -73.73357,5.28737,0
          -73.73341,5.28737,0
          -73.73327,5.28735,0
          -73.73324,5.28733,0
          -73.73299,5.28722,0
          -73.73291,5.2872,0
          -73.73281,5.2872,0
          -73.73277,5.28721,0
          -73.73264,5.28721,0
          -73.73254,5.28716,0
          -73.73243,5.28705,0
          -73.73242,5.28705,0
          -73.73225,5.28684,0
          -73.73223,5.28683,0
          -73.73222,5.28682,0
          -73.73219,5.28681,0
          -73.73213,5.28681,0
          -73.73184,5.2869,0
          -73.73169,5.28697,0
          -73.73168,5.28697,0
          -73.73162,5.28702,0
          -73.73159,5.28706,0
          -73.73158,5.28709,0
          -73.73157,5.28709,0
          -73.73152,5.28714,0
          -73.73134,5.28724,0
          -73.73132,5.28726,0
          -73.73131,5.28729,0
          -73.7313,5.28729,0
          -73.73129,5.28733,0
          -73.73127,5.28735,0
          -73.73111,5.28743,0
          -73.7309,5.2875,0
          -73.73055,5.28752,0
          -73.73051,5.28754,0
          -73.73037,5.28756,0
          -73.72991,5.28767,0
          -73.72969,5.28774,0
          -73.72968,5.28774,0
          -73.72952,5.2878,0
          -73.72951,5.28781,0
          -73.72911,5.28796,0
          -73.72894,5.28805,0
          -73.7287,5.28821,0
          -73.7285,5.28831,0
          -73.72837,5.28835,0
          -73.72836,5.28836,0
          -73.72772,5.2885,0
          -73.72761,5.28851,0
          -73.72753,5.28853,0
          -73.72736,5.2886,0
          -73.72735,5.2886,0
          -73.72733,5.28862,0
          -73.7272,5.28869,0
          -73.72688,5.28899,0
          -73.72684,5.28904,0
          -73.7267,5.28917,0
          -73.72669,5.28917,0
          -73.72667,5.28919,0
          -73.72645,5.28928,0
          -73.72602,5.28939,0
          -73.72599,5.28941,0
          -73.72583,5.28947,0
          -73.72574,5.28952,0
          -73.72563,5.28962,0
          -73.72551,5.2898,0
          -73.72548,5.28993,0
          -73.72548,5.28997,0
          -73.72559,5.29022,0
          -73.7256,5.2903,0
          -73.72558,5.29035,0
          -73.72552,5.29041,0
          -73.72549,5.29043,0
          -73.72544,5.29045,0
          -73.72543,5.29045,0
          -73.72527,5.29052,0
          -73.7252,5.29053,0
          -73.72501,5.2905,0
          -73.72454,5.29052,0
          -73.72453,5.29053,0
          -73.7245,5.29054,0
          -73.72439,5.29062,0
          -73.72438,5.29064,0
          -73.72428,5.29068,0
          -73.72423,5.29069,0
          -73.72405,5.29068,0
          -73.72402,5.29066,0
          -73.72386,5.2906,0
          -73.72367,5.29059,0
          -73.72353,5.29062,0
          -73.7235,5.29064,0
          -73.72341,5.29067,0
          -73.72303,5.29091,0
          -73.72267,5.29103,0
          -73.72261,5.29107,0
          -73.72234,5.2913,0
          -73.72223,5.29135,0
          -73.72197,5.29139,0
          -73.72192,5.29139,0
          -73.72181,5.29143,0
          -73.72154,5.29158,0
          -73.72124,5.29181,0
          -73.72076,5.29209,0
          -73.72056,5.29214,0
          -73.72038,5.29221,0
          -73.72035,5.29223,0
          -73.72035,5.29224,0
          -73.72028,5.29238,0
          -73.72022,5.29246,0
          -73.72019,5.29248,0
          -73.7201,5.29251,0
          -73.71999,5.29251,0
          -73.71994,5.29252,0
          -73.71986,5.29255,0
          -73.71981,5.29259,0
          -73.71979,5.2926,0
          -73.71955,5.29285,0
          -73.71944,5.29301,0
          -73.71943,5.29301,0
          -73.71937,5.2931,0
          -73.71921,5.29329,0
          -73.71921,5.2933,0
          -73.71898,5.29356,0
          -73.71892,5.29361,0
          -73.71887,5.29364,0
          -73.7186,5.29372,0
          -73.7184,5.29375,0
          -73.71829,5.29378,0
          -73.71821,5.29383,0
          -73.71813,5.29391,0
          -73.71766,5.29449,0
          -73.71748,5.29462,0
          -73.71716,5.29489,0
          -73.7169,5.29522,0
          -73.71678,5.29541,0
          -73.71669,5.29549,0
          -73.71655,5.29558,0
          -73.71646,5.29566,0
          -73.71646,5.29567,0
          -73.71579,5.29627,0
          -73.71545,5.29652,0
          -73.71514,5.29665,0
          -73.715,5.29669,0
          -73.71465,5.29669,0
          -73.71464,5.2967,0
          -73.71452,5.29672,0
          -73.71431,5.2968,0
          -73.714,5.29699,0
          -73.71385,5.29712,0
          -73.71363,5.29739,0
          -73.71361,5.2974,0
          -73.71354,5.29755,0
          -73.71351,5.29759,0
          -73.71342,5.29796,0
          -73.71337,5.29805,0
          -73.71337,5.29806,0
          -73.713,5.29887,0
          -73.71299,5.29888,0
          -73.71239,5.30016,0
          -73.71225,5.30057,0
          -73.71223,5.30071,0
          -73.71223,5.30079,0
          -73.71229,5.30104,0
          -73.7124,5.30126,0
          -73.71251,5.30153,0
          -73.71251,5.30155,0
          -73.71256,5.30178,0
          -73.71256,5.30188,0
          -73.71245,5.30234,0
          -73.71224,5.30271,0
          -73.71187,5.30318,0
          -73.71154,5.30366,0
          -73.71151,5.30382,0
          -73.71157,5.3051,0
          -73.71153,5.3059,0
          -73.71172,5.30594,0
          -73.7118,5.30597,0
          -73.71214,5.30605,0
        </coordinates>
      </LineString>
    </Placemark>
    <Placemark>
      <name>Cucunubá, Cundinamarca</name>
      <styleUrl>#icon-1899-DB4436-nodesc</styleUrl>
      <Point>
        <coordinates>
          -73.7660942,5.2502044,0
        </coordinates>
      </Point>
    </Placemark>
    <Placemark>
      <name>Lenguazaque, Cundinamarca</name>
      <styleUrl>#icon-1899-DB4436-nodesc</styleUrl>
      <Point>
        <coordinates>
          -73.7121446,5.3060547,0
        </coordinates>
      </Point>
    </Placemark>
  </Document>
</kml>
