<?xml version="1.0" encoding="UTF-8"?>
<kml xmlns="http://www.opengis.net/kml/2.2">
  <Document>
    <name>Lenguazaque - Guachetá</name>
    <Style id="icon-1899-DB4436-nodesc-normal">
      <IconStyle>
        <color>ff3644db</color>
        <scale>1</scale>
        <Icon>
          <href>https://www.gstatic.com/mapspro/images/stock/503-wht-blank_maps.png</href>
        </Icon>
        <hotSpot x="32" xunits="pixels" y="64" yunits="insetPixels"/>
      </IconStyle>
      <LabelStyle>
        <scale>0</scale>
      </LabelStyle>
      <BalloonStyle>
        <text><![CDATA[<h3>$[name]</h3>]]></text>
      </BalloonStyle>
    </Style>
    <Style id="icon-1899-DB4436-nodesc-highlight">
      <IconStyle>
        <color>ff3644db</color>
        <scale>1</scale>
        <Icon>
          <href>https://www.gstatic.com/mapspro/images/stock/503-wht-blank_maps.png</href>
        </Icon>
        <hotSpot x="32" xunits="pixels" y="64" yunits="insetPixels"/>
      </IconStyle>
      <LabelStyle>
        <scale>1</scale>
      </LabelStyle>
      <BalloonStyle>
        <text><![CDATA[<h3>$[name]</h3>]]></text>
      </BalloonStyle>
    </Style>
    <StyleMap id="icon-1899-DB4436-nodesc">
      <Pair>
        <key>normal</key>
        <styleUrl>#icon-1899-DB4436-nodesc-normal</styleUrl>
      </Pair>
      <Pair>
        <key>highlight</key>
        <styleUrl>#icon-1899-DB4436-nodesc-highlight</styleUrl>
      </Pair>
    </StyleMap>
    <Style id="line-1267FF-5000-nodesc-normal">
      <LineStyle>
        <color>ffff6712</color>
        <width>5</width>
      </LineStyle>
      <BalloonStyle>
        <text><![CDATA[<h3>$[name]</h3>]]></text>
      </BalloonStyle>
    </Style>
    <Style id="line-1267FF-5000-nodesc-highlight">
      <LineStyle>
        <color>ffff6712</color>
        <width>7.5</width>
      </LineStyle>
      <BalloonStyle>
        <text><![CDATA[<h3>$[name]</h3>]]></text>
      </BalloonStyle>
    </Style>
    <StyleMap id="line-1267FF-5000-nodesc">
      <Pair>
        <key>normal</key>
        <styleUrl>#line-1267FF-5000-nodesc-normal</styleUrl>
      </Pair>
      <Pair>
        <key>highlight</key>
        <styleUrl>#line-1267FF-5000-nodesc-highlight</styleUrl>
      </Pair>
    </StyleMap>
    <Placemark>
      <name>Lenguazaque - Guachetá</name>
      <styleUrl>#line-1267FF-5000-nodesc</styleUrl>
      <LineString>
        <tessellate>1</tessellate>
        <coordinates>
          -73.71214,5.30605,0
          -73.71207,5.30638,0
          -73.71199,5.30671,0
          -73.71189,5.30706,0
          -73.71187,5.30712,0
          -73.71184,5.30723,0
          -73.71176,5.30752,0
          -73.71171,5.30782,0
          -73.71153,5.30777,0
          -73.71128,5.30772,0
          -73.7112,5.30801,0
          -73.71119,5.30805,0
          -73.71103,5.30867,0
          -73.71092,5.3091,0
          -73.7109,5.30919,0
          -73.71086,5.30936,0
          -73.71084,5.3095,0
          -73.71083,5.30957,0
          -73.71082,5.30962,0
          -73.71082,5.30982,0
          -73.7108,5.31017,0
          -73.71078,5.31028,0
          -73.71076,5.31038,0
          -73.71072,5.31047,0
          -73.71069,5.31055,0
          -73.71064,5.31066,0
          -73.71056,5.31082,0
          -73.71049,5.31097,0
          -73.71041,5.31113,0
          -73.71035,5.31129,0
          -73.71028,5.31144,0
          -73.7102,5.31159,0
          -73.71012,5.31174,0
          -73.71002,5.31194,0
          -73.70991,5.31214,0
          -73.7098,5.31233,0
          -73.70973,5.31245,0
          -73.70967,5.31256,0
          -73.70956,5.31278,0
          -73.70946,5.31297,0
          -73.7094,5.31309,0
          -73.70931,5.31324,0
          -73.70931,5.31325,0
          -73.70924,5.31335,0
          -73.70917,5.31345,0
          -73.70908,5.31354,0
          -73.709,5.31363,0
          -73.70892,5.3137,0
          -73.70883,5.31378,0
          -73.70876,5.31384,0
          -73.70868,5.31392,0
          -73.7086,5.31399,0
          -73.70851,5.31406,0
          -73.70842,5.31413,0
          -73.7084,5.31414,0
          -73.70828,5.31424,0
          -73.70824,5.31427,0
          -73.70813,5.31434,0
          -73.70801,5.31443,0
          -73.70788,5.31453,0
          -73.70778,5.31462,0
          -73.7077,5.31471,0
          -73.70763,5.31477,0
          -73.70761,5.31481,0
          -73.70758,5.31486,0
          -73.70756,5.3149,0
          -73.70755,5.31494,0
          -73.70755,5.31499,0
          -73.70755,5.315,0
          -73.70754,5.31505,0
          -73.70755,5.31513,0
          -73.70756,5.31518,0
          -73.70757,5.31523,0
          -73.70761,5.31534,0
          -73.70765,5.31544,0
          -73.7077,5.31554,0
          -73.70772,5.31561,0
          -73.70773,5.31567,0
          -73.70772,5.31575,0
          -73.7077,5.31583,0
          -73.70767,5.31591,0
          -73.70763,5.31598,0
          -73.70759,5.31606,0
          -73.70751,5.31617,0
          -73.70741,5.31634,0
          -73.7073,5.31654,0
          -73.70718,5.31675,0
          -73.70708,5.31692,0
          -73.70698,5.31706,0
          -73.70691,5.31718,0
          -73.70685,5.3173,0
          -73.70679,5.31739,0
          -73.70672,5.31748,0
          -73.70667,5.31756,0
          -73.70664,5.31761,0
          -73.70658,5.3177,0
          -73.70657,5.31771,0
          -73.70648,5.31787,0
          -73.70639,5.31802,0
          -73.70635,5.31809,0
          -73.70625,5.31826,0
          -73.70617,5.31842,0
          -73.70598,5.31878,0
          -73.70577,5.3192,0
          -73.70552,5.31966,0
          -73.70531,5.32007,0
          -73.70515,5.32039,0
          -73.70504,5.32063,0
          -73.70497,5.32079,0
          -73.70485,5.321,0
          -73.70473,5.32124,0
          -73.70458,5.32149,0
          -73.70442,5.32179,0
          -73.70427,5.32204,0
          -73.70421,5.32215,0
          -73.70421,5.32216,0
          -73.70418,5.32225,0
          -73.70417,5.32232,0
          -73.70417,5.32233,0
          -73.70416,5.32234,0
          -73.70416,5.32242,0
          -73.70414,5.32262,0
          -73.70414,5.32288,0
          -73.7041,5.32333,0
          -73.70405,5.32376,0
          -73.70404,5.32389,0
          -73.70403,5.32395,0
          -73.70402,5.32399,0
          -73.70399,5.32406,0
          -73.70396,5.3241,0
          -73.70396,5.32411,0
          -73.70395,5.32413,0
          -73.7039,5.32418,0
          -73.70385,5.32422,0
          -73.70374,5.32429,0
          -73.70359,5.32439,0
          -73.70346,5.32453,0
          -73.70334,5.32466,0
          -73.7033,5.3247,0
          -73.7033,5.32471,0
          -73.70321,5.32481,0
          -73.70318,5.32485,0
          -73.70311,5.32493,0
          -73.70304,5.32505,0
          -73.70299,5.32516,0
          -73.70293,5.32526,0
          -73.70288,5.32533,0
          -73.70274,5.32544,0
          -73.70262,5.32552,0
          -73.70262,5.32553,0
          -73.70253,5.32559,0
          -73.70244,5.32566,0
          -73.70238,5.3257,0
          -73.70226,5.3258,0
          -73.70199,5.32604,0
          -73.70186,5.32617,0
          -73.70172,5.32628,0
          -73.70165,5.32634,0
          -73.70161,5.32637,0
          -73.70151,5.32644,0
          -73.7015,5.32644,0
          -73.70139,5.32652,0
          -73.70114,5.32669,0
          -73.70103,5.3268,0
          -73.70094,5.3269,0
          -73.70083,5.32703,0
          -73.70072,5.32717,0
          -73.70071,5.32717,0
          -73.70062,5.32728,0
          -73.7006,5.32731,0
          -73.69983,5.32805,0
          -73.69973,5.32825,0
          -73.69959,5.32856,0
          -73.6997,5.32871,0
          -73.69985,5.32891,0
          -73.69991,5.32899,0
          -73.69996,5.32905,0
          -73.70002,5.32913,0
          -73.70006,5.3292,0
          -73.70009,5.32924,0
          -73.70011,5.32927,0
          -73.70012,5.32928,0
          -73.70017,5.32934,0
          -73.70034,5.32956,0
          -73.70043,5.32971,0
          -73.70047,5.32978,0
          -73.70051,5.32982,0
          -73.70055,5.32987,0
          -73.7006,5.32992,0
          -73.70066,5.32998,0
          -73.70067,5.32999,0
          -73.70074,5.33004,0
          -73.70078,5.33007,0
          -73.7009,5.33017,0
          -73.70099,5.33026,0
          -73.70108,5.33037,0
          -73.70111,5.33042,0
          -73.70115,5.33049,0
          -73.70117,5.33054,0
          -73.70119,5.33063,0
          -73.7012,5.33067,0
          -73.7012,5.33069,0
          -73.70119,5.33085,0
          -73.70117,5.33104,0
          -73.70115,5.33112,0
          -73.70113,5.3313,0
          -73.70112,5.33139,0
          -73.70109,5.33172,0
          -73.70111,5.33184,0
          -73.70113,5.33192,0
          -73.70115,5.33201,0
          -73.70117,5.33212,0
          -73.70119,5.33218,0
          -73.70119,5.33219,0
          -73.70124,5.33236,0
          -73.70127,5.33246,0
          -73.70131,5.3328,0
          -73.70132,5.33282,0
          -73.7013,5.33301,0
          -73.7013,5.33307,0
          -73.70131,5.33314,0
          -73.70131,5.33316,0
          -73.70134,5.33328,0
          -73.70138,5.33339,0
          -73.70139,5.33342,0
          -73.70144,5.33349,0
          -73.70148,5.33357,0
          -73.70157,5.33373,0
          -73.70179,5.33412,0
          -73.7021,5.33467,0
          -73.70211,5.3347,0
          -73.70219,5.33482,0
          -73.70229,5.33498,0
          -73.70241,5.33516,0
          -73.70255,5.33534,0
          -73.70266,5.33549,0
          -73.70281,5.33569,0
          -73.70287,5.33578,0
          -73.70303,5.33599,0
          -73.70309,5.33607,0
          -73.70315,5.33615,0
          -73.70325,5.33629,0
          -73.7033,5.33636,0
          -73.70335,5.33643,0
          -73.70363,5.33681,0
          -73.70368,5.33686,0
          -73.70369,5.33688,0
          -73.70373,5.33693,0
          -73.70385,5.33706,0
          -73.70415,5.33741,0
          -73.70421,5.33748,0
          -73.70427,5.33754,0
          -73.70429,5.33756,0
          -73.70433,5.3376,0
          -73.7044,5.33767,0
          -73.70486,5.33817,0
          -73.70491,5.33822,0
          -73.70494,5.33826,0
          -73.70516,5.33853,0
          -73.70526,5.3387,0
          -73.70532,5.33881,0
          -73.70541,5.33903,0
          -73.70545,5.33911,0
          -73.7055,5.33923,0
          -73.70552,5.33928,0
          -73.70568,5.33963,0
          -73.70574,5.3398,0
          -73.70578,5.33994,0
          -73.70586,5.34015,0
          -73.70592,5.34028,0
          -73.70601,5.34048,0
          -73.70603,5.34052,0
          -73.70604,5.34054,0
          -73.70607,5.34061,0
          -73.70611,5.34068,0
          -73.70615,5.34075,0
          -73.70616,5.34076,0
          -73.70635,5.34109,0
          -73.70652,5.34138,0
          -73.70654,5.34142,0
          -73.70655,5.34144,0
          -73.70656,5.34146,0
          -73.70667,5.34171,0
          -73.70684,5.34208,0
          -73.70686,5.34212,0
          -73.70687,5.34215,0
          -73.70689,5.3422,0
          -73.70692,5.34229,0
          -73.70695,5.34237,0
          -73.70697,5.34242,0
          -73.70698,5.34246,0
          -73.70698,5.34248,0
          -73.70699,5.34258,0
          -73.70698,5.34272,0
          -73.70698,5.34273,0
          -73.70699,5.34291,0
          -73.707,5.34293,0
          -73.707,5.34295,0
          -73.707,5.343,0
          -73.707,5.34309,0
          -73.707,5.34314,0
          -73.70701,5.34327,0
          -73.70702,5.34331,0
          -73.70702,5.34336,0
          -73.70703,5.3434,0
          -73.70704,5.34344,0
          -73.70706,5.34349,0
          -73.70707,5.34352,0
          -73.70707,5.34353,0
          -73.70713,5.3437,0
          -73.70714,5.3437,0
          -73.70716,5.34378,0
          -73.70719,5.34387,0
          -73.70726,5.34406,0
          -73.70729,5.34412,0
          -73.70742,5.34436,0
          -73.70743,5.34437,0
          -73.7075,5.34452,0
          -73.70751,5.34453,0
          -73.70758,5.34467,0
          -73.70758,5.34468,0
          -73.70767,5.34483,0
          -73.7077,5.34494,0
          -73.70771,5.34502,0
          -73.7077,5.34508,0
          -73.70767,5.34515,0
          -73.70763,5.34523,0
          -73.70757,5.3453,0
          -73.70742,5.34545,0
          -73.70712,5.34573,0
          -73.70705,5.34582,0
          -73.70696,5.34594,0
          -73.70692,5.34602,0
          -73.70687,5.34613,0
          -73.70684,5.34623,0
          -73.70682,5.34634,0
          -73.70681,5.34646,0
          -73.70679,5.3466,0
          -73.70677,5.34674,0
          -73.70674,5.34683,0
          -73.70672,5.34692,0
          -73.70651,5.34755,0
          -73.70635,5.34798,0
          -73.7062,5.34837,0
          -73.70613,5.34854,0
          -73.70606,5.34868,0
          -73.70596,5.3489,0
          -73.70584,5.3492,0
          -73.70574,5.34947,0
          -73.70563,5.34978,0
          -73.70559,5.34989,0
          -73.70557,5.34998,0
          -73.70556,5.35008,0
          -73.70557,5.35028,0
          -73.70557,5.35042,0
          -73.70557,5.35058,0
          -73.70556,5.35066,0
          -73.70555,5.35074,0
          -73.70552,5.3509,0
          -73.70549,5.35101,0
          -73.70539,5.35147,0
          -73.70531,5.35185,0
          -73.70525,5.35213,0
          -73.70522,5.35225,0
          -73.70518,5.35236,0
          -73.70511,5.35254,0
          -73.70502,5.35276,0
          -73.70492,5.35298,0
          -73.70487,5.35308,0
          -73.70482,5.35314,0
          -73.70465,5.35335,0
          -73.70455,5.3535,0
          -73.70452,5.35354,0
          -73.70446,5.35364,0
          -73.70443,5.35368,0
          -73.70442,5.35373,0
          -73.70441,5.35377,0
          -73.7044,5.35383,0
          -73.70441,5.35391,0
          -73.70442,5.35414,0
          -73.70443,5.35436,0
          -73.70443,5.35444,0
          -73.70442,5.35475,0
          -73.70442,5.35488,0
          -73.70442,5.35492,0
          -73.70443,5.35496,0
          -73.70447,5.35508,0
          -73.7045,5.35516,0
          -73.70452,5.35521,0
          -73.70452,5.35524,0
          -73.70452,5.35527,0
          -73.70452,5.35537,0
          -73.70449,5.35548,0
          -73.70446,5.35559,0
          -73.70445,5.35563,0
          -73.70444,5.35572,0
          -73.70443,5.35584,0
          -73.70445,5.356,0
          -73.70447,5.35616,0
          -73.70449,5.35632,0
          -73.7045,5.35649,0
          -73.7045,5.35653,0
          -73.70451,5.3567,0
          -73.7045,5.35701,0
          -73.70452,5.35722,0
          -73.70454,5.3574,0
          -73.70461,5.35794,0
          -73.70464,5.35813,0
          -73.70466,5.35828,0
          -73.70466,5.35838,0
          -73.70465,5.35845,0
          -73.70462,5.35864,0
          -73.70461,5.35877,0
          -73.7046,5.35895,0
          -73.7046,5.35914,0
          -73.70462,5.35945,0
          -73.70463,5.35953,0
          -73.70464,5.35968,0
          -73.70467,5.36009,0
          -73.70469,5.36022,0
          -73.70471,5.36033,0
          -73.7048,5.36067,0
          -73.70484,5.36084,0
          -73.70488,5.36104,0
          -73.7049,5.36112,0
          -73.70491,5.36114,0
          -73.70498,5.36136,0
          -73.70506,5.36158,0
          -73.70508,5.36163,0
          -73.70511,5.36168,0
          -73.70518,5.36178,0
          -73.70527,5.36191,0
          -73.70552,5.36224,0
          -73.70563,5.36236,0
          -73.7057,5.36241,0
          -73.70581,5.36246,0
          -73.70609,5.36258,0
          -73.7063,5.36267,0
          -73.70642,5.36272,0
          -73.70653,5.36279,0
          -73.7066,5.36284,0
          -73.70662,5.36286,0
          -73.70667,5.36291,0
          -73.70671,5.36296,0
          -73.70677,5.36305,0
          -73.70679,5.36309,0
          -73.7068,5.36313,0
          -73.7068,5.36316,0
          -73.7068,5.3632,0
          -73.7068,5.36323,0
          -73.70666,5.36352,0
          -73.70653,5.36379,0
          -73.7065,5.36387,0
          -73.7063,5.36428,0
          -73.70622,5.36444,0
          -73.70612,5.36466,0
          -73.70606,5.36481,0
          -73.70604,5.36491,0
          -73.70602,5.36504,0
          -73.706,5.36519,0
          -73.70599,5.36534,0
          -73.70598,5.36545,0
          -73.70598,5.36552,0
          -73.706,5.3656,0
          -73.70602,5.36571,0
          -73.70608,5.36601,0
          -73.70612,5.36614,0
          -73.70617,5.36633,0
          -73.70622,5.36648,0
          -73.70621,5.36655,0
          -73.7062,5.3666,0
          -73.70616,5.36666,0
          -73.7061,5.36674,0
          -73.70602,5.36681,0
          -73.70565,5.36707,0
          -73.70552,5.36715,0
          -73.70545,5.36719,0
          -73.70543,5.3672,0
          -73.70539,5.36723,0
          -73.70513,5.3674,0
          -73.70507,5.36744,0
          -73.70487,5.36761,0
          -73.70473,5.36776,0
          -73.70471,5.36778,0
          -73.70463,5.36788,0
          -73.70462,5.3679,0
          -73.70455,5.36799,0
          -73.70439,5.36818,0
          -73.70404,5.36859,0
          -73.70392,5.36873,0
          -73.70386,5.36878,0
          -73.70373,5.36889,0
          -73.70363,5.36895,0
          -73.70362,5.36895,0
          -73.70348,5.36903,0
          -73.70337,5.36909,0
          -73.70326,5.36914,0
          -73.70314,5.3692,0
          -73.703,5.36927,0
          -73.70291,5.36933,0
          -73.70276,5.36943,0
          -73.70269,5.3695,0
          -73.70266,5.36948,0
          -73.70263,5.36947,0
          -73.70261,5.36947,0
          -73.70259,5.36947,0
          -73.70258,5.36947,0
          -73.70254,5.36949,0
          -73.70247,5.36952,0
          -73.70236,5.36958,0
          -73.70228,5.36961,0
          -73.70217,5.36967,0
          -73.70206,5.36972,0
          -73.70188,5.36984,0
          -73.70183,5.36987,0
          -73.70173,5.36993,0
          -73.70166,5.36997,0
          -73.70158,5.37003,0
          -73.70149,5.37008,0
          -73.7013,5.37018,0
          -73.70126,5.3702,0
          -73.70119,5.37022,0
          -73.70104,5.37026,0
          -73.70079,5.37035,0
          -73.70072,5.37039,0
          -73.70064,5.37044,0
          -73.70059,5.37047,0
          -73.70056,5.3705,0
          -73.70039,5.37058,0
          -73.70023,5.37067,0
          -73.70007,5.37075,0
          -73.70005,5.37076,0
          -73.69996,5.3708,0
          -73.69992,5.37083,0
          -73.69991,5.37084,0
          -73.69988,5.37087,0
          -73.69985,5.37091,0
          -73.69982,5.37097,0
          -73.6998,5.37098,0
          -73.69977,5.37101,0
          -73.69975,5.37105,0
          -73.69974,5.37109,0
          -73.69973,5.37115,0
          -73.69972,5.37119,0
          -73.69972,5.37123,0
          -73.69972,5.37129,0
          -73.69973,5.37143,0
          -73.69973,5.37154,0
          -73.69973,5.37159,0
          -73.69971,5.37165,0
          -73.6997,5.37166,0
          -73.69967,5.3717,0
          -73.69962,5.37175,0
          -73.69953,5.37183,0
          -73.69945,5.37191,0
          -73.69941,5.37194,0
          -73.69933,5.37201,0
          -73.69931,5.37203,0
          -73.6993,5.37204,0
          -73.69928,5.37206,0
          -73.69927,5.37208,0
          -73.69927,5.37211,0
          -73.69926,5.37215,0
          -73.69926,5.37224,0
          -73.69928,5.37233,0
          -73.6993,5.37242,0
          -73.69929,5.37248,0
          -73.69928,5.37254,0
          -73.69928,5.37255,0
          -73.69926,5.37261,0
          -73.69923,5.37267,0
          -73.6992,5.37271,0
          -73.69919,5.37273,0
          -73.69916,5.37277,0
          -73.69912,5.3728,0
          -73.69907,5.37282,0
          -73.69903,5.37284,0
          -73.69898,5.37286,0
          -73.69893,5.37287,0
          -73.69888,5.37289,0
          -73.69884,5.3729,0
          -73.69881,5.37293,0
          -73.69878,5.37296,0
          -73.69877,5.37298,0
          -73.69876,5.37299,0
          -73.69876,5.37301,0
          -73.69875,5.37303,0
          -73.69875,5.37305,0
          -73.69875,5.37306,0
          -73.69876,5.37308,0
          -73.69877,5.37311,0
          -73.69879,5.37314,0
          -73.6988,5.37316,0
          -73.69882,5.37318,0
          -73.69886,5.37322,0
          -73.69891,5.37326,0
          -73.69894,5.37327,0
          -73.69896,5.37329,0
          -73.69903,5.37333,0
          -73.69909,5.37337,0
          -73.69911,5.37337,0
          -73.69913,5.37339,0
          -73.69915,5.3734,0
          -73.69917,5.37342,0
          -73.6992,5.37343,0
          -73.69922,5.37344,0
          -73.69924,5.37346,0
          -73.69925,5.37347,0
          -73.69926,5.37348,0
          -73.69926,5.3735,0
          -73.69927,5.37352,0
          -73.69928,5.37355,0
          -73.69929,5.37359,0
          -73.6993,5.37363,0
          -73.69929,5.37363,0
          -73.69928,5.37381,0
          -73.69927,5.37386,0
          -73.69927,5.37394,0
          -73.69927,5.37399,0
          -73.69927,5.37404,0
          -73.69928,5.37407,0
          -73.69929,5.37412,0
          -73.69924,5.37415,0
          -73.69919,5.37418,0
          -73.69905,5.37429,0
          -73.6989,5.3744,0
          -73.69888,5.37441,0
          -73.69874,5.37449,0
          -73.69865,5.37455,0
          -73.69859,5.37458,0
          -73.69844,5.37468,0
          -73.69832,5.37475,0
          -73.69828,5.37477,0
          -73.69812,5.37486,0
          -73.69807,5.37489,0
          -73.69796,5.37494,0
          -73.6978,5.37503,0
          -73.69779,5.37503,0
          -73.69764,5.37511,0
          -73.69752,5.37519,0
          -73.69749,5.37521,0
          -73.69743,5.37526,0
          -73.6974,5.37529,0
          -73.69731,5.37536,0
          -73.69715,5.3755,0
          -73.6969,5.37573,0
          -73.69662,5.37598,0
          -73.69624,5.3763,0
          -73.69618,5.37635,0
          -73.69571,5.3767,0
          -73.69546,5.3769,0
          -73.69532,5.37702,0
          -73.69513,5.37716,0
          -73.69491,5.37736,0
          -73.69481,5.37743,0
          -73.69475,5.37746,0
          -73.69473,5.37747,0
          -73.69464,5.37751,0
          -73.69459,5.37753,0
          -73.69456,5.37754,0
          -73.69447,5.37756,0
          -73.69441,5.37757,0
          -73.69439,5.37758,0
          -73.69427,5.37761,0
          -73.69417,5.37764,0
          -73.69407,5.37767,0
          -73.69389,5.37775,0
          -73.69375,5.37781,0
          -73.69374,5.37782,0
          -73.69358,5.37791,0
          -73.69345,5.37801,0
          -73.69344,5.37802,0
          -73.6933,5.37812,0
          -73.69329,5.37812,0
          -73.69317,5.37821,0
          -73.69314,5.37823,0
          -73.69308,5.37827,0
          -73.69287,5.37839,0
          -73.69263,5.37852,0
          -73.69251,5.37857,0
          -73.69248,5.37859,0
          -73.69228,5.37865,0
          -73.692,5.37871,0
          -73.69179,5.37875,0
          -73.69167,5.37878,0
          -73.69159,5.3788,0
          -73.69153,5.37882,0
          -73.69148,5.37884,0
          -73.69142,5.37887,0
          -73.69136,5.37893,0
          -73.69118,5.37924,0
          -73.691,5.37955,0
          -73.6909,5.3797,0
          -73.6908,5.37985,0
          -73.69077,5.3799,0
          -73.69069,5.37999,0
          -73.6906,5.3801,0
          -73.69057,5.38013,0
          -73.69046,5.38027,0
          -73.69028,5.38047,0
          -73.69022,5.38054,0
          -73.68988,5.38096,0
          -73.68976,5.3811,0
          -73.68965,5.38124,0
          -73.68937,5.38158,0
          -73.6893,5.38165,0
          -73.68907,5.38192,0
          -73.68874,5.38229,0
          -73.68839,5.38269,0
          -73.68814,5.38296,0
          -73.6879,5.38323,0
          -73.68786,5.38328,0
          -73.68741,5.38377,0
          -73.68708,5.38354,0
          -73.68705,5.38352,0
        </coordinates>
      </LineString>
    </Placemark>
    <Placemark>
      <name>Lenguazaque, Cundinamarca</name>
      <styleUrl>#icon-1899-DB4436-nodesc</styleUrl>
      <Point>
        <coordinates>
          -73.7121446,5.3060547,0
        </coordinates>
      </Point>
    </Placemark>
    <Placemark>
      <name>Guachetá, Cundinamarca</name>
      <styleUrl>#icon-1899-DB4436-nodesc</styleUrl>
      <Point>
        <coordinates>
          -73.6870478,5.3835192,0
        </coordinates>
      </Point>
    </Placemark>
  </Document>
</kml>
