<?xml version="1.0" encoding="UTF-8"?>
<kml xmlns="http://www.opengis.net/kml/2.2">
  <Document>
    <name>Salida Cerros de Bogotá</name>
    <Style id="icon-1899-DB4436-nodesc-normal">
      <IconStyle>
        <color>ff3644db</color>
        <scale>1</scale>
        <Icon>
          <href>https://www.gstatic.com/mapspro/images/stock/503-wht-blank_maps.png</href>
        </Icon>
        <hotSpot x="32" xunits="pixels" y="64" yunits="insetPixels"/>
      </IconStyle>
      <LabelStyle>
        <scale>0</scale>
      </LabelStyle>
      <BalloonStyle>
        <text><![CDATA[<h3>$[name]</h3>]]></text>
      </BalloonStyle>
    </Style>
    <Style id="icon-1899-DB4436-nodesc-highlight">
      <IconStyle>
        <color>ff3644db</color>
        <scale>1</scale>
        <Icon>
          <href>https://www.gstatic.com/mapspro/images/stock/503-wht-blank_maps.png</href>
        </Icon>
        <hotSpot x="32" xunits="pixels" y="64" yunits="insetPixels"/>
      </IconStyle>
      <LabelStyle>
        <scale>1</scale>
      </LabelStyle>
      <BalloonStyle>
        <text><![CDATA[<h3>$[name]</h3>]]></text>
      </BalloonStyle>
    </Style>
    <StyleMap id="icon-1899-DB4436-nodesc">
      <Pair>
        <key>normal</key>
        <styleUrl>#icon-1899-DB4436-nodesc-normal</styleUrl>
      </Pair>
      <Pair>
        <key>highlight</key>
        <styleUrl>#icon-1899-DB4436-nodesc-highlight</styleUrl>
      </Pair>
    </StyleMap>
    <Style id="line-1267FF-5000-nodesc-normal">
      <LineStyle>
        <color>ffff6712</color>
        <width>5</width>
      </LineStyle>
      <BalloonStyle>
        <text><![CDATA[<h3>$[name]</h3>]]></text>
      </BalloonStyle>
    </Style>
    <Style id="line-1267FF-5000-nodesc-highlight">
      <LineStyle>
        <color>ffff6712</color>
        <width>7.5</width>
      </LineStyle>
      <BalloonStyle>
        <text><![CDATA[<h3>$[name]</h3>]]></text>
      </BalloonStyle>
    </Style>
    <StyleMap id="line-1267FF-5000-nodesc">
      <Pair>
        <key>normal</key>
        <styleUrl>#line-1267FF-5000-nodesc-normal</styleUrl>
      </Pair>
      <Pair>
        <key>highlight</key>
        <styleUrl>#line-1267FF-5000-nodesc-highlight</styleUrl>
      </Pair>
    </StyleMap>
    <Placemark>
      <name>Salida Cerros de Bogotá</name>
      <styleUrl>#line-1267FF-5000-nodesc</styleUrl>
      <LineString>
        <tessellate>1</tessellate>
        <coordinates>
          -74.04664,4.65909,0
          -74.04658,4.65933,0
          -74.04659,4.65941,0
          -74.04658,4.65943,0
          -74.04657,4.65945,0
          -74.04656,4.65946,0
          -74.04655,4.65946,0
          -74.04654,4.65947,0
          -74.04653,4.65947,0
          -74.04649,4.65946,0
          -74.04647,4.65945,0
          -74.04646,4.65944,0
          -74.04644,4.65942,0
          -74.04644,4.65941,0
          -74.04644,4.65938,0
          -74.04645,4.65935,0
          -74.04647,4.65929,0
          -74.04654,4.65918,0
          -74.04655,4.65915,0
          -74.04657,4.65897,0
          -74.04659,4.65879,0
          -74.04659,4.65878,0
          -74.0466,4.65865,0
          -74.0466,4.65861,0
          -74.04661,4.65847,0
          -74.04661,4.65844,0
          -74.04657,4.65829,0
          -74.04656,4.65826,0
          -74.04653,4.65812,0
          -74.04651,4.65809,0
          -74.0465,4.65807,0
          -74.04642,4.65798,0
          -74.04639,4.65795,0
          -74.04633,4.6579,0
          -74.04615,4.65771,0
          -74.04613,4.65769,0
          -74.04612,4.65769,0
          -74.0461,4.65768,0
          -74.04609,4.65768,0
          -74.04608,4.65769,0
          -74.04607,4.65769,0
          -74.04607,4.6577,0
          -74.04602,4.65779,0
          -74.046,4.65782,0
          -74.04599,4.65783,0
          -74.04598,4.65783,0
          -74.04597,4.65784,0
          -74.04596,4.65783,0
          -74.04594,4.65782,0
          -74.04576,4.65765,0
          -74.0457,4.6576,0
          -74.04568,4.65758,0
          -74.04566,4.65758,0
          -74.04565,4.65757,0
          -74.04564,4.65758,0
          -74.04563,4.65758,0
          -74.04562,4.65759,0
          -74.04562,4.6576,0
          -74.04561,4.65761,0
          -74.04561,4.65762,0
          -74.04561,4.65785,0
          -74.04565,4.658,0
          -74.04566,4.65806,0
          -74.04566,4.6581,0
          -74.04565,4.65813,0
          -74.04562,4.65816,0
          -74.04557,4.65822,0
          -74.04552,4.65825,0
          -74.04543,4.65832,0
          -74.04538,4.65837,0
          -74.04537,4.65838,0
          -74.04533,4.65841,0
          -74.04524,4.65846,0
          -74.04523,4.65846,0
          -74.04517,4.65848,0
          -74.04515,4.65848,0
          -74.04514,4.65848,0
          -74.04513,4.65847,0
          -74.04512,4.65847,0
          -74.04511,4.65846,0
          -74.04511,4.65845,0
          -74.0451,4.65844,0
          -74.0451,4.65838,0
          -74.04508,4.6583,0
          -74.04506,4.65827,0
          -74.04505,4.65825,0
          -74.04504,4.65824,0
          -74.04503,4.65822,0
          -74.045,4.65819,0
          -74.0449,4.65813,0
          -74.04488,4.65812,0
          -74.04475,4.65803,0
          -74.04473,4.65801,0
          -74.0446,4.65784,0
          -74.04456,4.65777,0
          -74.04451,4.65756,0
          -74.04448,4.65743,0
          -74.04448,4.65739,0
          -74.04449,4.65736,0
          -74.04452,4.65729,0
          -74.04452,4.65728,0
          -74.04452,4.65727,0
          -74.04452,4.65726,0
          -74.04452,4.65725,0
          -74.04451,4.65725,0
          -74.0445,4.65724,0
          -74.04448,4.65723,0
          -74.04442,4.65722,0
          -74.04436,4.6572,0
          -74.04434,4.65718,0
          -74.04432,4.65716,0
          -74.04423,4.657,0
          -74.04421,4.65697,0
          -74.04414,4.65691,0
          -74.04414,4.6569,0
          -74.04413,4.6569,0
          -74.04412,4.6569,0
          -74.04411,4.6569,0
          -74.0441,4.6569,0
          -74.0441,4.65691,0
          -74.04409,4.65691,0
          -74.04403,4.65697,0
          -74.04402,4.65698,0
          -74.04401,4.65698,0
          -74.044,4.65698,0
          -74.04398,4.65698,0
          -74.04397,4.65697,0
          -74.04395,4.65696,0
          -74.04383,4.65686,0
          -74.04381,4.65685,0
          -74.04368,4.65675,0
          -74.04367,4.65674,0
          -74.04352,4.65663,0
          -74.04339,4.65654,0
          -74.04338,4.65653,0
          -74.04323,4.65642,0
          -74.04311,4.65632,0
          -74.04298,4.65623,0
          -74.04286,4.65613,0
          -74.04283,4.65611,0
          -74.04282,4.65611,0
          -74.04281,4.65611,0
          -74.0428,4.65611,0
          -74.04277,4.65612,0
          -74.04271,4.65617,0
          -74.04268,4.65618,0
          -74.04267,4.65619,0
          -74.04264,4.6562,0
          -74.04263,4.6562,0
          -74.04257,4.65623,0
          -74.04255,4.65624,0
          -74.04252,4.65628,0
          -74.04251,4.6563,0
          -74.0425,4.65631,0
          -74.04246,4.65634,0
          -74.04244,4.65635,0
          -74.04243,4.65635,0
          -74.0424,4.65635,0
          -74.04237,4.65634,0
          -74.04236,4.65634,0
          -74.04234,4.65633,0
          -74.04218,4.65625,0
          -74.04208,4.65621,0
          -74.04204,4.65619,0
          -74.04201,4.65617,0
          -74.04197,4.65615,0
          -74.04194,4.65614,0
          -74.04191,4.65614,0
          -74.04189,4.65615,0
          -74.04184,4.65618,0
          -74.04183,4.65619,0
          -74.04181,4.65619,0
          -74.04179,4.6562,0
          -74.04176,4.6562,0
          -74.04172,4.65619,0
          -74.04171,4.6562,0
          -74.0417,4.6562,0
          -74.04152,4.65621,0
          -74.04149,4.65621,0
          -74.04146,4.65621,0
          -74.04137,4.65621,0
          -74.04131,4.6562,0
          -74.04128,4.6562,0
          -74.04122,4.65622,0
          -74.04117,4.65622,0
          -74.04115,4.65623,0
          -74.04114,4.65622,0
          -74.04105,4.65621,0
          -74.04099,4.6562,0
          -74.04096,4.65619,0
          -74.04095,4.65618,0
          -74.04089,4.65615,0
          -74.04087,4.65614,0
          -74.04086,4.65614,0
          -74.04085,4.65614,0
          -74.04084,4.65615,0
          -74.04083,4.65615,0
          -74.04081,4.65616,0
          -74.0408,4.65616,0
          -74.04079,4.65616,0
          -74.04078,4.65615,0
          -74.04078,4.65614,0
          -74.04077,4.65613,0
          -74.04077,4.65612,0
          -74.04076,4.6561,0
          -74.04075,4.65609,0
          -74.04074,4.65608,0
          -74.0407,4.65606,0
          -74.04069,4.65605,0
          -74.04068,4.65604,0
          -74.04066,4.65603,0
          -74.04065,4.65603,0
          -74.04064,4.65603,0
          -74.04063,4.65604,0
          -74.04062,4.65605,0
          -74.0406,4.65606,0
          -74.04058,4.65608,0
          -74.04056,4.65609,0
          -74.04055,4.65609,0
          -74.04054,4.65609,0
          -74.04053,4.65609,0
          -74.04051,4.65609,0
          -74.0405,4.65609,0
          -74.04048,4.65608,0
          -74.04046,4.65606,0
          -74.04044,4.65605,0
          -74.04042,4.65604,0
          -74.0404,4.65603,0
          -74.04038,4.65602,0
          -74.04037,4.65602,0
          -74.04035,4.65602,0
          -74.04034,4.65603,0
          -74.04032,4.65604,0
          -74.04031,4.65605,0
          -74.04029,4.65605,0
          -74.04028,4.65605,0
          -74.04023,4.65604,0
          -74.0402,4.65604,0
          -74.04018,4.65604,0
          -74.04015,4.65604,0
          -74.04012,4.65605,0
          -74.04008,4.65607,0
          -74.04006,4.65607,0
          -74.04006,4.65608,0
          -74.04004,4.65609,0
          -74.04004,4.6561,0
          -74.04004,4.65611,0
          -74.04008,4.65613,0
          -74.04008,4.65614,0
          -74.0401,4.65617,0
          -74.04011,4.65623,0
          -74.04011,4.65625,0
          -74.04011,4.65626,0
          -74.04011,4.65628,0
          -74.0401,4.65629,0
          -74.04009,4.65631,0
          -74.04006,4.65632,0
          -74.03998,4.65633,0
          -74.03992,4.65634,0
          -74.0398,4.65632,0
          -74.03975,4.65633,0
          -74.03971,4.65635,0
          -74.03966,4.65639,0
          -74.0396,4.65644,0
          -74.03951,4.65648,0
          -74.03949,4.65649,0
          -74.03943,4.65652,0
          -74.03939,4.65654,0
          -74.03934,4.65654,0
          -74.03922,4.65651,0
          -74.03913,4.6565,0
          -74.03911,4.6565,0
          -74.03908,4.6565,0
          -74.03903,4.65652,0
          -74.0389,4.65662,0
          -74.03879,4.65667,0
          -74.03874,4.65669,0
          -74.03871,4.65672,0
          -74.03867,4.65675,0
          -74.03865,4.65676,0
          -74.03864,4.65676,0
          -74.03862,4.65677,0
          -74.03856,4.65677,0
          -74.03851,4.65677,0
          -74.03849,4.65676,0
          -74.03848,4.65675,0
          -74.03846,4.65673,0
          -74.03845,4.65671,0
          -74.03832,4.65656,0
          -74.03824,4.65647,0
          -74.03822,4.65645,0
          -74.03814,4.65635,0
          -74.03802,4.65627,0
          -74.03796,4.65625,0
          -74.0378,4.6562,0
          -74.03758,4.6562,0
          -74.03746,4.65618,0
          -74.03743,4.65618,0
          -74.03741,4.65617,0
          -74.03736,4.65614,0
          -74.03728,4.65608,0
          -74.03721,4.65604,0
          -74.03713,4.65598,0
          -74.03705,4.65592,0
          -74.03698,4.65588,0
          -74.03683,4.65581,0
          -74.03675,4.65573,0
          -74.03669,4.65566,0
          -74.03664,4.65558,0
          -74.03662,4.65551,0
          -74.03661,4.65543,0
          -74.03661,4.6554,0
          -74.03661,4.65536,0
          -74.0366,4.65533,0
          -74.03658,4.6553,0
          -74.03657,4.65528,0
          -74.03656,4.65525,0
          -74.03656,4.65523,0
          -74.03656,4.65521,0
          -74.03656,4.6552,0
          -74.03656,4.65518,0
          -74.03657,4.65518,0
          -74.03657,4.65517,0
          -74.03657,4.65516,0
          -74.03658,4.65516,0
          -74.03658,4.65515,0
          -74.03658,4.65514,0
          -74.03658,4.65512,0
          -74.03658,4.6551,0
          -74.03657,4.65505,0
          -74.03657,4.65502,0
          -74.03656,4.65499,0
          -74.03656,4.65497,0
          -74.03655,4.65496,0
          -74.03653,4.65495,0
          -74.03651,4.65494,0
          -74.03641,4.65492,0
          -74.03626,4.65489,0
          -74.03623,4.65489,0
          -74.03607,4.65489,0
          -74.03605,4.65489,0
          -74.03592,4.65488,0
          -74.03587,4.65489,0
          -74.03585,4.65489,0
          -74.0358,4.65491,0
          -74.03572,4.65496,0
          -74.03567,4.65497,0
          -74.03563,4.65497,0
          -74.03558,4.65497,0
          -74.03547,4.65495,0
          -74.03536,4.6549,0
          -74.03531,4.65488,0
          -74.03506,4.65478,0
          -74.03502,4.65476,0
          -74.03501,4.65474,0
          -74.03499,4.65472,0
          -74.03495,4.6546,0
          -74.03491,4.65455,0
          -74.03488,4.65452,0
          -74.03485,4.65451,0
          -74.03481,4.6545,0
          -74.03442,4.65448,0
          -74.03438,4.65447,0
          -74.0343,4.65443,0
          -74.03428,4.65442,0
          -74.03427,4.65442,0
          -74.03424,4.65441,0
          -74.03419,4.65442,0
          -74.03413,4.65444,0
          -74.03411,4.65444,0
          -74.03406,4.65444,0
          -74.03398,4.65442,0
          -74.0337,4.65438,0
          -74.03368,4.65438,0
          -74.03366,4.65437,0
          -74.03364,4.65435,0
          -74.03359,4.65432,0
          -74.03358,4.65431,0
          -74.03349,4.65417,0
          -74.03343,4.65407,0
          -74.0334,4.65402,0
          -74.0333,4.65384,0
          -74.03313,4.65355,0
          -74.03308,4.65347,0
          -74.03306,4.65339,0
          -74.03297,4.65304,0
          -74.03295,4.65295,0
          -74.03293,4.65286,0
          -74.03292,4.65279,0
          -74.03288,4.65269,0
          -74.03287,4.65267,0
          -74.03285,4.65263,0
          -74.0328,4.65257,0
          -74.03275,4.65252,0
          -74.03268,4.65248,0
          -74.03246,4.65238,0
          -74.0324,4.65235,0
          -74.03211,4.6523,0
          -74.03206,4.65229,0
          -74.03193,4.65229,0
          -74.03175,4.6523,0
          -74.03139,4.65226,0
          -74.03121,4.65224,0
          -74.03106,4.65222,0
          -74.03059,4.65229,0
          -74.03046,4.65235,0
          -74.03028,4.65248,0
          -74.03022,4.65251,0
          -74.0302,4.65252,0
          -74.03018,4.65252,0
          -74.03013,4.65252,0
          -74.03008,4.65251,0
          -74.02984,4.6524,0
        </coordinates>
      </LineString>
    </Placemark>
    <Placemark>
      <name>Umbral Cultural Horizontes, Transversal 2 Este, Bogota</name>
      <styleUrl>#icon-1899-DB4436-nodesc</styleUrl>
      <Point>
        <coordinates>
          -74.0466376,4.6590881,0
        </coordinates>
      </Point>
    </Placemark>
    <Placemark>
      <name>Sendero las Moyas, Bogota</name>
      <styleUrl>#icon-1899-DB4436-nodesc</styleUrl>
      <Point>
        <coordinates>
          -74.038016,4.6562709,0
        </coordinates>
      </Point>
    </Placemark>
    <Placemark>
      <name>Sendero las Moyas, Chapinero, Bogotá, Colombia</name>
      <styleUrl>#icon-1899-DB4436-nodesc</styleUrl>
      <Point>
        <coordinates>
          -74.029841,4.6523993,0
        </coordinates>
      </Point>
    </Placemark>
  </Document>
</kml>
