<?xml version="1.0" encoding="UTF-8"?>
<kml xmlns="http://www.opengis.net/kml/2.2">
  <Document>
    <name>Sopó - Nemocón</name>
    <Style id="icon-1899-DB4436-nodesc-normal">
      <IconStyle>
        <color>ff3644db</color>
        <scale>1</scale>
        <Icon>
          <href>https://www.gstatic.com/mapspro/images/stock/503-wht-blank_maps.png</href>
        </Icon>
        <hotSpot x="32" xunits="pixels" y="64" yunits="insetPixels"/>
      </IconStyle>
      <LabelStyle>
        <scale>0</scale>
      </LabelStyle>
      <BalloonStyle>
        <text><![CDATA[<h3>$[name]</h3>]]></text>
      </BalloonStyle>
    </Style>
    <Style id="icon-1899-DB4436-nodesc-highlight">
      <IconStyle>
        <color>ff3644db</color>
        <scale>1</scale>
        <Icon>
          <href>https://www.gstatic.com/mapspro/images/stock/503-wht-blank_maps.png</href>
        </Icon>
        <hotSpot x="32" xunits="pixels" y="64" yunits="insetPixels"/>
      </IconStyle>
      <LabelStyle>
        <scale>1</scale>
      </LabelStyle>
      <BalloonStyle>
        <text><![CDATA[<h3>$[name]</h3>]]></text>
      </BalloonStyle>
    </Style>
    <StyleMap id="icon-1899-DB4436-nodesc">
      <Pair>
        <key>normal</key>
        <styleUrl>#icon-1899-DB4436-nodesc-normal</styleUrl>
      </Pair>
      <Pair>
        <key>highlight</key>
        <styleUrl>#icon-1899-DB4436-nodesc-highlight</styleUrl>
      </Pair>
    </StyleMap>
    <Style id="line-1267FF-5000-nodesc-normal">
      <LineStyle>
        <color>ffff6712</color>
        <width>5</width>
      </LineStyle>
      <BalloonStyle>
        <text><![CDATA[<h3>$[name]</h3>]]></text>
      </BalloonStyle>
    </Style>
    <Style id="line-1267FF-5000-nodesc-highlight">
      <LineStyle>
        <color>ffff6712</color>
        <width>7.5</width>
      </LineStyle>
      <BalloonStyle>
        <text><![CDATA[<h3>$[name]</h3>]]></text>
      </BalloonStyle>
    </Style>
    <StyleMap id="line-1267FF-5000-nodesc">
      <Pair>
        <key>normal</key>
        <styleUrl>#line-1267FF-5000-nodesc-normal</styleUrl>
      </Pair>
      <Pair>
        <key>highlight</key>
        <styleUrl>#line-1267FF-5000-nodesc-highlight</styleUrl>
      </Pair>
    </StyleMap>
    <Placemark>
      <name>Sopó - Nemocón</name>
      <styleUrl>#line-1267FF-5000-nodesc</styleUrl>
      <LineString>
        <tessellate>1</tessellate>
        <coordinates>
          -73.94144,4.90865,0
          -73.94061,4.90844,0
          -73.94038,4.90939,0
          -73.94022,4.90936,0
          -73.93747,4.90854,0
          -73.93732,4.90848,0
          -73.93729,4.9085,0
          -73.93728,4.90852,0
          -73.93727,4.90852,0
          -73.93727,4.90853,0
          -73.93726,4.90854,0
          -73.93726,4.90855,0
          -73.93725,4.90856,0
          -73.93725,4.90858,0
          -73.93724,4.9086,0
          -73.93724,4.90864,0
          -73.93718,4.90898,0
          -73.93683,4.90889,0
          -73.93647,4.90888,0
          -73.93604,4.90892,0
          -73.93584,4.90898,0
          -73.93577,4.90898,0
          -73.93573,4.90899,0
          -73.93562,4.909,0
          -73.93559,4.90901,0
          -73.93546,4.90903,0
          -73.93542,4.90905,0
          -73.93541,4.90905,0
          -73.93539,4.90906,0
          -73.93527,4.90916,0
          -73.93514,4.90925,0
          -73.93475,4.90959,0
          -73.93468,4.90964,0
          -73.93464,4.90966,0
          -73.93463,4.90966,0
          -73.93458,4.90968,0
          -73.93442,4.90971,0
          -73.93432,4.90975,0
          -73.93426,4.90979,0
          -73.93419,4.90981,0
          -73.93386,4.90981,0
          -73.93378,4.9098,0
          -73.93377,4.90981,0
          -73.93375,4.90981,0
          -73.93373,4.90982,0
          -73.93372,4.90984,0
          -73.93368,4.91,0
          -73.93367,4.91001,0
          -73.93367,4.91002,0
          -73.93366,4.91003,0
          -73.93366,4.91004,0
          -73.93362,4.91006,0
          -73.93359,4.91006,0
          -73.93355,4.91005,0
          -73.93347,4.91001,0
          -73.93337,4.90998,0
          -73.93336,4.90997,0
          -73.93332,4.90997,0
          -73.93331,4.90996,0
          -73.93323,4.90996,0
          -73.93322,4.90997,0
          -73.93321,4.90997,0
          -73.93321,4.90998,0
          -73.9332,4.91,0
          -73.9332,4.91004,0
          -73.93321,4.91006,0
          -73.93321,4.91014,0
          -73.9332,4.91016,0
          -73.9332,4.91018,0
          -73.93319,4.91019,0
          -73.93318,4.91021,0
          -73.93317,4.91021,0
          -73.93316,4.91022,0
          -73.9331,4.91022,0
          -73.93307,4.91019,0
          -73.93306,4.91017,0
          -73.93305,4.91016,0
          -73.93303,4.91015,0
          -73.93301,4.91013,0
          -73.93298,4.91012,0
          -73.93293,4.91012,0
          -73.93291,4.91013,0
          -73.93288,4.91017,0
          -73.93282,4.91023,0
          -73.93278,4.91025,0
          -73.93276,4.91025,0
          -73.93273,4.91026,0
          -73.93271,4.91026,0
          -73.93264,4.91028,0
          -73.93262,4.91028,0
          -73.93258,4.91031,0
          -73.93162,4.91084,0
          -73.93161,4.91084,0
          -73.93145,4.91092,0
          -73.93144,4.91092,0
          -73.93113,4.91111,0
          -73.93102,4.91119,0
          -73.93099,4.91122,0
          -73.93099,4.91123,0
          -73.93098,4.91125,0
          -73.93097,4.91126,0
          -73.93094,4.91134,0
          -73.93092,4.91137,0
          -73.93092,4.91138,0
          -73.9309,4.9114,0
          -73.93089,4.91142,0
          -73.9307,4.91161,0
          -73.93046,4.91191,0
          -73.93031,4.91202,0
          -73.9303,4.91202,0
          -73.93029,4.91203,0
          -73.92984,4.91231,0
          -73.92967,4.91239,0
          -73.92942,4.91255,0
          -73.92882,4.91305,0
          -73.92853,4.91333,0
          -73.9284,4.9134,0
          -73.92833,4.91345,0
          -73.92825,4.91349,0
          -73.92818,4.91351,0
          -73.92807,4.91351,0
          -73.92751,4.91338,0
          -73.92734,4.91336,0
          -73.9272,4.91337,0
          -73.92646,4.91362,0
          -73.92616,4.91378,0
          -73.92598,4.91392,0
          -73.92594,4.91394,0
          -73.92585,4.91397,0
          -73.92572,4.91397,0
          -73.92558,4.91393,0
          -73.92543,4.91387,0
          -73.92532,4.91381,0
          -73.92521,4.91381,0
          -73.92516,4.91382,0
          -73.92512,4.91384,0
          -73.92512,4.91385,0
          -73.9251,4.91387,0
          -73.9251,4.91389,0
          -73.92509,4.91391,0
          -73.92508,4.91397,0
          -73.92511,4.9142,0
          -73.92526,4.91489,0
          -73.92529,4.91511,0
          -73.92529,4.91517,0
          -73.92527,4.91521,0
          -73.92525,4.91522,0
          -73.9252,4.91522,0
          -73.92516,4.91521,0
          -73.92512,4.91519,0
          -73.92511,4.91518,0
          -73.9251,4.91518,0
          -73.9246,4.91489,0
          -73.92448,4.91486,0
          -73.92438,4.91486,0
          -73.92432,4.91487,0
          -73.92352,4.91525,0
          -73.92246,4.91563,0
          -73.92235,4.91569,0
          -73.92224,4.9158,0
          -73.92206,4.91615,0
          -73.92205,4.9162,0
          -73.92206,4.91622,0
          -73.92206,4.91627,0
          -73.92212,4.91648,0
          -73.92213,4.91655,0
          -73.92213,4.91662,0
          -73.92211,4.91672,0
          -73.92211,4.91675,0
          -73.92208,4.91692,0
          -73.92208,4.917,0
          -73.92202,4.91713,0
          -73.92195,4.91723,0
          -73.92167,4.9171,0
          -73.92111,4.9168,0
          -73.92109,4.91678,0
          -73.92095,4.91671,0
          -73.92091,4.91668,0
          -73.92061,4.91657,0
          -73.92044,4.91653,0
          -73.9203,4.91651,0
          -73.92012,4.91651,0
          -73.91991,4.91653,0
          -73.91968,4.91658,0
          -73.91959,4.91659,0
          -73.9194,4.91657,0
          -73.9193,4.91654,0
          -73.91929,4.91654,0
          -73.91887,4.91642,0
          -73.91872,4.91634,0
          -73.9185,4.91617,0
          -73.91833,4.9162,0
          -73.9181,4.91626,0
          -73.91809,4.91626,0
          -73.91801,4.91631,0
          -73.91794,4.91638,0
          -73.91775,4.91666,0
          -73.9177,4.91675,0
          -73.91758,4.91688,0
          -73.91754,4.91691,0
          -73.91753,4.91693,0
          -73.91752,4.91693,0
          -73.91735,4.91707,0
          -73.91727,4.91716,0
          -73.91726,4.91718,0
          -73.91713,4.91735,0
          -73.91691,4.9176,0
          -73.91671,4.91779,0
          -73.91664,4.91783,0
          -73.91659,4.91787,0
          -73.91644,4.91793,0
          -73.91606,4.91795,0
          -73.91601,4.91796,0
          -73.916,4.91797,0
          -73.91597,4.91798,0
          -73.91587,4.91806,0
          -73.91568,4.9183,0
          -73.91566,4.91835,0
          -73.91564,4.91838,0
          -73.91556,4.91872,0
          -73.91549,4.9189,0
          -73.9154,4.91906,0
          -73.91531,4.91937,0
          -73.91529,4.91939,0
          -73.91528,4.91941,0
          -73.91528,4.91942,0
          -73.91521,4.91946,0
          -73.9152,4.91947,0
          -73.91491,4.91955,0
          -73.91451,4.91959,0
          -73.91449,4.91958,0
          -73.91436,4.91957,0
          -73.91419,4.91959,0
          -73.91411,4.91961,0
          -73.91402,4.91965,0
          -73.91381,4.91977,0
          -73.91366,4.91992,0
          -73.91364,4.91995,0
          -73.91363,4.91995,0
          -73.91358,4.92004,0
          -73.91356,4.92006,0
          -73.91337,4.92042,0
          -73.91327,4.92051,0
          -73.91325,4.92052,0
          -73.91323,4.92054,0
          -73.91303,4.92066,0
          -73.91291,4.92071,0
          -73.9128,4.92074,0
          -73.91273,4.92075,0
          -73.91263,4.92075,0
          -73.91249,4.92069,0
          -73.91245,4.92066,0
          -73.91243,4.92063,0
          -73.91243,4.92057,0
          -73.91245,4.92042,0
          -73.91234,4.92042,0
          -73.91228,4.92043,0
          -73.91218,4.92046,0
          -73.91193,4.9205,0
          -73.91192,4.92051,0
          -73.9118,4.92053,0
          -73.91135,4.92056,0
          -73.91122,4.92054,0
          -73.91121,4.92053,0
          -73.91098,4.92048,0
          -73.91086,4.92047,0
          -73.91049,4.92049,0
          -73.91033,4.92052,0
          -73.91031,4.92052,0
          -73.90978,4.92062,0
          -73.9096,4.92064,0
          -73.90933,4.92064,0
          -73.90913,4.92066,0
          -73.90891,4.92072,0
          -73.9089,4.92072,0
          -73.90877,4.92077,0
          -73.90874,4.92081,0
          -73.90863,4.92092,0
          -73.9085,4.92108,0
          -73.90849,4.92108,0
          -73.90807,4.92139,0
          -73.90793,4.92147,0
          -73.90791,4.9215,0
          -73.90779,4.92163,0
          -73.90757,4.92192,0
          -73.90757,4.92193,0
          -73.90733,4.92219,0
          -73.90722,4.92233,0
          -73.90721,4.92233,0
          -73.90716,4.92239,0
          -73.9068,4.92266,0
          -73.90679,4.92266,0
          -73.90631,4.92289,0
          -73.90619,4.92289,0
          -73.90614,4.92288,0
          -73.90613,4.92287,0
          -73.90596,4.92282,0
          -73.90595,4.92281,0
          -73.90592,4.9228,0
          -73.90565,4.92276,0
          -73.90546,4.92275,0
          -73.90533,4.92277,0
          -73.90527,4.92279,0
          -73.9052,4.92283,0
          -73.90495,4.92305,0
          -73.90477,4.92325,0
          -73.90475,4.92326,0
          -73.90473,4.92326,0
          -73.9047,4.92327,0
          -73.90465,4.92327,0
          -73.90452,4.9233,0
          -73.90445,4.92334,0
          -73.90438,4.92341,0
          -73.90431,4.9235,0
          -73.90426,4.92354,0
          -73.90409,4.92361,0
          -73.9039,4.92381,0
          -73.90384,4.92386,0
          -73.90383,4.92386,0
          -73.90373,4.92392,0
          -73.90365,4.92395,0
          -73.90356,4.92396,0
          -73.90345,4.92396,0
          -73.90337,4.92395,0
          -73.90326,4.92398,0
          -73.90323,4.924,0
          -73.9032,4.92404,0
          -73.90317,4.92406,0
          -73.90317,4.92407,0
          -73.90308,4.92422,0
          -73.903,4.92457,0
          -73.903,4.9246,0
          -73.90292,4.92477,0
          -73.90277,4.92501,0
          -73.90253,4.92532,0
          -73.90237,4.92549,0
          -73.90229,4.92555,0
          -73.90209,4.92564,0
          -73.90194,4.92568,0
          -73.90179,4.92575,0
          -73.90172,4.9258,0
          -73.90169,4.92583,0
          -73.90156,4.92602,0
          -73.90153,4.92605,0
          -73.90136,4.92618,0
          -73.90131,4.92619,0
          -73.9013,4.9262,0
          -73.90107,4.92628,0
          -73.90102,4.92628,0
          -73.90101,4.92627,0
          -73.90093,4.92623,0
          -73.90077,4.92619,0
          -73.90072,4.92619,0
          -73.90066,4.9262,0
          -73.90048,4.92627,0
          -73.90032,4.92638,0
          -73.90016,4.92654,0
          -73.89999,4.92665,0
          -73.89997,4.92668,0
          -73.89995,4.92673,0
          -73.89991,4.92679,0
          -73.89989,4.92681,0
          -73.89983,4.92685,0
          -73.89975,4.92686,0
          -73.8996,4.92685,0
          -73.89934,4.92701,0
          -73.89921,4.92707,0
          -73.89909,4.92714,0
          -73.89895,4.92729,0
          -73.89878,4.92757,0
          -73.89867,4.92769,0
          -73.89865,4.9277,0
          -73.89863,4.92772,0
          -73.89857,4.92774,0
          -73.89852,4.92774,0
          -73.89849,4.92773,0
          -73.89829,4.92772,0
          -73.89816,4.92776,0
          -73.89803,4.92782,0
          -73.89795,4.92787,0
          -73.89772,4.92812,0
          -73.89766,4.92816,0
          -73.89761,4.92818,0
          -73.89754,4.92818,0
          -73.89736,4.92822,0
          -73.89728,4.92822,0
          -73.8972,4.92823,0
          -73.89706,4.92822,0
          -73.89676,4.92816,0
          -73.89657,4.92814,0
          -73.89638,4.92817,0
          -73.89627,4.92822,0
          -73.89608,4.92836,0
          -73.896,4.92852,0
          -73.89594,4.92867,0
          -73.89585,4.92885,0
          -73.89582,4.92888,0
          -73.89575,4.92892,0
          -73.8957,4.92892,0
          -73.89529,4.92884,0
          -73.89479,4.92852,0
          -73.89472,4.9285,0
          -73.89468,4.92848,0
          -73.89449,4.92847,0
          -73.89438,4.9285,0
          -73.89436,4.9285,0
          -73.89424,4.92858,0
          -73.89417,4.92866,0
          -73.8941,4.92882,0
          -73.89408,4.92926,0
          -73.89403,4.9294,0
          -73.89401,4.92942,0
          -73.89399,4.92943,0
          -73.89398,4.92944,0
          -73.89394,4.92944,0
          -73.89389,4.92945,0
          -73.89382,4.92944,0
          -73.89342,4.92931,0
          -73.8931,4.92924,0
          -73.89304,4.92924,0
          -73.89287,4.92922,0
          -73.89277,4.92918,0
          -73.89256,4.92904,0
          -73.89223,4.92877,0
          -73.89194,4.92862,0
          -73.89174,4.92855,0
          -73.89156,4.92852,0
          -73.89131,4.92851,0
          -73.89111,4.92847,0
          -73.8903,4.92808,0
          -73.89016,4.92805,0
          -73.89014,4.92804,0
          -73.8901,4.92804,0
          -73.89007,4.92805,0
          -73.89004,4.92805,0
          -73.89002,4.92806,0
          -73.89001,4.92807,0
          -73.88999,4.92808,0
          -73.88995,4.92814,0
          -73.88994,4.92817,0
          -73.88994,4.92845,0
          -73.88992,4.92854,0
          -73.88992,4.92856,0
          -73.88991,4.92859,0
          -73.88988,4.92861,0
          -73.88986,4.92863,0
          -73.88983,4.92865,0
          -73.88965,4.92869,0
          -73.88941,4.92872,0
          -73.8893,4.92872,0
          -73.88921,4.9287,0
          -73.88892,4.92867,0
          -73.88872,4.9287,0
          -73.88867,4.92872,0
          -73.88839,4.92894,0
          -73.88824,4.92903,0
          -73.888,4.9292,0
          -73.88782,4.92938,0
          -73.88771,4.92947,0
          -73.88762,4.92953,0
          -73.88753,4.92957,0
          -73.88752,4.92957,0
          -73.88743,4.9296,0
          -73.88699,4.92968,0
          -73.88692,4.9297,0
          -73.88668,4.92971,0
          -73.88652,4.92968,0
          -73.88565,4.92927,0
          -73.8856,4.92926,0
          -73.88476,4.92923,0
          -73.88428,4.92915,0
          -73.88384,4.92911,0
          -73.88322,4.92899,0
          -73.88319,4.92896,0
          -73.88315,4.92894,0
          -73.88259,4.92852,0
          -73.88214,4.92822,0
          -73.88202,4.92812,0
          -73.88182,4.92803,0
          -73.88174,4.92803,0
          -73.88167,4.92802,0
          -73.88142,4.92793,0
          -73.88118,4.92875,0
          -73.88112,4.92909,0
          -73.8811,4.92935,0
          -73.88113,4.92957,0
          -73.88117,4.92971,0
          -73.88127,4.9299,0
          -73.88153,4.93048,0
          -73.88155,4.93061,0
          -73.88155,4.93073,0
          -73.88154,4.93081,0
          -73.88151,4.93088,0
          -73.8814,4.93105,0
          -73.88134,4.93111,0
          -73.88112,4.93123,0
          -73.87998,4.93165,0
          -73.87963,4.93182,0
          -73.87946,4.93196,0
          -73.87933,4.9321,0
          -73.87927,4.93218,0
          -73.87902,4.93273,0
          -73.879,4.93281,0
          -73.87899,4.93294,0
          -73.879,4.93302,0
          -73.879,4.9331,0
          -73.87902,4.93319,0
          -73.87903,4.9332,0
          -73.87938,4.93383,0
          -73.8794,4.93385,0
          -73.87944,4.934,0
          -73.87944,4.93424,0
          -73.87942,4.93433,0
          -73.87939,4.93441,0
          -73.87926,4.93462,0
          -73.87752,4.93686,0
          -73.87746,4.93692,0
          -73.87711,4.93737,0
          -73.87711,4.93738,0
          -73.87678,4.93781,0
          -73.87674,4.93785,0
          -73.87612,4.93865,0
          -73.87608,4.93869,0
          -73.87581,4.93903,0
          -73.87571,4.93913,0
          -73.8755,4.93931,0
          -73.87299,4.9409,0
          -73.87253,4.9411,0
          -73.87241,4.94111,0
          -73.8721,4.94109,0
          -73.87171,4.94102,0
          -73.8715,4.941,0
          -73.8713,4.94095,0
          -73.871,4.9409,0
          -73.8709,4.9409,0
          -73.87083,4.94091,0
          -73.87076,4.94093,0
          -73.87054,4.94103,0
          -73.86974,4.94153,0
          -73.86955,4.94163,0
          -73.86954,4.94168,0
          -73.86937,4.94187,0
          -73.86921,4.94197,0
          -73.86896,4.94208,0
          -73.86895,4.94209,0
          -73.86888,4.94212,0
          -73.86888,4.94213,0
          -73.86887,4.94214,0
          -73.86886,4.94216,0
          -73.86886,4.94221,0
          -73.86887,4.94222,0
          -73.86887,4.94223,0
          -73.86888,4.94224,0
          -73.8689,4.94225,0
          -73.8689,4.94226,0
          -73.86916,4.94235,0
          -73.86927,4.94244,0
          -73.86938,4.94259,0
          -73.8694,4.94265,0
          -73.86941,4.94273,0
          -73.86941,4.94285,0
          -73.8694,4.94288,0
          -73.8694,4.94292,0
          -73.86912,4.94342,0
          -73.86907,4.94354,0
          -73.86893,4.94414,0
          -73.86893,4.94416,0
          -73.8689,4.9443,0
          -73.86886,4.94439,0
          -73.86875,4.94454,0
          -73.86865,4.94463,0
          -73.86858,4.94467,0
          -73.86849,4.9447,0
          -73.86845,4.94472,0
          -73.8684,4.94473,0
          -73.86836,4.94473,0
          -73.86832,4.94472,0
          -73.86827,4.94469,0
          -73.86821,4.94462,0
          -73.8681,4.94445,0
          -73.86809,4.94444,0
          -73.86793,4.94417,0
          -73.86788,4.94412,0
          -73.86787,4.9441,0
          -73.86783,4.94407,0
          -73.86779,4.94405,0
          -73.86774,4.94405,0
          -73.86767,4.94406,0
          -73.8676,4.94409,0
          -73.86757,4.94412,0
          -73.86755,4.94413,0
          -73.86752,4.94416,0
          -73.86747,4.94424,0
          -73.86728,4.94489,0
          -73.86699,4.94564,0
          -73.86698,4.94564,0
          -73.86696,4.9457,0
          -73.86692,4.94576,0
          -73.86687,4.94581,0
          -73.86678,4.94588,0
          -73.86663,4.94597,0
          -73.86594,4.94645,0
          -73.86584,4.94654,0
          -73.86582,4.94655,0
          -73.86578,4.94661,0
          -73.86576,4.94668,0
          -73.86574,4.94685,0
          -73.86556,4.94764,0
          -73.86554,4.94795,0
          -73.86552,4.94809,0
          -73.86552,4.94815,0
          -73.86553,4.9482,0
          -73.86555,4.94824,0
          -73.86559,4.94829,0
          -73.86578,4.94842,0
          -73.86585,4.94852,0
          -73.86607,4.94878,0
          -73.86612,4.94887,0
          -73.86623,4.94916,0
          -73.86641,4.94945,0
          -73.86643,4.94951,0
          -73.86644,4.94958,0
          -73.86644,4.94969,0
          -73.86645,4.94971,0
          -73.86648,4.95004,0
          -73.86647,4.95009,0
          -73.86647,4.95011,0
          -73.86641,4.95029,0
          -73.86641,4.95031,0
          -73.86636,4.95045,0
          -73.86636,4.95049,0
          -73.86637,4.95054,0
          -73.86637,4.95057,0
          -73.86639,4.95061,0
          -73.86676,4.95107,0
          -73.86686,4.95127,0
          -73.86692,4.95142,0
          -73.867,4.95155,0
          -73.86697,4.95156,0
          -73.86694,4.95159,0
          -73.86694,4.95161,0
          -73.86695,4.95162,0
          -73.86695,4.95164,0
          -73.867,4.95173,0
          -73.86713,4.95207,0
          -73.86724,4.95225,0
          -73.86724,4.95227,0
          -73.86725,4.95228,0
          -73.86725,4.95229,0
          -73.86724,4.95231,0
          -73.86724,4.95232,0
          -73.86722,4.95234,0
          -73.8672,4.95234,0
          -73.86719,4.95235,0
          -73.86718,4.95234,0
          -73.86716,4.95234,0
          -73.86708,4.95226,0
          -73.86699,4.95221,0
          -73.86696,4.95221,0
          -73.86695,4.95222,0
          -73.86694,4.95222,0
          -73.86692,4.95223,0
          -73.86692,4.95224,0
          -73.86691,4.95225,0
          -73.86691,4.95232,0
          -73.86695,4.95242,0
          -73.86696,4.95248,0
          -73.86698,4.95251,0
          -73.86702,4.95266,0
          -73.86703,4.95266,0
          -73.86705,4.95284,0
          -73.86706,4.95323,0
          -73.86707,4.9533,0
          -73.86709,4.95337,0
          -73.86709,4.95375,0
          -73.8671,4.95376,0
          -73.86708,4.95434,0
          -73.86705,4.95454,0
          -73.86696,4.95481,0
          -73.86688,4.95517,0
          -73.86687,4.95526,0
          -73.86689,4.95539,0
          -73.86686,4.95635,0
          -73.86685,4.9564,0
          -73.86685,4.95644,0
          -73.86681,4.95653,0
          -73.86669,4.95664,0
          -73.86655,4.95688,0
          -73.86652,4.95696,0
          -73.86637,4.95726,0
          -73.86633,4.95738,0
          -73.86599,4.95798,0
          -73.86588,4.95829,0
          -73.86587,4.9583,0
          -73.86581,4.95847,0
          -73.86581,4.95848,0
          -73.86576,4.95868,0
          -73.86572,4.95899,0
          -73.86572,4.95923,0
          -73.8657,4.95938,0
          -73.86568,4.95946,0
          -73.86563,4.95959,0
          -73.86561,4.95967,0
          -73.8656,4.95975,0
          -73.86562,4.95996,0
          -73.86573,4.9602,0
          -73.86579,4.96038,0
          -73.86579,4.96042,0
          -73.86578,4.96044,0
          -73.86576,4.96054,0
          -73.86568,4.96069,0
          -73.86567,4.96073,0
          -73.86566,4.96075,0
          -73.86563,4.9609,0
          -73.86566,4.96097,0
          -73.8657,4.96101,0
          -73.86589,4.96114,0
          -73.86591,4.96116,0
          -73.86593,4.96123,0
          -73.86593,4.96127,0
          -73.86592,4.96132,0
          -73.86592,4.96136,0
          -73.86593,4.96139,0
          -73.86593,4.96168,0
          -73.86591,4.96185,0
          -73.8659,4.96187,0
          -73.86587,4.96203,0
          -73.86587,4.96245,0
          -73.86584,4.96265,0
          -73.86582,4.9627,0
          -73.86575,4.96282,0
          -73.86574,4.96295,0
          -73.86575,4.96302,0
          -73.86577,4.96307,0
          -73.86577,4.9631,0
          -73.86581,4.96322,0
          -73.86626,4.96397,0
          -73.86628,4.96402,0
          -73.86628,4.96404,0
          -73.86629,4.96408,0
          -73.86629,4.96421,0
          -73.8663,4.96422,0
          -73.8663,4.96424,0
          -73.86638,4.96449,0
          -73.86642,4.96457,0
          -73.86643,4.96464,0
          -73.86643,4.96481,0
          -73.86649,4.9651,0
          -73.86653,4.96523,0
          -73.86654,4.9656,0
          -73.86658,4.96575,0
          -73.8666,4.9658,0
          -73.86674,4.96601,0
          -73.86686,4.96614,0
          -73.86693,4.96629,0
          -73.86692,4.96642,0
          -73.8669,4.96651,0
          -73.86684,4.96659,0
          -73.86667,4.96689,0
          -73.86666,4.96689,0
          -73.86662,4.96697,0
          -73.86656,4.96721,0
          -73.86657,4.96728,0
          -73.86656,4.96742,0
          -73.86663,4.96795,0
          -73.86661,4.96803,0
          -73.86658,4.96807,0
          -73.86643,4.96819,0
          -73.86634,4.96828,0
          -73.86631,4.9683,0
          -73.86629,4.96832,0
          -73.86625,4.96839,0
          -73.86623,4.96845,0
          -73.86622,4.96851,0
          -73.86623,4.96872,0
          -73.86625,4.96881,0
          -73.86628,4.96886,0
          -73.86637,4.96892,0
          -73.86642,4.96894,0
          -73.86645,4.96896,0
          -73.86647,4.96898,0
          -73.8665,4.96905,0
          -73.86652,4.96924,0
          -73.86652,4.96934,0
          -73.86651,4.9694,0
          -73.86648,4.96948,0
          -73.86645,4.96961,0
          -73.8664,4.97003,0
          -73.86636,4.97023,0
          -73.86629,4.97046,0
          -73.86619,4.97067,0
          -73.86615,4.97078,0
          -73.86615,4.97079,0
          -73.86606,4.97095,0
          -73.86599,4.97105,0
          -73.86595,4.97109,0
          -73.86586,4.97116,0
          -73.86582,4.97118,0
          -73.8658,4.97118,0
          -73.86574,4.97121,0
          -73.86564,4.97121,0
          -73.86555,4.97119,0
          -73.86549,4.97116,0
          -73.86545,4.97116,0
          -73.86543,4.97115,0
          -73.8653,4.97118,0
          -73.8653,4.97125,0
          -73.8655,4.97151,0
          -73.86553,4.97154,0
          -73.86553,4.97155,0
          -73.86555,4.97157,0
          -73.86558,4.97165,0
          -73.86559,4.97171,0
          -73.86561,4.97177,0
          -73.86562,4.97184,0
          -73.86562,4.97199,0
          -73.86559,4.9721,0
          -73.8655,4.9723,0
          -73.86548,4.97238,0
          -73.86547,4.9724,0
          -73.86547,4.97243,0
          -73.86546,4.97248,0
          -73.86546,4.97253,0
          -73.86551,4.97272,0
          -73.86554,4.97279,0
          -73.86557,4.97293,0
          -73.86557,4.97311,0
          -73.86558,4.97317,0
          -73.86569,4.97356,0
          -73.86571,4.97369,0
          -73.86571,4.97377,0
          -73.8657,4.97381,0
          -73.86569,4.97382,0
          -73.86566,4.97389,0
          -73.86561,4.97397,0
          -73.86549,4.9741,0
          -73.86549,4.97411,0
          -73.86543,4.97418,0
          -73.86539,4.97425,0
          -73.86535,4.97436,0
          -73.86532,4.97456,0
          -73.86535,4.9748,0
          -73.86543,4.97496,0
          -73.86554,4.97507,0
          -73.86588,4.97529,0
          -73.86592,4.97533,0
          -73.86598,4.97542,0
          -73.866,4.97549,0
          -73.866,4.97554,0
          -73.86606,4.9759,0
          -73.86604,4.9761,0
          -73.86604,4.9762,0
          -73.86603,4.97629,0
          -73.86604,4.9763,0
          -73.86604,4.9765,0
          -73.86603,4.97656,0
          -73.866,4.97666,0
          -73.86598,4.97668,0
          -73.86597,4.97672,0
          -73.8659,4.97682,0
          -73.86588,4.97683,0
          -73.86586,4.97686,0
          -73.86582,4.9769,0
          -73.86568,4.97697,0
          -73.86565,4.977,0
          -73.86564,4.97702,0
          -73.86563,4.97703,0
          -73.8656,4.97708,0
          -73.86558,4.97715,0
          -73.86558,4.97719,0
          -73.86557,4.97721,0
          -73.86557,4.97729,0
          -73.86556,4.97733,0
          -73.86556,4.97735,0
          -73.86555,4.97736,0
          -73.86555,4.97737,0
          -73.86552,4.97742,0
          -73.86538,4.97748,0
          -73.86528,4.97749,0
          -73.86511,4.97753,0
          -73.86508,4.97755,0
          -73.86503,4.9776,0
          -73.86498,4.97768,0
          -73.86495,4.9777,0
          -73.86493,4.97773,0
          -73.86481,4.97785,0
          -73.86472,4.97791,0
          -73.86445,4.97815,0
          -73.8644,4.97822,0
          -73.86437,4.97829,0
          -73.86437,4.97878,0
          -73.86436,4.97882,0
          -73.86436,4.97885,0
          -73.86435,4.9789,0
          -73.86433,4.97892,0
          -73.8643,4.97897,0
          -73.86423,4.97904,0
          -73.86406,4.97929,0
          -73.86402,4.97941,0
          -73.86384,4.97979,0
          -73.86384,4.9799,0
          -73.86385,4.97995,0
          -73.86385,4.97999,0
          -73.86388,4.98004,0
          -73.86389,4.98007,0
          -73.86393,4.98011,0
          -73.86396,4.98013,0
          -73.86406,4.98017,0
          -73.86414,4.98018,0
          -73.86436,4.98018,0
          -73.86439,4.98019,0
          -73.86442,4.98019,0
          -73.86454,4.98022,0
          -73.86459,4.98025,0
          -73.86464,4.9803,0
          -73.86485,4.9806,0
          -73.86491,4.98066,0
          -73.86513,4.98072,0
          -73.86515,4.98074,0
          -73.86516,4.98076,0
          -73.86518,4.98078,0
          -73.86519,4.98081,0
          -73.86519,4.98085,0
          -73.86516,4.98099,0
          -73.86515,4.981,0
          -73.86512,4.98107,0
          -73.86511,4.98111,0
          -73.86471,4.98185,0
          -73.86468,4.98195,0
          -73.86466,4.98217,0
          -73.86468,4.98231,0
          -73.86469,4.98232,0
          -73.8647,4.98236,0
          -73.86472,4.98239,0
          -73.86481,4.98249,0
          -73.86489,4.98255,0
          -73.86502,4.98267,0
          -73.86505,4.98272,0
          -73.86507,4.98281,0
          -73.86506,4.98316,0
          -73.86507,4.98328,0
          -73.86506,4.98337,0
          -73.86505,4.9834,0
          -73.86496,4.98351,0
          -73.86486,4.98366,0
          -73.86474,4.98388,0
          -73.86479,4.98393,0
          -73.86482,4.98395,0
          -73.86485,4.98398,0
          -73.86486,4.984,0
          -73.86487,4.98401,0
          -73.86487,4.98402,0
          -73.86488,4.98404,0
          -73.8648,4.98425,0
          -73.86479,4.9843,0
          -73.86486,4.98448,0
          -73.86489,4.98453,0
          -73.86491,4.98461,0
          -73.86491,4.98465,0
          -73.8649,4.98468,0
          -73.86483,4.9848,0
          -73.86478,4.98485,0
          -73.86476,4.98492,0
          -73.86475,4.98493,0
          -73.86474,4.98497,0
          -73.86474,4.98521,0
          -73.86472,4.98545,0
          -73.86471,4.9855,0
          -73.86471,4.98563,0
          -73.8647,4.98568,0
          -73.86474,4.98582,0
          -73.86475,4.98594,0
          -73.86473,4.98599,0
          -73.86461,4.98611,0
          -73.86457,4.98614,0
          -73.86456,4.98614,0
          -73.86439,4.98628,0
          -73.86434,4.98635,0
          -73.86432,4.98639,0
          -73.86431,4.9864,0
          -73.86427,4.98651,0
          -73.86425,4.9866,0
          -73.86413,4.98684,0
          -73.86409,4.98689,0
          -73.86401,4.98703,0
          -73.8638,4.98732,0
          -73.86379,4.98737,0
          -73.86379,4.98742,0
          -73.86374,4.98755,0
          -73.8637,4.98761,0
          -73.8637,4.98762,0
          -73.86355,4.98782,0
          -73.86346,4.98797,0
          -73.86344,4.98805,0
          -73.86343,4.98817,0
          -73.8638,4.98814,0
          -73.86389,4.9881,0
          -73.86427,4.98801,0
          -73.86441,4.98796,0
          -73.8647,4.98789,0
          -73.86482,4.9879,0
          -73.86527,4.988,0
          -73.86529,4.988,0
          -73.86543,4.98807,0
          -73.86558,4.98811,0
          -73.86562,4.98811,0
          -73.86577,4.98806,0
          -73.86585,4.98798,0
          -73.86592,4.98795,0
          -73.86598,4.98794,0
          -73.86603,4.98794,0
          -73.86607,4.98796,0
          -73.86613,4.98806,0
          -73.86614,4.98807,0
          -73.86616,4.98811,0
          -73.86624,4.98818,0
          -73.86631,4.9882,0
          -73.86644,4.98822,0
          -73.86666,4.98822,0
          -73.86677,4.98824,0
          -73.86714,4.98835,0
          -73.86724,4.98835,0
          -73.8674,4.98831,0
          -73.86743,4.98828,0
          -73.86745,4.98827,0
          -73.86752,4.98827,0
          -73.86753,4.98829,0
          -73.86754,4.9883,0
          -73.86754,4.98836,0
          -73.86745,4.9885,0
          -73.86744,4.98854,0
          -73.86746,4.98858,0
          -73.86748,4.9886,0
          -73.86756,4.98862,0
          -73.8676,4.98865,0
          -73.86766,4.98887,0
          -73.8677,4.98891,0
          -73.86772,4.98895,0
          -73.86774,4.98897,0
          -73.86775,4.98899,0
          -73.86777,4.98901,0
          -73.86787,4.98901,0
          -73.86789,4.98899,0
          -73.86788,4.98888,0
          -73.86787,4.98886,0
          -73.86787,4.98875,0
          -73.8679,4.98866,0
          -73.86793,4.98829,0
          -73.86796,4.98817,0
          -73.86796,4.98815,0
          -73.86806,4.98792,0
          -73.86813,4.98786,0
          -73.86819,4.98779,0
          -73.86819,4.98777,0
          -73.8682,4.98775,0
          -73.86822,4.98773,0
          -73.86823,4.98771,0
          -73.86826,4.98768,0
          -73.86828,4.98772,0
          -73.86828,4.98775,0
          -73.86827,4.98777,0
          -73.86827,4.98785,0
          -73.86828,4.98788,0
          -73.86831,4.98793,0
          -73.86834,4.98796,0
          -73.86837,4.98801,0
          -73.86878,4.98854,0
          -73.86882,4.98861,0
          -73.86893,4.98874,0
          -73.86899,4.98878,0
          -73.86909,4.98887,0
          -73.86946,4.9891,0
          -73.86972,4.9893,0
          -73.86984,4.98937,0
          -73.87106,4.99036,0
          -73.87056,4.99105,0
          -73.87181,4.99195,0
          -73.87292,4.99263,0
          -73.87166,4.9941,0
          -73.87324,4.99224,0
          -73.87359,4.99187,0
          -73.87379,4.992,0
          -73.87386,4.99207,0
          -73.87408,4.99217,0
          -73.87421,4.9922,0
          -73.87429,4.99223,0
          -73.87432,4.99223,0
          -73.87509,4.99245,0
          -73.87618,4.99284,0
          -73.87655,4.99302,0
          -73.87695,4.99327,0
          -73.87709,4.9934,0
          -73.87767,4.99417,0
          -73.87799,4.99464,0
          -73.87808,4.99475,0
          -73.87818,4.99492,0
          -73.87838,4.9951,0
          -73.87849,4.99517,0
          -73.87851,4.99519,0
          -73.87858,4.99523,0
          -73.87873,4.99534,0
          -73.87885,4.99545,0
          -73.87899,4.99564,0
          -73.87913,4.99573,0
          -73.87924,4.99576,0
          -73.87928,4.99576,0
          -73.87976,4.99588,0
          -73.88004,4.9959,0
          -73.88037,4.99603,0
          -73.88059,4.99609,0
          -73.88081,4.99613,0
          -73.88083,4.99614,0
          -73.88096,4.99616,0
          -73.8811,4.99621,0
          -73.88151,4.99652,0
          -73.88178,4.99676,0
          -73.88202,4.99692,0
          -73.88215,4.99698,0
          -73.8822,4.99699,0
          -73.88225,4.99701,0
          -73.88289,4.99706,0
          -73.88309,4.99713,0
          -73.88317,4.99718,0
          -73.88439,4.99823,0
          -73.88453,4.99837,0
          -73.88468,4.99846,0
          -73.88523,4.99873,0
          -73.88524,4.99874,0
          -73.88525,4.99874,0
          -73.88539,4.99881,0
          -73.88544,4.99886,0
          -73.88558,4.99897,0
          -73.88565,4.99905,0
          -73.88569,4.99908,0
          -73.88609,4.99966,0
          -73.88614,4.9997,0
          -73.88681,5.00012,0
          -73.89058,5.00272,0
          -73.8911,5.00295,0
          -73.89171,5.00317,0
          -73.89146,5.00343,0
          -73.89145,5.00345,0
          -73.89085,5.00408,0
          -73.89072,5.0042,0
          -73.89023,5.00472,0
          -73.88997,5.00505,0
          -73.88926,5.00566,0
          -73.88901,5.00594,0
          -73.88883,5.00621,0
          -73.88853,5.00676,0
          -73.88846,5.00694,0
          -73.88835,5.00732,0
          -73.8883,5.00777,0
          -73.88829,5.00828,0
          -73.88828,5.00831,0
          -73.88821,5.0088,0
          -73.88821,5.009,0
          -73.88824,5.00912,0
          -73.88873,5.01036,0
          -73.88874,5.01047,0
          -73.88873,5.01059,0
          -73.88784,5.01344,0
          -73.88692,5.01602,0
          -73.88648,5.01746,0
          -73.88647,5.01747,0
          -73.88634,5.01781,0
          -73.88617,5.01812,0
          -73.88604,5.01829,0
          -73.88478,5.01973,0
          -73.88467,5.01988,0
          -73.88415,5.02089,0
          -73.88413,5.02095,0
          -73.8841,5.02115,0
          -73.8841,5.02181,0
          -73.88409,5.02188,0
          -73.88406,5.02197,0
          -73.88403,5.02211,0
          -73.8838,5.02269,0
          -73.8836,5.02308,0
          -73.88324,5.02363,0
          -73.8829,5.0241,0
          -73.88285,5.02419,0
          -73.88244,5.02479,0
          -73.88164,5.0261,0
          -73.88132,5.02667,0
          -73.88128,5.02672,0
          -73.88116,5.02684,0
          -73.88095,5.02722,0
          -73.8803,5.02824,0
          -73.88029,5.02825,0
          -73.88012,5.02854,0
          -73.87963,5.02952,0
          -73.87962,5.02953,0
          -73.87927,5.03034,0
          -73.87916,5.03068,0
          -73.87916,5.0307,0
          -73.87905,5.031,0
          -73.87887,5.0316,0
          -73.87879,5.03172,0
          -73.87873,5.03184,0
          -73.87835,5.03228,0
          -73.87805,5.03255,0
          -73.87799,5.03259,0
          -73.87776,5.03269,0
          -73.87766,5.03272,0
          -73.87757,5.03278,0
          -73.87751,5.03285,0
          -73.87648,5.03437,0
          -73.87598,5.03505,0
          -73.87579,5.03528,0
          -73.87538,5.0359,0
          -73.87521,5.03612,0
          -73.87429,5.03766,0
          -73.87393,5.03841,0
          -73.87391,5.03849,0
          -73.87388,5.03855,0
          -73.87386,5.03863,0
          -73.87374,5.03897,0
          -73.87365,5.03918,0
          -73.87281,5.04077,0
          -73.87273,5.0409,0
          -73.87175,5.04222,0
          -73.87167,5.04247,0
          -73.8714,5.04375,0
          -73.87138,5.04424,0
          -73.87135,5.04447,0
          -73.87127,5.04478,0
          -73.87127,5.0448,0
          -73.87117,5.04525,0
          -73.87112,5.04563,0
          -73.87113,5.0461,0
          -73.87109,5.04651,0
          -73.87086,5.048,0
          -73.8708,5.04877,0
          -73.8708,5.04889,0
          -73.87073,5.04979,0
          -73.8711,5.04983,0
          -73.8712,5.04985,0
          -73.87125,5.04987,0
          -73.87127,5.04991,0
          -73.87127,5.04998,0
          -73.87126,5.05001,0
          -73.87123,5.05006,0
          -73.87122,5.0501,0
          -73.87118,5.05017,0
          -73.87094,5.05094,0
          -73.87094,5.05096,0
          -73.87093,5.051,0
          -73.87093,5.05103,0
          -73.87094,5.05106,0
          -73.87094,5.0511,0
          -73.87095,5.05112,0
          -73.87101,5.05119,0
          -73.87107,5.05123,0
          -73.87121,5.05129,0
          -73.87148,5.05144,0
          -73.8715,5.05147,0
          -73.87152,5.05149,0
          -73.87156,5.05165,0
          -73.87157,5.05175,0
          -73.87157,5.05197,0
          -73.87153,5.05208,0
          -73.87149,5.05212,0
          -73.87144,5.05214,0
          -73.87143,5.05215,0
          -73.87128,5.05222,0
          -73.87128,5.05223,0
          -73.87126,5.05224,0
          -73.87124,5.05226,0
          -73.87111,5.05248,0
          -73.87107,5.05257,0
          -73.871,5.05265,0
          -73.87096,5.05268,0
          -73.8705,5.05293,0
          -73.86965,5.05326,0
          -73.86959,5.05326,0
          -73.8695,5.05324,0
          -73.86948,5.05324,0
          -73.86947,5.05323,0
          -73.86937,5.05319,0
          -73.86935,5.05319,0
          -73.8693,5.05317,0
          -73.86926,5.05317,0
          -73.86922,5.05316,0
          -73.86915,5.05319,0
          -73.86915,5.05323,0
          -73.86916,5.05327,0
          -73.86924,5.05339,0
          -73.8695,5.05369,0
          -73.86955,5.05378,0
          -73.86955,5.05379,0
          -73.86983,5.05495,0
          -73.86984,5.05502,0
          -73.86988,5.05517,0
          -73.86989,5.05544,0
          -73.86984,5.0556,0
          -73.86953,5.05624,0
          -73.86945,5.05644,0
          -73.8694,5.05667,0
          -73.86929,5.05703,0
          -73.86915,5.05729,0
          -73.86899,5.05749,0
          -73.86881,5.05765,0
          -73.8688,5.05767,0
          -73.86879,5.05768,0
          -73.86877,5.05773,0
          -73.86877,5.05776,0
          -73.86878,5.05778,0
          -73.86879,5.05779,0
          -73.86882,5.05784,0
          -73.86886,5.05788,0
          -73.86888,5.05789,0
          -73.8689,5.05789,0
          -73.86895,5.0579,0
          -73.8691,5.0579,0
          -73.86922,5.05788,0
          -73.86953,5.0578,0
          -73.86984,5.05774,0
          -73.87011,5.05771,0
          -73.87014,5.05772,0
          -73.87016,5.05772,0
          -73.8702,5.05773,0
          -73.87023,5.05773,0
          -73.8703,5.05776,0
          -73.87036,5.0578,0
          -73.87046,5.0578,0
          -73.87072,5.05783,0
          -73.87079,5.05782,0
          -73.87087,5.05782,0
          -73.87095,5.0578,0
          -73.87127,5.05778,0
          -73.8714,5.0578,0
          -73.87143,5.05781,0
          -73.87179,5.05787,0
          -73.8719,5.05787,0
          -73.87194,5.05786,0
          -73.87197,5.05786,0
          -73.87204,5.05784,0
          -73.87207,5.05782,0
          -73.8723,5.05772,0
          -73.87231,5.05772,0
          -73.87234,5.05771,0
          -73.87252,5.05771,0
          -73.87268,5.05775,0
          -73.8729,5.05778,0
          -73.87298,5.05778,0
          -73.87326,5.05773,0
          -73.87333,5.05773,0
          -73.87348,5.05775,0
          -73.8736,5.05778,0
          -73.87399,5.05791,0
          -73.87416,5.05794,0
          -73.87417,5.05795,0
          -73.87517,5.05811,0
          -73.87597,5.05827,0
          -73.87624,5.0583,0
          -73.87642,5.0583,0
          -73.87648,5.05829,0
          -73.87654,5.05829,0
          -73.87656,5.05828,0
          -73.87688,5.05822,0
          -73.87692,5.05822,0
          -73.87697,5.05821,0
          -73.87717,5.05822,0
          -73.87727,5.05824,0
          -73.87747,5.05831,0
          -73.87758,5.05837,0
          -73.87766,5.05843,0
          -73.87772,5.05849,0
          -73.87798,5.05881,0
          -73.87814,5.05912,0
          -73.87819,5.05926,0
          -73.87823,5.05947,0
          -73.87824,5.05948,0
          -73.87826,5.05975,0
          -73.87824,5.05996,0
          -73.87822,5.06002,0
          -73.87822,5.06004,0
          -73.8782,5.06011,0
          -73.87817,5.06028,0
          -73.87817,5.06045,0
          -73.87829,5.06104,0
          -73.87829,5.06125,0
          -73.87827,5.06135,0
          -73.87805,5.06206,0
          -73.87783,5.06251,0
          -73.87777,5.06266,0
          -73.87771,5.06296,0
          -73.87771,5.06308,0
          -73.87775,5.06317,0
          -73.87787,5.06332,0
          -73.87787,5.06334,0
          -73.87789,5.06338,0
          -73.87789,5.06341,0
          -73.87786,5.06351,0
          -73.8778,5.06364,0
          -73.87778,5.06367,0
          -73.87778,5.06368,0
          -73.87775,5.06371,0
          -73.87754,5.06381,0
          -73.87748,5.06385,0
          -73.87748,5.06386,0
          -73.87743,5.06391,0
          -73.87737,5.06399,0
          -73.87737,5.064,0
          -73.87732,5.06409,0
          -73.87723,5.0642,0
          -73.87715,5.06428,0
          -73.87696,5.06443,0
          -73.87689,5.0645,0
          -73.87689,5.06452,0
          -73.8769,5.06453,0
          -73.87692,5.06459,0
          -73.87695,5.06465,0
          -73.87727,5.06491,0
          -73.87765,5.06528,0
          -73.87825,5.06577,0
          -73.8789,5.06618,0
          -73.87979,5.06663,0
          -73.87985,5.06665,0
          -73.87987,5.06665,0
          -73.88002,5.06668,0
          -73.88005,5.06668,0
          -73.88044,5.06678,0
          -73.88052,5.06682,0
          -73.88054,5.06684,0
          -73.88059,5.06687,0
          -73.88062,5.06694,0
          -73.88063,5.06698,0
        </coordinates>
      </LineString>
    </Placemark>
    <Placemark>
      <name>Sopo, Sopó, Cundinamarca</name>
      <styleUrl>#icon-1899-DB4436-nodesc</styleUrl>
      <Point>
        <coordinates>
          -73.9414401,4.9086474,0
        </coordinates>
      </Point>
    </Placemark>
    <Placemark>
      <name>Vibras de Café, Embalse de Tominé, Guatavita, Cundinamarca</name>
      <styleUrl>#icon-1899-DB4436-nodesc</styleUrl>
      <Point>
        <coordinates>
          -73.8671024,4.9539292,0
        </coordinates>
      </Point>
    </Placemark>
    <Placemark>
      <name>Gachancipá, Cundinamarca</name>
      <styleUrl>#icon-1899-DB4436-nodesc</styleUrl>
      <Point>
        <coordinates>
          -73.8716632,4.9940995,0
        </coordinates>
      </Point>
    </Placemark>
    <Placemark>
      <name>Nemocón, Cundinamarca</name>
      <styleUrl>#icon-1899-DB4436-nodesc</styleUrl>
      <Point>
        <coordinates>
          -73.8806325,5.0669837,0
        </coordinates>
      </Point>
    </Placemark>
  </Document>
</kml>
